{"type": "FeatureCollection", "_source": "Brahmaputra river course \u2014 extracted from the GSI/Bhukosh rivers layer (rivers.geojson). Simplified.", "features": [{"type": "Feature", "properties": {"name": "Brahmaputra"}, "geometry": {"type": "MultiLineString", "coordinates": [[[89.961, 25.931], [89.955, 25.928], [89.949, 25.92], [89.942, 25.902], [89.94, 25.892], [89.932, 25.878], [89.921, 25.862], [89.916, 25.846], [89.912, 25.843], [89.9, 25.835], [89.898, 25.83], [89.898, 25.819], [89.896, 25.814], [89.89, 25.804], [89.884, 25.797], [89.868, 25.792], [89.862, 25.775], [89.859, 25.768], [89.858, 25.759], [89.86, 25.75], [89.861, 25.739], [89.86, 25.725], [89.856, 25.72], [89.846, 25.715]], [[89.961, 25.931], [89.961, 25.947], [89.961, 25.958], [89.965, 25.965], [89.962, 25.975], [89.961, 25.985], [89.966, 25.992], [89.972, 25.997], [89.987, 25.997], [89.997, 26.001], [90, 26.011], [90.013, 26.023], [90.021, 26.029], [90.036, 26.037], [90.053, 26.041]], [[90.082, 26.034], [90.081, 26.03], [90.075, 26.02], [90.073, 26.004], [90.069, 25.999], [90.057, 25.995], [90.042, 25.982], [90.034, 25.973], [90.021, 25.954], [90.004, 25.935], [89.997, 25.931], [89.991, 25.929], [89.961, 25.931]], [[90.082, 26.034], [90.068, 26.039], [90.053, 26.041]], [[90.12, 26.049], [90.109, 26.042], [90.099, 26.039], [90.092, 26.038], [90.087, 26.035], [90.082, 26.034]], [[90.197, 26.08], [90.192, 26.073], [90.187, 26.061], [90.184, 26.057], [90.171, 26.052], [90.161, 26.051], [90.154, 26.049], [90.12, 26.049]], [[90.197, 26.08], [90.186, 26.081], [90.178, 26.084], [90.154, 26.085]], [[90.154, 26.085], [90.143, 26.086], [90.135, 26.085], [90.13, 26.079], [90.129, 26.07], [90.12, 26.049]], [[90.162, 26.094], [90.154, 26.085]], [[90.162, 26.094], [90.154, 26.096], [90.141, 26.101], [90.133, 26.101], [90.114, 26.1], [90.107, 26.095], [90.096, 26.083], [90.09, 26.075], [90.089, 26.067], [90.083, 26.059], [90.074, 26.05], [90.053, 26.041]], [[90.221, 26.095], [90.21, 26.094], [90.197, 26.08]], [[90.221, 26.095], [90.225, 26.099], [90.227, 26.115], [90.23, 26.119]], [[90.279, 26.108], [90.272, 26.108], [90.26, 26.104], [90.254, 26.098], [90.253, 26.094], [90.249, 26.087], [90.237, 26.088], [90.228, 26.092], [90.221, 26.095]], [[90.279, 26.108], [90.27, 26.12], [90.255, 26.131], [90.244, 26.129], [90.233, 26.123], [90.23, 26.119]], [[90.317, 26.11], [90.309, 26.107], [90.302, 26.107], [90.279, 26.108]], [[90.23, 26.119], [90.217, 26.12], [90.202, 26.121], [90.191, 26.118], [90.181, 26.113], [90.175, 26.108], [90.162, 26.094]], [[90.828, 26.112], [90.819, 26.113], [90.81, 26.117], [90.798, 26.131], [90.795, 26.135], [90.79, 26.136], [90.779, 26.129], [90.772, 26.129], [90.763, 26.135], [90.759, 26.136], [90.75, 26.134], [90.742, 26.128], [90.737, 26.121], [90.734, 26.117], [90.729, 26.118], [90.722, 26.121], [90.716, 26.131], [90.707, 26.133], [90.702, 26.131], [90.686, 26.132], [90.682, 26.137], [90.686, 26.148], [90.683, 26.162], [90.67, 26.173]], [[90.415, 26.176], [90.411, 26.166], [90.403, 26.156], [90.399, 26.153], [90.398, 26.147], [90.395, 26.141], [90.394, 26.13], [90.392, 26.124], [90.387, 26.12], [90.38, 26.118], [90.361, 26.119], [90.34, 26.118], [90.333, 26.115], [90.325, 26.114], [90.317, 26.11]], [[90.67, 26.173], [90.661, 26.173], [90.644, 26.184], [90.641, 26.19], [90.64, 26.201]], [[90.917, 26.159], [90.903, 26.159], [90.901, 26.157], [90.899, 26.145], [90.888, 26.146], [90.884, 26.15], [90.881, 26.15], [90.876, 26.147], [90.867, 26.139], [90.866, 26.134], [90.862, 26.129], [90.861, 26.122], [90.856, 26.118], [90.843, 26.119], [90.836, 26.12], [90.828, 26.112]], [[90.917, 26.159], [90.909, 26.167], [90.904, 26.17], [90.903, 26.178], [90.899, 26.18], [90.888, 26.175], [90.875, 26.175], [90.859, 26.179], [90.846, 26.176]], [[90.917, 26.159], [90.925, 26.161], [90.926, 26.166], [90.93, 26.172], [90.933, 26.18], [90.939, 26.181], [90.944, 26.178], [90.951, 26.18], [90.96, 26.186], [90.977, 26.18], [90.984, 26.181], [90.998, 26.187], [90.999, 26.199], [91.004, 26.212]], [[90.412, 26.198], [90.412, 26.194], [90.416, 26.187], [90.415, 26.176]], [[90.412, 26.198], [90.406, 26.198], [90.393, 26.203], [90.388, 26.203], [90.38, 26.2], [90.38, 26.198], [90.373, 26.193], [90.347, 26.185], [90.344, 26.182], [90.341, 26.173], [90.341, 26.158], [90.339, 26.147], [90.336, 26.142], [90.326, 26.135], [90.321, 26.126], [90.319, 26.115], [90.317, 26.11]], [[90.846, 26.176], [90.839, 26.172], [90.831, 26.171], [90.815, 26.173], [90.802, 26.174], [90.79, 26.174], [90.771, 26.175], [90.763, 26.18], [90.76, 26.19], [90.752, 26.198], [90.745, 26.199], [90.736, 26.198], [90.728, 26.194], [90.724, 26.187], [90.715, 26.18], [90.705, 26.178], [90.688, 26.178], [90.67, 26.173]], [[91.385, 26.147], [91.378, 26.143], [91.364, 26.138], [91.359, 26.137], [91.35, 26.133], [91.338, 26.121], [91.323, 26.113], [91.32, 26.108], [91.317, 26.1], [91.315, 26.099], [91.294, 26.1], [91.289, 26.102], [91.272, 26.127], [91.268, 26.131], [91.262, 26.131], [91.246, 26.124], [91.243, 26.129], [91.228, 26.138], [91.22, 26.145], [91.211, 26.147], [91.206, 26.151], [91.201, 26.161], [91.195, 26.166], [91.182, 26.168], [91.171, 26.164], [91.163, 26.165], [91.149, 26.17], [91.144, 26.179], [91.143, 26.19]], [[91.385, 26.147], [91.378, 26.151], [91.364, 26.154], [91.353, 26.161], [91.34, 26.164], [91.33, 26.16], [91.319, 26.157], [91.31, 26.158], [91.303, 26.163], [91.296, 26.169], [91.292, 26.176], [91.278, 26.184], [91.275, 26.185]], [[90.64, 26.201], [90.635, 26.205], [90.628, 26.208], [90.618, 26.209], [90.593, 26.211], [90.574, 26.204], [90.56, 26.205], [90.552, 26.207]], [[90.64, 26.201], [90.644, 26.199], [90.654, 26.2], [90.662, 26.209], [90.674, 26.209], [90.681, 26.21], [90.694, 26.216], [90.703, 26.227], [90.711, 26.23], [90.716, 26.237], [90.72, 26.235], [90.736, 26.237], [90.745, 26.237], [90.752, 26.242], [90.762, 26.24], [90.77, 26.235], [90.776, 26.24], [90.783, 26.235], [90.786, 26.227], [90.794, 26.219], [90.814, 26.213], [90.829, 26.207], [90.856, 26.205], [90.87, 26.2]], [[90.552, 26.207], [90.549, 26.202], [90.541, 26.199], [90.53, 26.199], [90.504, 26.199], [90.48, 26.196], [90.472, 26.196], [90.462, 26.194], [90.445, 26.187], [90.435, 26.182], [90.426, 26.179], [90.415, 26.176]], [[90.552, 26.207], [90.539, 26.216], [90.533, 26.222], [90.518, 26.24], [90.513, 26.242], [90.5, 26.243], [90.489, 26.238], [90.477, 26.241], [90.457, 26.242], [90.442, 26.233], [90.437, 26.226], [90.43, 26.22], [90.425, 26.213], [90.412, 26.198]], [[91.236, 26.164], [91.229, 26.164], [91.22, 26.161], [91.216, 26.163], [91.21, 26.17]], [[91.236, 26.164], [91.232, 26.172], [91.223, 26.177], [91.219, 26.182], [91.212, 26.183]], [[91.21, 26.17], [91.202, 26.178], [91.197, 26.181], [91.185, 26.183], [91.169, 26.189], [91.152, 26.191], [91.143, 26.19]], [[90.87, 26.2], [90.857, 26.19], [90.85, 26.182], [90.846, 26.176]], [[91.572, 26.157], [91.565, 26.154], [91.547, 26.137], [91.536, 26.131], [91.524, 26.124], [91.509, 26.121], [91.486, 26.122], [91.462, 26.13], [91.441, 26.142], [91.433, 26.144], [91.426, 26.144], [91.419, 26.142], [91.408, 26.145], [91.385, 26.147]], [[91.572, 26.157], [91.562, 26.159], [91.537, 26.168], [91.527, 26.163]], [[91.212, 26.183], [91.21, 26.17]], [[91.212, 26.183], [91.208, 26.184], [91.205, 26.188], [91.205, 26.194], [91.207, 26.203], [91.206, 26.207]], [[91.143, 26.19], [91.137, 26.195], [91.131, 26.197]], [[91.258, 26.183], [91.255, 26.178], [91.251, 26.165], [91.245, 26.161], [91.236, 26.164]], [[91.258, 26.183], [91.248, 26.184], [91.239, 26.19], [91.23, 26.199], [91.222, 26.201], [91.22, 26.206], [91.206, 26.207]], [[91.527, 26.163], [91.514, 26.16], [91.505, 26.154], [91.493, 26.154], [91.489, 26.156], [91.483, 26.161], [91.471, 26.162], [91.466, 26.159], [91.457, 26.164], [91.451, 26.172]], [[91.527, 26.163], [91.525, 26.167], [91.503, 26.167], [91.498, 26.163], [91.488, 26.163], [91.483, 26.167], [91.476, 26.168], [91.471, 26.172]], [[91.101, 26.196], [91.106, 26.189], [91.101, 26.185], [91.099, 26.18], [91.09, 26.181], [91.081, 26.184], [91.077, 26.179], [91.071, 26.177], [91.06, 26.179], [91.053, 26.176], [91.051, 26.17], [91.044, 26.166], [91.039, 26.157], [91.027, 26.149], [91.019, 26.15], [91.013, 26.147], [91.009, 26.142], [91, 26.138], [90.998, 26.127], [90.99, 26.124], [90.978, 26.114], [90.974, 26.113], [90.967, 26.105], [90.958, 26.1], [90.939, 26.094], [90.925, 26.091], [90.921, 26.089], [90.916, 26.091], [90.91, 26.087], [90.906, 26.086], [90.895, 26.088], [90.88, 26.095], [90.865, 26.096], [90.857, 26.096], [90.843, 26.102], [90.828, 26.112]], [[91.451, 26.172], [91.447, 26.176], [91.447, 26.182], [91.448, 26.187], [91.447, 26.195], [91.447, 26.204], [91.445, 26.214], [91.44, 26.217], [91.43, 26.216], [91.426, 26.21], [91.415, 26.21], [91.405, 26.203], [91.396, 26.205]], [[91.275, 26.185], [91.263, 26.186], [91.258, 26.183]], [[91.275, 26.185], [91.274, 26.196], [91.269, 26.197], [91.263, 26.195], [91.254, 26.197], [91.251, 26.203], [91.254, 26.209], [91.25, 26.217], [91.242, 26.222], [91.235, 26.225]], [[91.471, 26.172], [91.459, 26.174], [91.451, 26.172]], [[91.471, 26.172], [91.469, 26.18], [91.468, 26.194], [91.464, 26.204], [91.463, 26.212], [91.466, 26.223], [91.467, 26.228], [91.462, 26.237], [91.453, 26.245], [91.448, 26.247], [91.44, 26.248], [91.426, 26.257], [91.402, 26.259], [91.391, 26.255], [91.379, 26.256], [91.377, 26.258], [91.369, 26.259]], [[91.131, 26.197], [91.122, 26.198], [91.101, 26.196]], [[91.131, 26.197], [91.129, 26.201], [91.121, 26.208], [91.112, 26.211], [91.098, 26.207], [91.093, 26.207], [91.079, 26.21], [91.054, 26.233]], [[91.013, 26.211], [91.004, 26.212]], [[91.013, 26.211], [91.022, 26.204], [91.025, 26.204], [91.041, 26.21]], [[91.004, 26.212], [91, 26.21], [90.988, 26.203], [90.982, 26.2], [90.969, 26.202], [90.96, 26.209], [90.943, 26.214], [90.938, 26.218], [90.931, 26.227], [90.924, 26.23], [90.914, 26.231], [90.905, 26.227], [90.899, 26.222], [90.894, 26.21], [90.883, 26.205], [90.877, 26.205], [90.87, 26.2]], [[91.041, 26.21], [91.058, 26.208], [91.063, 26.204], [91.074, 26.197], [91.078, 26.194], [91.085, 26.193], [91.101, 26.196]], [[91.041, 26.21], [91.035, 26.214], [91.033, 26.22], [91.027, 26.224]], [[91.206, 26.207], [91.202, 26.213]], [[91.027, 26.224], [91.019, 26.217], [91.013, 26.211]], [[91.202, 26.213], [91.2, 26.215], [91.192, 26.217], [91.187, 26.22], [91.182, 26.228], [91.179, 26.231]], [[91.396, 26.205], [91.388, 26.207], [91.383, 26.207], [91.374, 26.204], [91.368, 26.206], [91.364, 26.215], [91.361, 26.217], [91.341, 26.223], [91.338, 26.227], [91.338, 26.236], [91.325, 26.238], [91.318, 26.242], [91.305, 26.239], [91.295, 26.245], [91.282, 26.246], [91.278, 26.247], [91.268, 26.254]], [[91.396, 26.205], [91.398, 26.215], [91.397, 26.22], [91.386, 26.23], [91.384, 26.233], [91.387, 26.242], [91.384, 26.247], [91.374, 26.253], [91.369, 26.259]], [[91.054, 26.233], [91.043, 26.231], [91.029, 26.226], [91.027, 26.224]], [[91.235, 26.225], [91.222, 26.216], [91.206, 26.216], [91.202, 26.213]], [[91.179, 26.231], [91.172, 26.232], [91.156, 26.23], [91.142, 26.237]], [[91.179, 26.231], [91.176, 26.238], [91.169, 26.243], [91.161, 26.245]], [[91.069, 26.241], [91.064, 26.238], [91.054, 26.233]], [[91.142, 26.237], [91.138, 26.235], [91.122, 26.234], [91.114, 26.229], [91.104, 26.232], [91.094, 26.235], [91.083, 26.241], [91.076, 26.242], [91.069, 26.241]], [[91.745, 26.195], [91.735, 26.192], [91.73, 26.189], [91.722, 26.182], [91.708, 26.177], [91.688, 26.176], [91.681, 26.176], [91.674, 26.175], [91.66, 26.176], [91.64, 26.18], [91.609, 26.179], [91.601, 26.176], [91.584, 26.163], [91.572, 26.157]], [[91.251, 26.233], [91.235, 26.225]], [[91.251, 26.233], [91.237, 26.234], [91.231, 26.243], [91.226, 26.247], [91.217, 26.248], [91.215, 26.253], [91.208, 26.257], [91.192, 26.254]], [[91.147, 26.242], [91.142, 26.237]], [[91.147, 26.242], [91.131, 26.246], [91.12, 26.254], [91.107, 26.257], [91.101, 26.255], [91.095, 26.25], [91.084, 26.253], [91.078, 26.252], [91.073, 26.247], [91.069, 26.241]], [[91.161, 26.245], [91.154, 26.243], [91.147, 26.242]], [[91.168, 26.247], [91.161, 26.245]], [[91.776, 26.206], [91.769, 26.202], [91.758, 26.203], [91.749, 26.196], [91.745, 26.195]], [[91.192, 26.254], [91.182, 26.253], [91.173, 26.247], [91.168, 26.247]], [[91.192, 26.254], [91.18, 26.254], [91.173, 26.248], [91.168, 26.247]], [[91.268, 26.254], [91.259, 26.251], [91.256, 26.245], [91.255, 26.239], [91.251, 26.233]], [[91.806, 26.226], [91.799, 26.224], [91.794, 26.222], [91.778, 26.211], [91.776, 26.206]], [[91.806, 26.226], [91.802, 26.229], [91.788, 26.233], [91.782, 26.234], [91.775, 26.232], [91.763, 26.226], [91.754, 26.217], [91.751, 26.206], [91.747, 26.202], [91.745, 26.195]], [[91.369, 26.259], [91.351, 26.26], [91.341, 26.256], [91.336, 26.256], [91.321, 26.251], [91.311, 26.252], [91.297, 26.26], [91.291, 26.264], [91.286, 26.263], [91.281, 26.258], [91.273, 26.253], [91.268, 26.254]], [[91.871, 26.225], [91.868, 26.226], [91.847, 26.214], [91.842, 26.218], [91.835, 26.218], [91.826, 26.215], [91.824, 26.211], [91.812, 26.209], [91.808, 26.21], [91.801, 26.208], [91.793, 26.209], [91.78, 26.204], [91.776, 26.206]], [[91.892, 26.237], [91.886, 26.232], [91.875, 26.229], [91.871, 26.225]], [[91.892, 26.237], [91.89, 26.23], [91.886, 26.22], [91.879, 26.217], [91.875, 26.217], [91.873, 26.223], [91.871, 26.225]], [[91.841, 26.244], [91.838, 26.243], [91.833, 26.233], [91.822, 26.228], [91.806, 26.226]], [[91.841, 26.249], [91.841, 26.244]], [[91.899, 26.249], [91.892, 26.237]], [[91.899, 26.249], [91.891, 26.249], [91.889, 26.25]], [[91.889, 26.25], [91.873, 26.252], [91.868, 26.252], [91.859, 26.248], [91.848, 26.248], [91.841, 26.244]], [[91.862, 26.269], [91.867, 26.264], [91.862, 26.257], [91.855, 26.256], [91.841, 26.249]], [[91.86, 26.27], [91.854, 26.268], [91.843, 26.262], [91.84, 26.255], [91.841, 26.249]], [[91.86, 26.27], [91.862, 26.269]], [[91.962, 26.273], [91.959, 26.267], [91.956, 26.254], [91.953, 26.252], [91.941, 26.252], [91.922, 26.252], [91.914, 26.251], [91.907, 26.246], [91.903, 26.25], [91.899, 26.249]], [[91.962, 26.273], [91.953, 26.276], [91.943, 26.281]], [[91.943, 26.281], [91.937, 26.277], [91.911, 26.262], [91.902, 26.255], [91.889, 26.25]], [[91.953, 26.292], [91.943, 26.281]], [[91.953, 26.292], [91.944, 26.297], [91.933, 26.299], [91.926, 26.304]], [[91.965, 26.296], [91.959, 26.296], [91.953, 26.292]], [[91.926, 26.304], [91.922, 26.298], [91.914, 26.294], [91.898, 26.295], [91.885, 26.292], [91.878, 26.286], [91.874, 26.278], [91.869, 26.274], [91.862, 26.269]], [[91.926, 26.304], [91.917, 26.305], [91.91, 26.307], [91.902, 26.302], [91.89, 26.302], [91.878, 26.303], [91.869, 26.298], [91.865, 26.284], [91.865, 26.281], [91.86, 26.27]], [[92.051, 26.302], [92.047, 26.292], [92.04, 26.288], [92.034, 26.287], [92.018, 26.288], [92.009, 26.284], [91.991, 26.285], [91.982, 26.284], [91.969, 26.278], [91.966, 26.273], [91.962, 26.273]], [[92.051, 26.302], [92.048, 26.3], [92.037, 26.3], [92.033, 26.299], [92.019, 26.301], [92.01, 26.306], [92.003, 26.309]], [[92.003, 26.309], [91.996, 26.309], [91.986, 26.304], [91.98, 26.297], [91.965, 26.296]], [[92.053, 26.308], [92.051, 26.302]], [[92.132, 26.348], [92.128, 26.346], [92.118, 26.346], [92.106, 26.343], [92.095, 26.335], [92.09, 26.334], [92.079, 26.337], [92.074, 26.338], [92.066, 26.335], [92.061, 26.327], [92.059, 26.317], [92.053, 26.308]], [[92.132, 26.348], [92.131, 26.337], [92.134, 26.323], [92.137, 26.315], [92.136, 26.307], [92.13, 26.302], [92.123, 26.299], [92.112, 26.296], [92.101, 26.299], [92.096, 26.302], [92.088, 26.302], [92.084, 26.304], [92.078, 26.311], [92.068, 26.316], [92.064, 26.315], [92.053, 26.308]], [[92.134, 26.352], [92.132, 26.348]], [[91.996, 26.371], [91.997, 26.353], [91.996, 26.35], [91.988, 26.343], [91.988, 26.334], [91.988, 26.317], [91.982, 26.309], [91.971, 26.304], [91.965, 26.296]], [[91.996, 26.371], [91.991, 26.371], [91.989, 26.366], [91.985, 26.37], [91.977, 26.369], [91.974, 26.376], [91.967, 26.375], [91.963, 26.372], [91.956, 26.365], [91.954, 26.36], [91.946, 26.355], [91.939, 26.358], [91.929, 26.353], [91.923, 26.349], [91.921, 26.344], [91.917, 26.342], [91.914, 26.337], [91.912, 26.328], [91.905, 26.316], [91.902, 26.305], [91.896, 26.303]], [[92.047, 26.376], [92.042, 26.362], [92.037, 26.359], [92.035, 26.346], [92.041, 26.339], [92.041, 26.335], [92.037, 26.333], [92.029, 26.335], [92.015, 26.325], [92.008, 26.326], [92.002, 26.318], [92.003, 26.309]], [[92.047, 26.376], [92.04, 26.378], [92.032, 26.385]], [[92.032, 26.385], [92.017, 26.381], [92.013, 26.377], [92.003, 26.375], [91.996, 26.371]], [[92.267, 26.433], [92.26, 26.432], [92.244, 26.433], [92.239, 26.432], [92.233, 26.428], [92.229, 26.419], [92.217, 26.414], [92.21, 26.414], [92.203, 26.41], [92.202, 26.403], [92.205, 26.389], [92.202, 26.384], [92.196, 26.379], [92.187, 26.374], [92.179, 26.368], [92.171, 26.364], [92.166, 26.364], [92.154, 26.367], [92.144, 26.365], [92.134, 26.352]], [[92.267, 26.433], [92.271, 26.432], [92.28, 26.424], [92.288, 26.42], [92.296, 26.42], [92.302, 26.422], [92.309, 26.427], [92.313, 26.432], [92.309, 26.44], [92.309, 26.445], [92.314, 26.454], [92.323, 26.46]], [[92.154, 26.445], [92.152, 26.439], [92.143, 26.434], [92.133, 26.423], [92.125, 26.412], [92.119, 26.41], [92.113, 26.41], [92.102, 26.416], [92.088, 26.41], [92.083, 26.405], [92.077, 26.397], [92.073, 26.389], [92.072, 26.383], [92.068, 26.375], [92.066, 26.375], [92.054, 26.38], [92.05, 26.379], [92.047, 26.376]], [[92.154, 26.445], [92.144, 26.45], [92.128, 26.45], [92.121, 26.455], [92.119, 26.462], [92.114, 26.459], [92.107, 26.455], [92.1, 26.447], [92.094, 26.447], [92.085, 26.45], [92.079, 26.446], [92.075, 26.44], [92.072, 26.438], [92.063, 26.439], [92.063, 26.434], [92.056, 26.426], [92.056, 26.417], [92.048, 26.408], [92.037, 26.401], [92.034, 26.388], [92.032, 26.385]], [[92.217, 26.452], [92.207, 26.448], [92.197, 26.436], [92.184, 26.422], [92.182, 26.417], [92.166, 26.401], [92.156, 26.396], [92.147, 26.388], [92.14, 26.376], [92.138, 26.366], [92.135, 26.363], [92.134, 26.352]], [[92.217, 26.452], [92.21, 26.452], [92.204, 26.458], [92.199, 26.458], [92.191, 26.455], [92.181, 26.456], [92.17, 26.453], [92.154, 26.445]], [[92.293, 26.457], [92.274, 26.436], [92.267, 26.433]], [[92.293, 26.457], [92.275, 26.46], [92.251, 26.462], [92.245, 26.462], [92.234, 26.464], [92.229, 26.462], [92.217, 26.452]], [[92.323, 26.46], [92.317, 26.463], [92.303, 26.464]], [[92.303, 26.464], [92.293, 26.457]], [[92.674, 26.549], [92.672, 26.54], [92.677, 26.535], [92.663, 26.529], [92.66, 26.53], [92.653, 26.526], [92.65, 26.52], [92.645, 26.516], [92.638, 26.519], [92.634, 26.523], [92.624, 26.525], [92.621, 26.523], [92.609, 26.512], [92.595, 26.513], [92.585, 26.515], [92.58, 26.518], [92.579, 26.524], [92.575, 26.526], [92.567, 26.524], [92.562, 26.526], [92.564, 26.532], [92.558, 26.534], [92.547, 26.54], [92.538, 26.541], [92.531, 26.537], [92.527, 26.534], [92.519, 26.532], [92.515, 26.53], [92.515, 26.519], [92.507, 26.519], [92.5, 26.525], [92.493, 26.528], [92.484, 26.523], [92.482, 26.518], [92.488, 26.512], [92.489, 26.506], [92.483, 26.505], [92.469, 26.508], [92.462, 26.504], [92.449, 26.498], [92.44, 26.497], [92.426, 26.498], [92.42, 26.496], [92.405, 26.487], [92.397, 26.484], [92.385, 26.482], [92.374, 26.476], [92.372, 26.465], [92.364, 26.457], [92.351, 26.456], [92.336, 26.457], [92.332, 26.455], [92.323, 26.46]], [[92.674, 26.549], [92.656, 26.552], [92.655, 26.549], [92.649, 26.547], [92.643, 26.548], [92.638, 26.552], [92.632, 26.554], [92.618, 26.553], [92.593, 26.558], [92.586, 26.562], [92.578, 26.57], [92.566, 26.582], [92.556, 26.586], [92.534, 26.591], [92.528, 26.596], [92.519, 26.601]], [[92.74, 26.564], [92.733, 26.562], [92.715, 26.548], [92.71, 26.545], [92.694, 26.54], [92.685, 26.542], [92.678, 26.548], [92.674, 26.549]], [[92.74, 26.564], [92.731, 26.574], [92.728, 26.58], [92.718, 26.588], [92.704, 26.592]], [[92.809, 26.576], [92.806, 26.569], [92.799, 26.559], [92.794, 26.55], [92.788, 26.546], [92.773, 26.551], [92.76, 26.554], [92.745, 26.561], [92.74, 26.564]], [[92.809, 26.576], [92.802, 26.58], [92.791, 26.592], [92.784, 26.602], [92.78, 26.608], [92.775, 26.611]], [[92.519, 26.601], [92.509, 26.594], [92.506, 26.588], [92.497, 26.58], [92.488, 26.575], [92.476, 26.574], [92.456, 26.566], [92.44, 26.555], [92.437, 26.551], [92.436, 26.542], [92.432, 26.53], [92.425, 26.522], [92.419, 26.519], [92.413, 26.519], [92.4, 26.521], [92.391, 26.525], [92.377, 26.525], [92.365, 26.518], [92.36, 26.514], [92.358, 26.51], [92.347, 26.507], [92.335, 26.501], [92.314, 26.497], [92.308, 26.49], [92.307, 26.477], [92.306, 26.468], [92.303, 26.464]], [[92.704, 26.592], [92.688, 26.59], [92.675, 26.592], [92.67, 26.594], [92.67, 26.598], [92.658, 26.613]], [[92.658, 26.613], [92.656, 26.618], [92.651, 26.621], [92.645, 26.624], [92.636, 26.622], [92.628, 26.613], [92.626, 26.608], [92.616, 26.591], [92.613, 26.588], [92.609, 26.587], [92.601, 26.591], [92.576, 26.601], [92.569, 26.603], [92.559, 26.604], [92.553, 26.602], [92.547, 26.601], [92.535, 26.604], [92.527, 26.605], [92.519, 26.601]], [[92.658, 26.613], [92.665, 26.615], [92.675, 26.621], [92.676, 26.627], [92.684, 26.63], [92.696, 26.626], [92.703, 26.632], [92.705, 26.638], [92.711, 26.64], [92.717, 26.633], [92.721, 26.633], [92.729, 26.639], [92.74, 26.637], [92.748, 26.631], [92.754, 26.62], [92.761, 26.614]], [[92.775, 26.611], [92.761, 26.614]], [[92.775, 26.611], [92.797, 26.616], [92.804, 26.616], [92.815, 26.613], [92.835, 26.617], [92.845, 26.614], [92.855, 26.607], [92.861, 26.606]], [[92.761, 26.614], [92.746, 26.616], [92.736, 26.614], [92.73, 26.61], [92.719, 26.607], [92.704, 26.592]], [[92.861, 26.606], [92.848, 26.598], [92.83, 26.581], [92.821, 26.575], [92.809, 26.576]], [[92.971, 26.63], [92.955, 26.63], [92.929, 26.628], [92.915, 26.628], [92.899, 26.627], [92.889, 26.628], [92.883, 26.626], [92.877, 26.622], [92.869, 26.613], [92.861, 26.606]], [[93.13, 26.619], [93.128, 26.612], [93.115, 26.605], [93.105, 26.593], [93.1, 26.589], [93.097, 26.592], [93.084, 26.594], [93.081, 26.598], [93.071, 26.598], [93.067, 26.6], [93.05, 26.601], [93.045, 26.6], [93.037, 26.588], [93.025, 26.584], [93.011, 26.584], [93.006, 26.588], [92.998, 26.606], [92.997, 26.616], [92.993, 26.62], [92.978, 26.626], [92.971, 26.63]], [[93.13, 26.619], [93.106, 26.621], [93.086, 26.624], [93.078, 26.626], [93.064, 26.633], [93.053, 26.637], [93.034, 26.641], [93.022, 26.639], [93.005, 26.637], [92.983, 26.631], [92.971, 26.63]], [[93.574, 26.701], [93.578, 26.698], [93.596, 26.695], [93.606, 26.685], [93.61, 26.682], [93.619, 26.683], [93.627, 26.694], [93.633, 26.695], [93.642, 26.694], [93.647, 26.692], [93.658, 26.69], [93.672, 26.693], [93.674, 26.698]], [[93.574, 26.701], [93.574, 26.703], [93.564, 26.702], [93.546, 26.705], [93.536, 26.705], [93.527, 26.709], [93.521, 26.713], [93.52, 26.721]], [[93.674, 26.698], [93.664, 26.707]], [[93.664, 26.707], [93.663, 26.705], [93.654, 26.702], [93.643, 26.703], [93.637, 26.705], [93.627, 26.707], [93.615, 26.71], [93.607, 26.71], [93.596, 26.704], [93.583, 26.703], [93.574, 26.701]], [[93.664, 26.707], [93.664, 26.713], [93.666, 26.721], [93.669, 26.724]], [[93.52, 26.721], [93.518, 26.722], [93.506, 26.735], [93.485, 26.752], [93.478, 26.761], [93.47, 26.767]], [[93.349, 26.743], [93.338, 26.739], [93.33, 26.737], [93.317, 26.736], [93.306, 26.732], [93.3, 26.723], [93.293, 26.716], [93.288, 26.706], [93.285, 26.705], [93.274, 26.705], [93.268, 26.701], [93.265, 26.683], [93.262, 26.68], [93.256, 26.68], [93.235, 26.684], [93.232, 26.683], [93.223, 26.674], [93.217, 26.659], [93.211, 26.654], [93.207, 26.655], [93.197, 26.65], [93.186, 26.65], [93.174, 26.656], [93.16, 26.654], [93.151, 26.647], [93.147, 26.639], [93.138, 26.629], [93.134, 26.621], [93.13, 26.619]], [[93.669, 26.724], [93.66, 26.724], [93.643, 26.725], [93.625, 26.722], [93.611, 26.724], [93.603, 26.731], [93.595, 26.732], [93.583, 26.726], [93.575, 26.727], [93.557, 26.728], [93.543, 26.72], [93.533, 26.717], [93.525, 26.718], [93.52, 26.721]], [[93.398, 26.748], [93.396, 26.753], [93.389, 26.755], [93.379, 26.756], [93.373, 26.755], [93.357, 26.749], [93.349, 26.743]], [[93.69, 26.736], [93.688, 26.732], [93.683, 26.728], [93.669, 26.724]], [[93.448, 26.766], [93.441, 26.762], [93.436, 26.757], [93.43, 26.749], [93.423, 26.742], [93.415, 26.737], [93.405, 26.737], [93.402, 26.74], [93.398, 26.748]], [[93.47, 26.767], [93.459, 26.769], [93.448, 26.766]], [[93.433, 26.773], [93.426, 26.774], [93.412, 26.781], [93.386, 26.784], [93.374, 26.777], [93.357, 26.766], [93.352, 26.756], [93.349, 26.747], [93.349, 26.743]], [[93.438, 26.773], [93.434, 26.772], [93.43, 26.768], [93.421, 26.765], [93.406, 26.757], [93.402, 26.749], [93.398, 26.748]], [[93.438, 26.773], [93.444, 26.77], [93.448, 26.766]], [[93.787, 26.743], [93.786, 26.74], [93.774, 26.735], [93.768, 26.73], [93.757, 26.73], [93.752, 26.727], [93.75, 26.717], [93.746, 26.712], [93.746, 26.708], [93.74, 26.702], [93.732, 26.699], [93.724, 26.7], [93.717, 26.703], [93.71, 26.712], [93.702, 26.713], [93.696, 26.712], [93.689, 26.707], [93.674, 26.698]], [[93.787, 26.743], [93.781, 26.743], [93.774, 26.747], [93.758, 26.749], [93.747, 26.752], [93.744, 26.75], [93.739, 26.74], [93.736, 26.738], [93.732, 26.742], [93.727, 26.743], [93.716, 26.739], [93.707, 26.735], [93.69, 26.736]], [[93.44, 26.775], [93.438, 26.773]], [[93.547, 26.781], [93.542, 26.782]], [[93.547, 26.781], [93.541, 26.786], [93.532, 26.787], [93.525, 26.791], [93.511, 26.791], [93.504, 26.789]], [[93.542, 26.782], [93.535, 26.784], [93.523, 26.784], [93.512, 26.779], [93.506, 26.77], [93.5, 26.765], [93.489, 26.767], [93.477, 26.769], [93.47, 26.767]], [[93.504, 26.789], [93.489, 26.791], [93.483, 26.79], [93.481, 26.787], [93.47, 26.78], [93.466, 26.781], [93.455, 26.78], [93.449, 26.777], [93.44, 26.775]], [[93.504, 26.789], [93.492, 26.793], [93.488, 26.795], [93.472, 26.797], [93.457, 26.792], [93.454, 26.788], [93.446, 26.787], [93.445, 26.78], [93.44, 26.775]], [[93.647, 26.783], [93.648, 26.774], [93.642, 26.769], [93.632, 26.767], [93.628, 26.761], [93.625, 26.761], [93.614, 26.768], [93.607, 26.768], [93.594, 26.762], [93.586, 26.762], [93.582, 26.766], [93.576, 26.768], [93.56, 26.771], [93.546, 26.772], [93.542, 26.776], [93.542, 26.782]], [[93.647, 26.783], [93.638, 26.787], [93.636, 26.789], [93.635, 26.798], [93.632, 26.8], [93.626, 26.798], [93.624, 26.79], [93.608, 26.783], [93.601, 26.784], [93.585, 26.78], [93.581, 26.782], [93.579, 26.788], [93.582, 26.794], [93.579, 26.797], [93.571, 26.796], [93.561, 26.787], [93.547, 26.781]], [[93.723, 26.779], [93.71, 26.771], [93.698, 26.758], [93.692, 26.74], [93.69, 26.736]], [[93.723, 26.779], [93.725, 26.786], [93.72, 26.795]], [[93.753, 26.79], [93.746, 26.787], [93.737, 26.783], [93.723, 26.779]], [[93.72, 26.795], [93.712, 26.799], [93.707, 26.796], [93.701, 26.787], [93.695, 26.785], [93.69, 26.789], [93.692, 26.795], [93.695, 26.796], [93.694, 26.804], [93.687, 26.804], [93.683, 26.801], [93.678, 26.795], [93.669, 26.793], [93.659, 26.792], [93.655, 26.79], [93.647, 26.783]], [[93.72, 26.795], [93.725, 26.801], [93.732, 26.804], [93.737, 26.803], [93.748, 26.809], [93.757, 26.81]], [[93.798, 26.806], [93.785, 26.805], [93.776, 26.801], [93.768, 26.794], [93.766, 26.79], [93.753, 26.79]], [[93.757, 26.81], [93.755, 26.806], [93.752, 26.793], [93.753, 26.79]], [[93.844, 26.818], [93.84, 26.817], [93.829, 26.817], [93.821, 26.814], [93.815, 26.805], [93.807, 26.803], [93.802, 26.803], [93.798, 26.806]], [[93.793, 26.826], [93.77, 26.819], [93.765, 26.817], [93.757, 26.81]], [[93.793, 26.826], [93.798, 26.817], [93.798, 26.806]], [[93.961, 26.819], [93.956, 26.816], [93.953, 26.81], [93.941, 26.799], [93.939, 26.788], [93.93, 26.772], [93.923, 26.766], [93.917, 26.765], [93.911, 26.767], [93.907, 26.771], [93.897, 26.785], [93.888, 26.787], [93.882, 26.786], [93.878, 26.784], [93.873, 26.777], [93.865, 26.762], [93.845, 26.748], [93.837, 26.744], [93.831, 26.744], [93.818, 26.751], [93.81, 26.751], [93.8, 26.75], [93.795, 26.746], [93.787, 26.743]], [[93.961, 26.819], [93.961, 26.823], [93.955, 26.829], [93.941, 26.831], [93.935, 26.829], [93.931, 26.826], [93.906, 26.825], [93.895, 26.826], [93.889, 26.826], [93.887, 26.822], [93.879, 26.818], [93.873, 26.811], [93.869, 26.809], [93.859, 26.811], [93.853, 26.815], [93.844, 26.818]], [[93.993, 26.827], [93.99, 26.824], [93.982, 26.821], [93.974, 26.82], [93.961, 26.819]], [[93.993, 26.827], [94.004, 26.826], [94.01, 26.829], [94.022, 26.832], [94.041, 26.83], [94.049, 26.831], [94.064, 26.83], [94.072, 26.831], [94.077, 26.835], [94.081, 26.842], [94.095, 26.85], [94.107, 26.848], [94.119, 26.842], [94.137, 26.841], [94.141, 26.833], [94.147, 26.831], [94.184, 26.837], [94.191, 26.84], [94.192, 26.843], [94.201, 26.849], [94.216, 26.855], [94.217, 26.86], [94.224, 26.867]], [[93.865, 26.842], [93.856, 26.837], [93.851, 26.824], [93.844, 26.818]], [[93.865, 26.842], [93.861, 26.843], [93.856, 26.849], [93.848, 26.854], [93.847, 26.858], [93.84, 26.862], [93.835, 26.862], [93.825, 26.859], [93.814, 26.853], [93.807, 26.848], [93.8, 26.839], [93.799, 26.836], [93.793, 26.826]], [[94.004, 26.858], [93.999, 26.856], [93.995, 26.845], [93.995, 26.834], [93.993, 26.827]], [[94.004, 26.858], [93.994, 26.864], [93.982, 26.867], [93.978, 26.869], [93.972, 26.876], [93.962, 26.877], [93.956, 26.873], [93.95, 26.86], [93.937, 26.851], [93.925, 26.852], [93.914, 26.852], [93.91, 26.85], [93.907, 26.843], [93.898, 26.844], [93.888, 26.848], [93.884, 26.849], [93.874, 26.847], [93.865, 26.842]], [[94.004, 26.858], [94.012, 26.855], [94.017, 26.855], [94.029, 26.857], [94.033, 26.859], [94.041, 26.866], [94.046, 26.876], [94.05, 26.884], [94.054, 26.886], [94.065, 26.885], [94.072, 26.879], [94.077, 26.878], [94.08, 26.881], [94.095, 26.887], [94.1, 26.887], [94.106, 26.895], [94.123, 26.904], [94.126, 26.906], [94.133, 26.908]], [[94.238, 26.864], [94.224, 26.867]], [[94.238, 26.864], [94.247, 26.86], [94.261, 26.857], [94.268, 26.856], [94.282, 26.859], [94.283, 26.865], [94.292, 26.874], [94.287, 26.878]], [[94.224, 26.867], [94.212, 26.875], [94.21, 26.882], [94.209, 26.889], [94.204, 26.894], [94.197, 26.899], [94.186, 26.903], [94.18, 26.904], [94.172, 26.899], [94.166, 26.899], [94.156, 26.903]], [[94.287, 26.878], [94.278, 26.878], [94.266, 26.883]], [[94.266, 26.883], [94.262, 26.873], [94.255, 26.866], [94.249, 26.864], [94.238, 26.864]], [[94.156, 26.903], [94.151, 26.903], [94.145, 26.908], [94.133, 26.908]], [[94.133, 26.908], [94.12, 26.914], [94.112, 26.908], [94.107, 26.907], [94.099, 26.91], [94.09, 26.91], [94.081, 26.912], [94.072, 26.908], [94.059, 26.906], [94.053, 26.909], [94.048, 26.909], [94.045, 26.917], [94.039, 26.922], [94.034, 26.922], [94.022, 26.916], [94.015, 26.91], [94.008, 26.909], [94.004, 26.906], [94.004, 26.898], [94, 26.894], [93.996, 26.896], [93.987, 26.895], [93.98, 26.894], [93.971, 26.894], [93.967, 26.895], [93.966, 26.9], [93.956, 26.902], [93.952, 26.901], [93.945, 26.897], [93.936, 26.898]], [[94.282, 26.898], [94.269, 26.888], [94.266, 26.883]], [[94.282, 26.898], [94.265, 26.908], [94.256, 26.911], [94.243, 26.913], [94.235, 26.919], [94.227, 26.922], [94.222, 26.922], [94.218, 26.919], [94.214, 26.912], [94.2, 26.909], [94.19, 26.915], [94.185, 26.922], [94.176, 26.921], [94.165, 26.917], [94.159, 26.913], [94.156, 26.903]], [[94.343, 26.899], [94.339, 26.894], [94.331, 26.891], [94.322, 26.891], [94.314, 26.893], [94.308, 26.887], [94.3, 26.883], [94.296, 26.882], [94.287, 26.878]], [[94.343, 26.899], [94.335, 26.903]], [[94.335, 26.903], [94.327, 26.902], [94.314, 26.902], [94.306, 26.91], [94.301, 26.907], [94.296, 26.907]], [[94.296, 26.907], [94.282, 26.898]], [[94.348, 26.906], [94.335, 26.903]], [[94.348, 26.906], [94.347, 26.899], [94.343, 26.899]], [[94.308, 26.92], [94.303, 26.919], [94.299, 26.911], [94.296, 26.907]], [[94.338, 26.96], [94.328, 26.954], [94.326, 26.94], [94.324, 26.93], [94.316, 26.922], [94.308, 26.92]], [[94.417, 26.967], [94.408, 26.962], [94.398, 26.954], [94.39, 26.944], [94.383, 26.93], [94.374, 26.919], [94.363, 26.909], [94.354, 26.909], [94.348, 26.906]], [[94.417, 26.967], [94.408, 26.968], [94.395, 26.971], [94.389, 26.97], [94.382, 26.966], [94.364, 26.964], [94.36, 26.961], [94.352, 26.96], [94.338, 26.96]], [[94.342, 27.001], [94.336, 26.997], [94.335, 26.993], [94.331, 26.987], [94.329, 26.974], [94.333, 26.971], [94.331, 26.963], [94.328, 26.961], [94.32, 26.96], [94.309, 26.953], [94.307, 26.95], [94.309, 26.946], [94.306, 26.938], [94.305, 26.93], [94.308, 26.92]], [[94.364, 27], [94.361, 26.99], [94.361, 26.979], [94.354, 26.977], [94.343, 26.971], [94.338, 26.96]], [[94.364, 27], [94.356, 27.002], [94.346, 27.003], [94.342, 27.001]], [[94.423, 27.059], [94.425, 27.053], [94.423, 27.048], [94.425, 27.042], [94.423, 27.028], [94.403, 27.011], [94.397, 27.008], [94.38, 27.007], [94.37, 27.001], [94.364, 27]], [[94.423, 27.059], [94.421, 27.057], [94.41, 27.054], [94.406, 27.061], [94.392, 27.062], [94.382, 27.053], [94.381, 27.051], [94.372, 27.045], [94.373, 27.038], [94.371, 27.034], [94.364, 27.033], [94.362, 27.025], [94.353, 27.01], [94.347, 27.007], [94.342, 27.001]], [[94.525, 27.076], [94.521, 27.07], [94.501, 27.067], [94.492, 27.06], [94.482, 27.046], [94.481, 27.04], [94.482, 27.029], [94.478, 27.022], [94.464, 27.015], [94.447, 27.004], [94.442, 26.994], [94.436, 26.989], [94.434, 26.977], [94.425, 26.971], [94.417, 26.967]], [[94.525, 27.076], [94.528, 27.061], [94.526, 27.048]], [[94.526, 27.091], [94.525, 27.076]], [[94.527, 27.094], [94.526, 27.091]], [[94.55, 27.105], [94.546, 27.1], [94.54, 27.097], [94.527, 27.094]], [[94.55, 27.105], [94.541, 27.107], [94.534, 27.105], [94.527, 27.094]], [[94.52, 27.127], [94.518, 27.118], [94.524, 27.105], [94.526, 27.091]], [[94.51, 27.138], [94.506, 27.133], [94.504, 27.128], [94.491, 27.125], [94.481, 27.121], [94.471, 27.119], [94.465, 27.12], [94.452, 27.114], [94.447, 27.108], [94.447, 27.096], [94.44, 27.09], [94.439, 27.076], [94.437, 27.071], [94.426, 27.066], [94.423, 27.059]], [[94.51, 27.138], [94.52, 27.127]], [[94.567, 27.182], [94.566, 27.177], [94.562, 27.174], [94.553, 27.171], [94.544, 27.165], [94.542, 27.158], [94.547, 27.148], [94.546, 27.141], [94.539, 27.138], [94.531, 27.13], [94.524, 27.129], [94.52, 27.127]], [[94.601, 27.27], [94.593, 27.264], [94.579, 27.257], [94.57, 27.257], [94.559, 27.25], [94.556, 27.23], [94.555, 27.226], [94.548, 27.216], [94.546, 27.205], [94.551, 27.198], [94.551, 27.192], [94.535, 27.186], [94.521, 27.171], [94.513, 27.158], [94.507, 27.147], [94.51, 27.138]], [[94.601, 27.27], [94.6, 27.26], [94.603, 27.242], [94.597, 27.235], [94.582, 27.227], [94.568, 27.218], [94.562, 27.21], [94.561, 27.198], [94.566, 27.187], [94.567, 27.182]], [[94.613, 27.285], [94.609, 27.283], [94.604, 27.277], [94.601, 27.27]], [[94.67, 27.287], [94.661, 27.274], [94.66, 27.267], [94.663, 27.26], [94.662, 27.248], [94.658, 27.243], [94.651, 27.24], [94.639, 27.239], [94.633, 27.237], [94.627, 27.233], [94.626, 27.227], [94.63, 27.221], [94.624, 27.211], [94.622, 27.207], [94.623, 27.194], [94.609, 27.191], [94.606, 27.186], [94.605, 27.179], [94.6, 27.171], [94.591, 27.167], [94.585, 27.16], [94.579, 27.162], [94.575, 27.158], [94.569, 27.157], [94.567, 27.151], [94.574, 27.143], [94.572, 27.138], [94.563, 27.135], [94.556, 27.127], [94.554, 27.11], [94.55, 27.105]], [[94.67, 27.287], [94.662, 27.287], [94.642, 27.275], [94.637, 27.262], [94.627, 27.255], [94.626, 27.246], [94.616, 27.239], [94.607, 27.236], [94.607, 27.231], [94.611, 27.217], [94.613, 27.214], [94.611, 27.207], [94.606, 27.202], [94.603, 27.201], [94.585, 27.202], [94.582, 27.198], [94.583, 27.194], [94.577, 27.187], [94.567, 27.182]], [[94.646, 27.298], [94.637, 27.295], [94.635, 27.29], [94.634, 27.281], [94.629, 27.279], [94.626, 27.28], [94.617, 27.284], [94.613, 27.285]], [[94.622, 27.306], [94.618, 27.299], [94.616, 27.292], [94.613, 27.285]], [[94.676, 27.307], [94.67, 27.308], [94.66, 27.302], [94.646, 27.298]], [[94.676, 27.307], [94.678, 27.302], [94.677, 27.293], [94.67, 27.287]], [[94.649, 27.315], [94.636, 27.308], [94.628, 27.309], [94.622, 27.306]], [[94.649, 27.315], [94.648, 27.303], [94.646, 27.298]], [[94.619, 27.331], [94.613, 27.327], [94.615, 27.32], [94.621, 27.313], [94.622, 27.306]], [[94.619, 27.331], [94.621, 27.334], [94.616, 27.339], [94.615, 27.346], [94.622, 27.35], [94.627, 27.349], [94.631, 27.353], [94.634, 27.362], [94.64, 27.364], [94.647, 27.363], [94.649, 27.375], [94.651, 27.379], [94.659, 27.38], [94.665, 27.384], [94.667, 27.389], [94.674, 27.394], [94.685, 27.396]], [[94.697, 27.334], [94.691, 27.326], [94.688, 27.317], [94.685, 27.311], [94.676, 27.307]], [[94.712, 27.366], [94.707, 27.364], [94.703, 27.359], [94.701, 27.35], [94.703, 27.341], [94.697, 27.334]], [[94.682, 27.382], [94.677, 27.38], [94.673, 27.381], [94.665, 27.371], [94.663, 27.366], [94.655, 27.36], [94.651, 27.353], [94.644, 27.349], [94.638, 27.352], [94.633, 27.347], [94.631, 27.336], [94.626, 27.332], [94.619, 27.331]], [[94.715, 27.385], [94.712, 27.385], [94.708, 27.381], [94.707, 27.375], [94.698, 27.364], [94.692, 27.364], [94.684, 27.366], [94.681, 27.364], [94.677, 27.354], [94.682, 27.344], [94.68, 27.337], [94.656, 27.324], [94.649, 27.315]], [[94.715, 27.385], [94.713, 27.382], [94.715, 27.374], [94.712, 27.366]], [[94.758, 27.381], [94.756, 27.373], [94.757, 27.37], [94.764, 27.363], [94.763, 27.36], [94.759, 27.353], [94.749, 27.345], [94.734, 27.342], [94.723, 27.346], [94.719, 27.345], [94.715, 27.34], [94.708, 27.335], [94.697, 27.334]], [[94.758, 27.381], [94.749, 27.381], [94.739, 27.383], [94.733, 27.38], [94.731, 27.372], [94.721, 27.367], [94.712, 27.366]], [[94.685, 27.396], [94.688, 27.392], [94.687, 27.387], [94.682, 27.382]], [[94.748, 27.423], [94.748, 27.418], [94.743, 27.414], [94.735, 27.408], [94.735, 27.403], [94.741, 27.397], [94.742, 27.392], [94.732, 27.384], [94.726, 27.384], [94.72, 27.386], [94.715, 27.385]], [[94.748, 27.423], [94.738, 27.423], [94.726, 27.425]], [[94.726, 27.425], [94.722, 27.419], [94.713, 27.414], [94.705, 27.413], [94.699, 27.407], [94.698, 27.395], [94.695, 27.39], [94.685, 27.382], [94.682, 27.382]], [[94.726, 27.425], [94.717, 27.427], [94.711, 27.424], [94.705, 27.43], [94.697, 27.429], [94.686, 27.425], [94.68, 27.42], [94.681, 27.413], [94.685, 27.399], [94.685, 27.396]], [[94.784, 27.442], [94.785, 27.435], [94.789, 27.428], [94.786, 27.421], [94.786, 27.409], [94.781, 27.397], [94.766, 27.386], [94.758, 27.381]], [[94.784, 27.442], [94.774, 27.444], [94.765, 27.448], [94.759, 27.444], [94.751, 27.432], [94.748, 27.423]], [[94.796, 27.459], [94.788, 27.452], [94.784, 27.442]], [[94.796, 27.459], [94.805, 27.457], [94.816, 27.458], [94.831, 27.464], [94.838, 27.471], [94.847, 27.489], [94.849, 27.5]], [[94.849, 27.5], [94.874, 27.496], [94.894, 27.495], [94.906, 27.499], [94.913, 27.502], [94.94, 27.514], [94.969, 27.528], [94.982, 27.534], [94.988, 27.539], [94.992, 27.544]], [[94.849, 27.5], [94.849, 27.506], [94.856, 27.514], [94.859, 27.52], [94.861, 27.526], [94.864, 27.531], [94.875, 27.532], [94.89, 27.536], [94.894, 27.538], [94.896, 27.544], [94.901, 27.549], [94.906, 27.557], [94.912, 27.562], [94.918, 27.564], [94.929, 27.564], [94.935, 27.562], [94.945, 27.556], [94.957, 27.558], [94.967, 27.556], [94.979, 27.551], [94.992, 27.544]], [[94.818, 27.524], [94.818, 27.518], [94.814, 27.501], [94.824, 27.492], [94.824, 27.488], [94.816, 27.48], [94.802, 27.471], [94.796, 27.459]], [[94.851, 27.548], [94.844, 27.539], [94.834, 27.531], [94.826, 27.529], [94.818, 27.524]], [[94.851, 27.548], [94.841, 27.551], [94.831, 27.552], [94.825, 27.548], [94.822, 27.533], [94.818, 27.524]], [[94.992, 27.544], [94.997, 27.541], [95.009, 27.539], [95.021, 27.541], [95.03, 27.54], [95.038, 27.537], [95.045, 27.536], [95.053, 27.539], [95.059, 27.545], [95.045, 27.548], [95.038, 27.547], [95.026, 27.548], [95.015, 27.551], [95.003, 27.562], [94.994, 27.565], [94.985, 27.563], [94.977, 27.565], [94.964, 27.575], [94.958, 27.575], [94.948, 27.571], [94.942, 27.579], [94.925, 27.581], [94.923, 27.584]], [[94.867, 27.562], [94.864, 27.555], [94.86, 27.552], [94.855, 27.55], [94.851, 27.548]], [[94.923, 27.584], [94.912, 27.574], [94.901, 27.573], [94.896, 27.566], [94.887, 27.564], [94.867, 27.562]], [[94.923, 27.584], [94.909, 27.584], [94.901, 27.587], [94.896, 27.586], [94.891, 27.581], [94.882, 27.577], [94.878, 27.574], [94.868, 27.57], [94.867, 27.562]]]}}]}