{"type": "FeatureCollection", "_source": "Ganga river course \u2014 extracted from the GSI/Bhukosh rivers layer (rivers.geojson). Simplified.", "features": [{"type": "Feature", "properties": {"name": "Ganga"}, "geometry": {"type": "MultiLineString", "coordinates": [[[88.037, 24.645], [88.054, 24.641], [88.06, 24.633], [88.068, 24.625], [88.089, 24.609], [88.098, 24.602], [88.115, 24.598], [88.127, 24.589], [88.131, 24.577], [88.131, 24.573], [88.134, 24.566], [88.141, 24.561], [88.143, 24.556], [88.147, 24.566], [88.149, 24.58], [88.152, 24.585], [88.154, 24.603], [88.157, 24.619], [88.161, 24.627], [88.161, 24.634], [88.158, 24.64], [88.146, 24.645], [88.131, 24.646], [88.113, 24.645], [88.104, 24.642], [88.078, 24.642], [88.06, 24.646], [88.037, 24.645]], [[87.939, 24.93], [87.931, 24.923], [87.926, 24.903], [87.925, 24.889], [87.919, 24.873], [87.919, 24.858], [87.92, 24.846], [87.92, 24.831], [87.924, 24.816], [87.932, 24.797], [87.941, 24.787], [87.948, 24.776], [87.955, 24.76], [87.955, 24.735], [87.951, 24.724], [87.945, 24.711], [87.945, 24.703], [87.948, 24.697], [87.954, 24.693], [87.962, 24.683], [87.975, 24.664], [87.982, 24.655], [87.99, 24.649], [88.001, 24.647], [88.011, 24.646], [88.027, 24.645], [88.037, 24.645]], [[82.502, 25.173], [82.497, 25.178], [82.494, 25.187], [82.502, 25.199], [82.502, 25.204], [82.5, 25.21], [82.493, 25.214], [82.482, 25.218], [82.46, 25.222], [82.454, 25.222]], [[82.502, 25.173], [82.518, 25.165], [82.529, 25.164], [82.544, 25.159], [82.554, 25.156], [82.572, 25.155], [82.584, 25.16], [82.589, 25.164], [82.593, 25.171], [82.594, 25.18], [82.59, 25.185], [82.57, 25.195], [82.564, 25.201], [82.563, 25.21], [82.559, 25.217], [82.559, 25.224], [82.566, 25.225], [82.573, 25.227], [82.594, 25.231], [82.608, 25.232], [82.628, 25.232], [82.642, 25.228], [82.654, 25.222], [82.662, 25.209], [82.667, 25.205], [82.681, 25.198], [82.69, 25.191], [82.697, 25.184], [82.71, 25.174], [82.735, 25.157], [82.75, 25.141], [82.759, 25.136], [82.769, 25.133], [82.792, 25.124], [82.813, 25.116], [82.823, 25.113], [82.829, 25.113], [82.844, 25.116], [82.851, 25.116], [82.863, 25.118], [82.87, 25.121], [82.875, 25.133], [82.884, 25.143], [82.886, 25.149], [82.889, 25.167], [82.89, 25.172], [82.898, 25.18], [82.904, 25.192], [82.908, 25.197], [82.914, 25.202], [82.929, 25.208], [82.94, 25.21], [82.955, 25.212], [82.962, 25.211], [82.974, 25.207], [82.988, 25.206], [82.995, 25.204], [83.003, 25.204], [83.016, 25.215], [83.024, 25.227], [83.03, 25.24], [83.03, 25.248], [83.028, 25.256], [83.017, 25.278], [83.012, 25.286], [83.01, 25.293], [83.009, 25.302], [83.013, 25.309], [83.02, 25.317], [83.028, 25.322], [83.052, 25.33], [83.058, 25.331], [83.072, 25.33], [83.102, 25.33], [83.122, 25.328], [83.129, 25.324], [83.138, 25.321], [83.147, 25.325], [83.155, 25.332], [83.171, 25.351], [83.174, 25.366], [83.184, 25.386], [83.188, 25.399], [83.183, 25.414], [83.176, 25.422], [83.154, 25.431], [83.145, 25.439], [83.136, 25.442], [83.129, 25.449], [83.129, 25.458], [83.136, 25.47], [83.142, 25.476], [83.151, 25.482], [83.159, 25.486], [83.163, 25.489], [83.17, 25.503], [83.172, 25.508], [83.175, 25.514], [83.193, 25.536], [83.198, 25.537], [83.211, 25.534], [83.221, 25.531], [83.232, 25.528], [83.246, 25.522], [83.263, 25.516], [83.279, 25.508], [83.292, 25.499], [83.301, 25.492], [83.306, 25.489], [83.315, 25.481], [83.319, 25.468], [83.321, 25.465], [83.33, 25.462], [83.337, 25.464], [83.35, 25.473], [83.359, 25.481], [83.373, 25.489], [83.392, 25.496], [83.404, 25.495], [83.413, 25.485], [83.419, 25.479], [83.424, 25.472], [83.426, 25.466], [83.435, 25.458], [83.468, 25.434], [83.477, 25.424], [83.486, 25.419], [83.494, 25.413], [83.503, 25.407], [83.517, 25.401], [83.526, 25.395], [83.544, 25.395], [83.548, 25.396], [83.551, 25.402], [83.551, 25.412], [83.549, 25.42], [83.549, 25.428], [83.544, 25.436], [83.54, 25.439], [83.528, 25.445], [83.524, 25.451], [83.517, 25.463], [83.516, 25.473], [83.518, 25.478], [83.517, 25.483], [83.519, 25.488], [83.524, 25.495], [83.526, 25.503], [83.535, 25.517], [83.535, 25.527], [83.55, 25.543], [83.562, 25.552], [83.567, 25.56], [83.573, 25.563], [83.582, 25.573], [83.591, 25.576], [83.603, 25.586], [83.609, 25.589], [83.628, 25.594], [83.643, 25.602], [83.652, 25.609], [83.657, 25.616], [83.663, 25.618], [83.672, 25.618], [83.677, 25.615], [83.685, 25.608], [83.693, 25.603], [83.711, 25.599], [83.733, 25.598], [83.741, 25.594], [83.754, 25.584], [83.758, 25.576], [83.759, 25.572], [83.77, 25.558], [83.781, 25.546], [83.789, 25.532], [83.794, 25.52], [83.8, 25.513], [83.809, 25.508], [83.816, 25.508], [83.824, 25.509], [83.845, 25.514], [83.855, 25.52], [83.864, 25.521], [83.874, 25.519], [83.895, 25.521], [83.906, 25.527], [83.915, 25.549], [83.922, 25.556], [83.933, 25.561], [83.943, 25.562], [83.949, 25.564], [83.961, 25.57], [83.971, 25.578], [84.006, 25.601]], [[82.454, 25.222], [82.455, 25.214], [82.459, 25.207], [82.465, 25.185], [82.471, 25.176], [82.482, 25.174], [82.492, 25.174], [82.502, 25.173]], [[87.842, 25.083], [87.846, 25.077], [87.855, 25.072], [87.875, 25.062], [87.888, 25.057], [87.913, 25.048], [87.926, 25.041], [87.945, 25.028], [87.953, 25.018], [87.957, 25.004], [87.957, 24.995], [87.947, 24.973], [87.946, 24.965], [87.942, 24.948], [87.94, 24.932], [87.939, 24.93]], [[87.804, 25.162], [87.799, 25.139], [87.798, 25.117], [87.807, 25.096], [87.814, 25.089], [87.834, 25.082], [87.842, 25.083]], [[82.055, 25.349], [82.067, 25.344], [82.073, 25.338], [82.076, 25.331], [82.078, 25.323], [82.077, 25.316], [82.079, 25.311], [82.079, 25.295], [82.081, 25.287], [82.084, 25.282], [82.093, 25.276], [82.097, 25.273], [82.103, 25.273], [82.119, 25.28], [82.125, 25.286], [82.148, 25.306], [82.159, 25.315], [82.176, 25.315], [82.19, 25.313], [82.212, 25.3], [82.221, 25.287], [82.221, 25.269], [82.22, 25.264], [82.211, 25.249], [82.209, 25.244], [82.202, 25.238], [82.197, 25.228], [82.197, 25.201], [82.198, 25.194], [82.206, 25.186], [82.22, 25.178], [82.252, 25.177], [82.259, 25.18], [82.275, 25.183], [82.279, 25.185], [82.283, 25.191], [82.282, 25.198], [82.277, 25.203], [82.266, 25.205], [82.252, 25.21], [82.242, 25.211], [82.236, 25.213], [82.233, 25.217], [82.233, 25.224], [82.238, 25.233], [82.248, 25.237], [82.253, 25.248], [82.257, 25.258], [82.267, 25.264], [82.271, 25.27], [82.276, 25.273], [82.29, 25.273], [82.301, 25.27], [82.311, 25.261], [82.318, 25.246], [82.321, 25.239], [82.324, 25.224], [82.328, 25.214], [82.332, 25.209], [82.339, 25.208], [82.354, 25.208], [82.362, 25.212], [82.364, 25.217], [82.364, 25.23], [82.366, 25.237], [82.373, 25.247], [82.384, 25.257], [82.392, 25.26], [82.404, 25.259], [82.411, 25.252], [82.429, 25.242], [82.444, 25.235], [82.447, 25.232], [82.454, 25.222]], [[87.774, 25.188], [87.779, 25.12], [87.794, 25.08], [87.808, 25.071], [87.841, 25.057], [87.859, 25.051], [87.909, 25.013], [87.929, 24.967], [87.939, 24.93]], [[87.774, 25.188], [87.783, 25.18], [87.791, 25.169], [87.796, 25.163], [87.804, 25.162]], [[86.063, 25.271], [86.067, 25.267], [86.077, 25.267], [86.082, 25.267], [86.09, 25.269], [86.102, 25.275], [86.117, 25.276]], [[86.063, 25.271], [86.083, 25.28], [86.097, 25.282], [86.109, 25.278], [86.117, 25.276]], [[81.92, 25.38], [81.916, 25.373], [81.92, 25.366], [81.918, 25.362], [81.918, 25.354], [81.927, 25.34], [81.933, 25.336], [81.945, 25.332], [81.955, 25.326], [81.965, 25.322], [81.975, 25.321], [81.986, 25.321], [81.995, 25.323], [82.004, 25.327], [82.013, 25.329], [82.029, 25.334], [82.037, 25.338], [82.055, 25.349]], [[81.92, 25.38], [81.928, 25.38], [81.95, 25.369], [81.958, 25.364], [81.965, 25.358], [81.972, 25.354], [81.981, 25.352], [81.989, 25.352], [82.006, 25.361], [82.027, 25.361], [82.036, 25.357], [82.045, 25.351], [82.055, 25.349]], [[86.618, 25.255], [86.631, 25.249], [86.643, 25.247], [86.655, 25.243], [86.681, 25.244], [86.709, 25.25], [86.729, 25.256], [86.749, 25.264]], [[86.117, 25.276], [86.119, 25.277], [86.148, 25.283], [86.168, 25.293], [86.184, 25.31]], [[86.612, 25.259], [86.618, 25.255]], [[86.605, 25.264], [86.612, 25.259]], [[87.817, 25.207], [87.816, 25.196], [87.816, 25.178], [87.805, 25.168], [87.804, 25.162]], [[87.817, 25.207], [87.827, 25.205], [87.831, 25.205], [87.841, 25.2], [87.85, 25.198], [87.856, 25.198], [87.868, 25.201], [87.872, 25.201], [87.877, 25.198], [87.881, 25.192], [87.884, 25.184], [87.883, 25.167], [87.884, 25.162], [87.89, 25.151], [87.893, 25.133], [87.892, 25.122], [87.887, 25.113], [87.87, 25.104], [87.856, 25.099], [87.841, 25.091], [87.842, 25.083]], [[86.615, 25.269], [86.612, 25.264], [86.612, 25.259]], [[86.615, 25.269], [86.617, 25.266], [86.618, 25.255]], [[86.749, 25.264], [86.762, 25.269], [86.769, 25.275]], [[86.749, 25.264], [86.757, 25.255], [86.76, 25.254], [86.768, 25.253], [86.784, 25.256], [86.801, 25.26], [86.811, 25.264], [86.817, 25.264], [86.828, 25.266], [86.845, 25.276], [86.854, 25.288], [86.862, 25.296], [86.865, 25.297]], [[86.731, 25.271], [86.74, 25.272], [86.75, 25.276], [86.754, 25.276]], [[86.769, 25.275], [86.777, 25.279], [86.779, 25.286], [86.791, 25.298]], [[86.754, 25.276], [86.769, 25.275]], [[86.754, 25.276], [86.751, 25.28], [86.756, 25.284], [86.758, 25.288], [86.771, 25.302], [86.773, 25.305], [86.787, 25.316], [86.797, 25.319], [86.804, 25.325], [86.818, 25.331], [86.824, 25.332], [86.831, 25.33], [86.837, 25.337], [86.835, 25.341], [86.836, 25.346], [86.831, 25.351], [86.832, 25.356], [86.829, 25.364], [86.831, 25.38], [86.847, 25.389], [86.854, 25.39], [86.866, 25.395], [86.876, 25.395], [86.886, 25.393], [86.896, 25.388], [86.906, 25.38], [86.914, 25.371], [86.918, 25.362], [86.935, 25.347], [86.948, 25.342]], [[86.603, 25.288], [86.604, 25.275], [86.605, 25.264]], [[86.603, 25.288], [86.612, 25.284], [86.615, 25.277], [86.615, 25.269]], [[86.053, 25.311], [86.065, 25.31], [86.076, 25.311], [86.095, 25.316]], [[86.053, 25.311], [86.065, 25.315], [86.079, 25.323], [86.092, 25.336], [86.1, 25.346], [86.104, 25.35], [86.114, 25.352], [86.124, 25.352]], [[86.602, 25.29], [86.603, 25.288]], [[86.602, 25.29], [86.614, 25.294], [86.618, 25.298], [86.625, 25.296], [86.632, 25.292], [86.639, 25.285], [86.645, 25.275], [86.653, 25.268], [86.668, 25.263], [86.679, 25.262], [86.688, 25.264], [86.701, 25.263], [86.71, 25.265], [86.718, 25.268], [86.731, 25.271]], [[87.031, 25.274], [87.035, 25.266], [87.045, 25.263], [87.056, 25.262], [87.065, 25.26], [87.088, 25.264], [87.097, 25.267], [87.108, 25.273], [87.111, 25.277]], [[87.031, 25.274], [87.039, 25.279], [87.051, 25.282], [87.048, 25.29]], [[86.184, 25.31], [86.191, 25.312], [86.209, 25.311], [86.211, 25.311]], [[86.184, 25.31], [86.189, 25.316], [86.202, 25.317], [86.221, 25.324], [86.225, 25.327]], [[87.19, 25.268], [87.193, 25.263], [87.2, 25.259], [87.211, 25.259], [87.221, 25.265], [87.232, 25.272], [87.244, 25.283], [87.254, 25.298], [87.256, 25.304], [87.259, 25.316], [87.258, 25.322]], [[86.211, 25.311], [86.213, 25.306], [86.217, 25.304], [86.223, 25.305], [86.225, 25.309], [86.235, 25.311], [86.242, 25.309], [86.247, 25.309], [86.252, 25.312], [86.271, 25.31], [86.29, 25.308], [86.295, 25.306], [86.31, 25.304], [86.32, 25.303], [86.33, 25.299], [86.341, 25.299], [86.351, 25.309]], [[86.211, 25.311], [86.225, 25.318], [86.227, 25.327]], [[86.095, 25.316], [86.119, 25.31], [86.127, 25.309], [86.133, 25.312], [86.155, 25.326], [86.16, 25.327], [86.177, 25.327], [86.186, 25.332]], [[86.095, 25.316], [86.11, 25.319], [86.118, 25.325], [86.125, 25.338], [86.128, 25.34], [86.139, 25.339], [86.145, 25.341]], [[86.351, 25.309], [86.362, 25.307], [86.375, 25.311], [86.378, 25.31]], [[87.111, 25.277], [87.117, 25.275], [87.124, 25.275], [87.129, 25.277], [87.131, 25.28], [87.143, 25.283], [87.151, 25.284], [87.157, 25.282], [87.159, 25.273], [87.164, 25.27], [87.181, 25.267], [87.19, 25.268]], [[87.111, 25.277], [87.123, 25.291]], [[86.378, 25.31], [86.397, 25.32], [86.404, 25.326]], [[86.378, 25.31], [86.387, 25.307], [86.409, 25.307], [86.417, 25.309], [86.429, 25.313], [86.444, 25.321], [86.453, 25.33], [86.46, 25.345], [86.462, 25.352], [86.464, 25.364], [86.463, 25.371], [86.461, 25.376]], [[86.026, 25.325], [86.026, 25.316], [86.028, 25.296], [86.031, 25.287], [86.037, 25.274], [86.043, 25.268], [86.049, 25.267], [86.063, 25.271]], [[86.026, 25.325], [86.03, 25.318], [86.037, 25.314], [86.045, 25.311], [86.053, 25.311]], [[86.328, 25.317], [86.342, 25.311], [86.351, 25.309]], [[86.328, 25.317], [86.339, 25.32], [86.351, 25.322], [86.365, 25.32], [86.37, 25.321], [86.386, 25.329], [86.404, 25.326]], [[86.791, 25.298], [86.805, 25.29], [86.817, 25.286], [86.83, 25.291], [86.839, 25.296], [86.847, 25.298], [86.857, 25.299], [86.865, 25.297]], [[86.791, 25.298], [86.802, 25.304], [86.818, 25.313], [86.84, 25.315], [86.847, 25.314], [86.855, 25.307], [86.86, 25.305]], [[86.865, 25.297], [86.872, 25.298]], [[86.59, 25.309], [86.6, 25.299], [86.602, 25.29]], [[86.872, 25.298], [86.885, 25.299], [86.89, 25.301]], [[87.048, 25.29], [87.05, 25.293], [87.056, 25.296], [87.057, 25.304], [87.08, 25.301], [87.084, 25.3], [87.094, 25.294], [87.1, 25.292], [87.123, 25.291]], [[86.225, 25.327], [86.227, 25.327]], [[86.227, 25.327], [86.232, 25.327], [86.245, 25.33], [86.254, 25.333], [86.264, 25.339], [86.267, 25.34]], [[87.713, 25.261], [87.708, 25.26], [87.697, 25.25], [87.689, 25.245], [87.682, 25.244], [87.666, 25.249], [87.65, 25.25], [87.646, 25.249], [87.631, 25.252], [87.622, 25.256], [87.614, 25.262], [87.594, 25.268], [87.589, 25.272], [87.581, 25.278]], [[87.713, 25.261], [87.722, 25.263], [87.738, 25.269], [87.753, 25.276], [87.768, 25.277], [87.78, 25.274]], [[86.89, 25.301], [86.905, 25.304], [86.911, 25.303]], [[87.123, 25.291], [87.134, 25.309], [87.138, 25.312], [87.148, 25.316], [87.165, 25.314]], [[86.186, 25.332], [86.207, 25.332], [86.222, 25.327], [86.225, 25.327]], [[86.885, 25.303], [86.89, 25.301]], [[86.885, 25.303], [86.893, 25.31], [86.899, 25.314], [86.911, 25.313], [86.923, 25.307], [86.926, 25.304]], [[86.86, 25.305], [86.872, 25.298]], [[86.86, 25.305], [86.881, 25.304], [86.885, 25.303]], [[86.911, 25.303], [86.909, 25.3], [86.899, 25.295], [86.921, 25.282], [86.938, 25.269], [86.957, 25.262], [86.981, 25.259], [87.015, 25.273], [87.031, 25.274]], [[86.911, 25.303], [86.926, 25.304]], [[86.404, 25.326], [86.411, 25.327], [86.418, 25.331], [86.437, 25.339], [86.443, 25.342], [86.455, 25.358], [86.461, 25.371], [86.461, 25.376]], [[86.926, 25.304], [86.942, 25.309], [86.953, 25.317], [86.961, 25.324]], [[86.57, 25.322], [86.58, 25.296], [86.584, 25.282], [86.592, 25.272], [86.599, 25.267], [86.605, 25.264]], [[86.57, 25.322], [86.576, 25.318], [86.59, 25.309]], [[86.149, 25.34], [86.166, 25.332], [86.186, 25.332]], [[86.149, 25.34], [86.171, 25.351], [86.173, 25.353]], [[86.283, 25.335], [86.297, 25.327], [86.313, 25.317], [86.318, 25.316], [86.328, 25.317]], [[86.283, 25.335], [86.28, 25.344], [86.283, 25.346], [86.289, 25.347], [86.294, 25.363], [86.299, 25.369], [86.308, 25.369], [86.316, 25.363], [86.321, 25.356], [86.334, 25.344], [86.339, 25.34], [86.343, 25.336], [86.35, 25.334], [86.361, 25.336], [86.375, 25.353], [86.396, 25.37], [86.408, 25.377], [86.415, 25.394], [86.421, 25.402], [86.428, 25.407], [86.44, 25.411], [86.454, 25.412], [86.466, 25.412]], [[86.145, 25.341], [86.149, 25.34]], [[87.581, 25.278], [87.571, 25.279], [87.562, 25.279], [87.555, 25.282], [87.537, 25.285], [87.526, 25.285], [87.518, 25.284], [87.506, 25.286], [87.496, 25.286], [87.483, 25.283], [87.477, 25.28], [87.471, 25.285], [87.462, 25.293], [87.459, 25.302], [87.452, 25.315], [87.446, 25.32], [87.429, 25.327], [87.424, 25.328], [87.415, 25.336], [87.409, 25.346], [87.412, 25.352], [87.416, 25.356], [87.418, 25.363], [87.415, 25.368], [87.414, 25.373], [87.405, 25.385], [87.413, 25.391], [87.416, 25.396]], [[87.581, 25.278], [87.579, 25.281], [87.577, 25.291], [87.574, 25.293], [87.564, 25.297], [87.556, 25.301], [87.542, 25.307], [87.532, 25.313], [87.528, 25.318], [87.521, 25.332], [87.519, 25.343], [87.513, 25.35], [87.508, 25.357], [87.498, 25.363], [87.479, 25.364], [87.469, 25.367], [87.454, 25.377], [87.454, 25.386], [87.458, 25.394], [87.467, 25.399], [87.47, 25.407]], [[87.027, 25.304], [87.023, 25.299], [87.039, 25.292], [87.048, 25.29]], [[87.027, 25.304], [87.038, 25.314], [87.049, 25.321], [87.067, 25.339], [87.072, 25.349], [87.081, 25.356], [87.089, 25.36]], [[87.011, 25.306], [87.013, 25.304], [87.031, 25.274]], [[87.011, 25.306], [87.027, 25.304]], [[86.267, 25.34], [86.275, 25.339], [86.283, 25.335]], [[87.78, 25.274], [87.777, 25.269], [87.766, 25.264], [87.766, 25.253], [87.764, 25.25], [87.768, 25.242], [87.775, 25.236], [87.774, 25.227], [87.768, 25.215], [87.765, 25.204], [87.769, 25.198], [87.774, 25.188]], [[87.78, 25.274], [87.808, 25.265], [87.816, 25.258], [87.823, 25.247], [87.825, 25.235], [87.824, 25.226], [87.822, 25.215], [87.817, 25.211], [87.817, 25.207]], [[86.124, 25.352], [86.13, 25.35], [86.139, 25.344], [86.145, 25.341]], [[86.124, 25.352], [86.128, 25.359], [86.134, 25.363], [86.141, 25.363], [86.15, 25.357], [86.159, 25.357], [86.173, 25.353]], [[86.173, 25.353], [86.185, 25.353], [86.197, 25.35], [86.204, 25.35], [86.215, 25.347], [86.218, 25.342], [86.223, 25.34], [86.238, 25.338], [86.253, 25.341], [86.26, 25.342], [86.267, 25.34]], [[87.165, 25.314], [87.17, 25.311], [87.181, 25.3], [87.185, 25.291], [87.187, 25.28], [87.188, 25.271], [87.19, 25.268]], [[86.961, 25.324], [86.969, 25.327], [86.977, 25.327], [86.984, 25.326]], [[86.961, 25.324], [86.967, 25.333]], [[86.584, 25.343], [86.589, 25.333], [86.591, 25.324], [86.591, 25.316], [86.59, 25.309]], [[86.984, 25.326], [86.991, 25.325], [86.996, 25.322], [87.007, 25.31], [87.011, 25.306]], [[86.577, 25.348], [86.576, 25.34], [86.575, 25.335], [86.569, 25.327], [86.57, 25.322]], [[86.577, 25.348], [86.584, 25.343]], [[86.967, 25.333], [86.974, 25.335], [86.98, 25.332], [86.984, 25.326]], [[85.999, 25.375], [86.009, 25.366], [86.021, 25.349], [86.022, 25.335], [86.026, 25.325]], [[87.258, 25.322], [87.254, 25.334]], [[87.258, 25.322], [87.254, 25.334]], [[86.948, 25.342], [86.964, 25.335], [86.967, 25.333]], [[86.948, 25.342], [86.952, 25.345], [86.961, 25.345], [86.971, 25.346], [86.996, 25.354], [87.013, 25.355], [87.036, 25.359], [87.047, 25.364], [87.055, 25.366], [87.067, 25.364], [87.082, 25.363], [87.089, 25.36]], [[87.254, 25.334], [87.253, 25.343]], [[81.735, 25.497], [81.73, 25.499], [81.72, 25.499], [81.716, 25.502], [81.711, 25.509], [81.709, 25.515], [81.703, 25.516], [81.681, 25.516], [81.672, 25.52], [81.666, 25.52], [81.643, 25.527], [81.64, 25.535], [81.65, 25.551], [81.651, 25.556], [81.651, 25.569], [81.649, 25.576], [81.638, 25.589], [81.631, 25.594], [81.626, 25.595], [81.61, 25.594], [81.602, 25.592], [81.595, 25.588], [81.588, 25.583], [81.571, 25.572], [81.562, 25.571], [81.556, 25.573], [81.554, 25.578], [81.549, 25.582], [81.541, 25.601], [81.537, 25.606], [81.535, 25.611], [81.53, 25.616], [81.519, 25.622], [81.514, 25.623], [81.499, 25.622], [81.492, 25.624], [81.484, 25.624], [81.476, 25.617], [81.467, 25.612], [81.456, 25.61], [81.449, 25.613], [81.444, 25.623], [81.44, 25.628], [81.442, 25.637], [81.441, 25.642], [81.435, 25.649], [81.436, 25.661], [81.432, 25.665], [81.423, 25.671], [81.413, 25.673], [81.406, 25.673], [81.399, 25.675], [81.39, 25.683], [81.377, 25.691], [81.371, 25.696], [81.369, 25.706], [81.374, 25.715], [81.378, 25.717], [81.382, 25.723], [81.395, 25.734], [81.4, 25.741], [81.402, 25.751], [81.402, 25.76], [81.396, 25.767], [81.391, 25.771], [81.379, 25.774], [81.37, 25.773], [81.362, 25.773], [81.354, 25.78], [81.35, 25.79], [81.35, 25.802], [81.348, 25.808], [81.344, 25.81], [81.331, 25.814], [81.299, 25.826], [81.293, 25.826], [81.286, 25.833], [81.268, 25.841], [81.266, 25.847], [81.261, 25.852], [81.253, 25.855], [81.235, 25.857], [81.225, 25.861], [81.217, 25.868], [81.214, 25.878], [81.215, 25.884], [81.217, 25.888], [81.216, 25.907], [81.216, 25.915], [81.212, 25.927], [81.212, 25.94], [81.208, 25.945], [81.199, 25.947], [81.166, 25.959], [81.156, 25.962], [81.146, 25.966], [81.133, 25.967], [81.123, 25.968], [81.106, 25.974], [81.104, 25.976], [81.096, 25.992], [81.089, 26], [81.08, 26.007], [81.066, 26.014], [81.058, 26.013], [81.054, 26.017], [81.046, 26.033], [81.035, 26.05], [81.031, 26.054], [81.027, 26.063], [81.017, 26.074], [81.005, 26.076], [80.998, 26.075], [80.988, 26.07], [80.967, 26.061], [80.963, 26.057], [80.953, 26.055], [80.94, 26.055], [80.926, 26.058], [80.919, 26.055], [80.91, 26.054], [80.901, 26.056], [80.876, 26.057], [80.869, 26.054], [80.858, 26.043], [80.853, 26.034], [80.846, 26.025], [80.841, 26.022], [80.83, 26.019], [80.82, 26.021], [80.809, 26.029], [80.806, 26.033], [80.805, 26.038], [80.796, 26.046], [80.791, 26.048], [80.78, 26.06], [80.769, 26.069], [80.763, 26.072], [80.756, 26.078], [80.736, 26.077], [80.717, 26.078]], [[81.837, 25.498], [81.829, 25.493], [81.824, 25.492], [81.806, 25.49], [81.802, 25.487], [81.791, 25.472], [81.778, 25.468], [81.77, 25.467], [81.759, 25.467], [81.748, 25.468], [81.744, 25.471], [81.738, 25.483], [81.738, 25.491], [81.735, 25.497]], [[81.837, 25.498], [81.831, 25.5], [81.808, 25.504], [81.795, 25.502], [81.787, 25.497], [81.782, 25.49], [81.775, 25.485], [81.764, 25.48], [81.756, 25.48], [81.751, 25.482], [81.74, 25.494], [81.735, 25.497]], [[81.837, 25.498], [81.851, 25.503], [81.864, 25.506], [81.877, 25.505], [81.887, 25.498], [81.891, 25.493], [81.894, 25.484], [81.892, 25.468], [81.886, 25.459], [81.886, 25.452], [81.892, 25.44], [81.891, 25.43], [81.888, 25.423], [81.891, 25.414], [81.897, 25.406], [81.904, 25.401], [81.909, 25.401], [81.912, 25.398], [81.919, 25.384], [81.92, 25.38]], [[86.461, 25.376], [86.455, 25.389], [86.459, 25.398], [86.468, 25.41], [86.471, 25.412]], [[86.563, 25.373], [86.569, 25.366], [86.577, 25.348]], [[87.253, 25.343], [87.256, 25.356], [87.257, 25.365], [87.262, 25.377], [87.253, 25.404], [87.254, 25.412], [87.26, 25.421], [87.268, 25.428], [87.288, 25.442], [87.294, 25.441], [87.304, 25.441], [87.322, 25.45], [87.335, 25.454], [87.343, 25.454], [87.362, 25.454], [87.377, 25.457], [87.383, 25.458], [87.393, 25.458], [87.405, 25.453], [87.414, 25.441], [87.419, 25.432], [87.432, 25.425], [87.438, 25.416], [87.444, 25.413], [87.467, 25.408]], [[85.932, 25.402], [85.939, 25.401], [85.952, 25.398], [85.972, 25.39], [85.978, 25.385], [85.99, 25.377], [85.999, 25.375]], [[85.973, 25.403], [85.979, 25.396], [85.991, 25.391], [85.999, 25.375]], [[87.089, 25.36], [87.094, 25.361], [87.102, 25.36], [87.128, 25.346], [87.131, 25.343], [87.15, 25.335], [87.162, 25.326], [87.165, 25.314]], [[86.544, 25.385], [86.563, 25.373]], [[87.409, 25.347], [87.403, 25.347], [87.392, 25.353], [87.383, 25.352], [87.381, 25.35], [87.381, 25.344], [87.386, 25.339], [87.385, 25.334], [87.382, 25.328], [87.376, 25.328], [87.373, 25.332], [87.375, 25.347], [87.374, 25.352], [87.368, 25.359], [87.347, 25.366], [87.341, 25.365], [87.338, 25.361], [87.334, 25.36], [87.315, 25.365]], [[86.594, 25.392], [86.59, 25.385], [86.58, 25.373], [86.578, 25.366], [86.579, 25.357], [86.584, 25.343]], [[86.594, 25.392], [86.602, 25.39], [86.606, 25.387], [86.608, 25.381], [86.609, 25.369], [86.605, 25.358], [86.601, 25.356], [86.6, 25.351], [86.601, 25.345], [86.607, 25.338], [86.622, 25.336], [86.625, 25.332], [86.635, 25.329], [86.637, 25.321], [86.642, 25.322], [86.653, 25.32], [86.658, 25.323], [86.665, 25.324], [86.677, 25.323], [86.692, 25.319], [86.698, 25.313], [86.704, 25.306], [86.709, 25.295], [86.711, 25.286], [86.718, 25.279], [86.725, 25.273], [86.731, 25.271]], [[86.517, 25.396], [86.523, 25.391], [86.538, 25.383], [86.544, 25.385]], [[86.517, 25.396], [86.525, 25.401], [86.527, 25.4], [86.54, 25.39], [86.544, 25.385]], [[87.315, 25.365], [87.3, 25.362], [87.295, 25.357], [87.289, 25.353], [87.272, 25.35], [87.261, 25.344], [87.253, 25.343]], [[86.471, 25.412], [86.493, 25.405], [86.51, 25.396], [86.517, 25.396]], [[86.466, 25.412], [86.471, 25.412]], [[86.466, 25.412], [86.474, 25.423], [86.482, 25.43], [86.483, 25.434], [86.5, 25.451], [86.515, 25.46], [86.522, 25.467], [86.537, 25.477], [86.549, 25.483], [86.554, 25.485], [86.562, 25.485], [86.576, 25.483], [86.582, 25.48], [86.589, 25.475], [86.596, 25.468], [86.606, 25.449], [86.608, 25.43], [86.606, 25.419], [86.6, 25.406]], [[86.6, 25.406], [86.583, 25.396], [86.574, 25.39], [86.563, 25.373]], [[86.6, 25.406], [86.599, 25.402], [86.594, 25.392]], [[85.9, 25.444], [85.899, 25.439], [85.899, 25.427], [85.902, 25.418], [85.904, 25.415], [85.924, 25.407], [85.932, 25.402]], [[85.9, 25.444], [85.908, 25.44], [85.915, 25.433], [85.924, 25.43], [85.929, 25.426], [85.937, 25.422], [85.942, 25.418], [85.953, 25.415], [85.969, 25.404], [85.973, 25.403]], [[85.9, 25.444], [85.9, 25.445], [85.888, 25.45], [85.881, 25.457], [85.882, 25.463], [85.877, 25.472], [85.89, 25.47], [85.898, 25.467], [85.909, 25.468]], [[85.545, 25.464], [85.557, 25.461], [85.58, 25.465], [85.595, 25.464], [85.602, 25.463], [85.621, 25.464], [85.629, 25.467]], [[85.545, 25.464], [85.555, 25.472], [85.56, 25.482]], [[85.529, 25.465], [85.54, 25.463], [85.545, 25.464]], [[85.629, 25.467], [85.637, 25.466], [85.654, 25.462], [85.669, 25.463], [85.683, 25.467], [85.692, 25.467], [85.7, 25.473], [85.711, 25.494]], [[87.416, 25.396], [87.402, 25.395], [87.398, 25.396], [87.385, 25.403], [87.372, 25.404], [87.366, 25.403], [87.349, 25.388], [87.338, 25.376], [87.321, 25.367], [87.315, 25.365]], [[85.909, 25.468], [85.914, 25.456], [85.92, 25.45], [85.931, 25.442], [85.942, 25.433], [85.964, 25.422], [85.971, 25.412], [85.973, 25.403]], [[85.56, 25.482], [85.564, 25.48], [85.587, 25.476], [85.596, 25.476], [85.604, 25.474], [85.613, 25.474], [85.62, 25.472], [85.623, 25.469], [85.629, 25.467]], [[85.56, 25.482], [85.565, 25.493]], [[85.47, 25.488], [85.471, 25.483], [85.482, 25.481], [85.492, 25.478], [85.506, 25.474], [85.51, 25.475], [85.522, 25.466], [85.529, 25.465]], [[85.47, 25.488], [85.482, 25.487], [85.492, 25.493], [85.509, 25.494], [85.517, 25.491], [85.522, 25.487], [85.528, 25.48], [85.529, 25.465]], [[87.47, 25.407], [87.487, 25.4], [87.499, 25.391], [87.51, 25.389], [87.516, 25.39], [87.521, 25.394], [87.532, 25.393], [87.558, 25.388], [87.582, 25.382], [87.592, 25.381], [87.598, 25.378], [87.607, 25.361], [87.61, 25.349], [87.61, 25.342], [87.614, 25.332], [87.619, 25.324], [87.628, 25.307], [87.64, 25.279], [87.657, 25.263], [87.672, 25.258], [87.689, 25.257], [87.702, 25.261], [87.713, 25.261]], [[87.467, 25.408], [87.457, 25.403], [87.441, 25.402], [87.424, 25.398], [87.416, 25.396]], [[87.467, 25.408], [87.47, 25.407]], [[85.627, 25.486], [85.642, 25.484], [85.65, 25.485]], [[85.65, 25.485], [85.656, 25.48], [85.667, 25.476], [85.677, 25.476], [85.696, 25.481], [85.704, 25.489]], [[85.65, 25.485], [85.661, 25.491], [85.664, 25.495]], [[85.565, 25.493], [85.568, 25.501], [85.577, 25.505]], [[85.704, 25.489], [85.711, 25.494]], [[85.599, 25.496], [85.599, 25.493], [85.606, 25.49], [85.615, 25.487], [85.627, 25.486]], [[85.664, 25.495], [85.67, 25.496], [85.677, 25.499], [85.69, 25.502], [85.696, 25.497], [85.699, 25.492], [85.704, 25.489]], [[85.664, 25.495], [85.667, 25.507], [85.673, 25.511], [85.68, 25.513]], [[85.711, 25.494], [85.73, 25.507], [85.737, 25.511]], [[85.502, 25.505], [85.506, 25.502], [85.531, 25.492], [85.537, 25.485], [85.555, 25.486], [85.563, 25.496], [85.565, 25.493]], [[85.355, 25.511], [85.39, 25.513], [85.393, 25.514], [85.413, 25.513], [85.424, 25.513]], [[85.355, 25.511], [85.362, 25.515], [85.367, 25.517], [85.381, 25.524], [85.386, 25.525], [85.408, 25.525], [85.414, 25.524], [85.42, 25.52], [85.424, 25.513]], [[85.598, 25.503], [85.599, 25.496]], [[85.598, 25.503], [85.612, 25.503], [85.616, 25.501], [85.619, 25.494], [85.627, 25.486]], [[85.577, 25.505], [85.585, 25.507], [85.593, 25.503], [85.599, 25.496]], [[85.424, 25.513], [85.429, 25.508], [85.438, 25.494], [85.444, 25.49], [85.47, 25.488]], [[85.3, 25.52], [85.305, 25.514], [85.319, 25.511], [85.353, 25.51], [85.355, 25.511]], [[85.779, 25.508], [85.794, 25.506], [85.802, 25.502], [85.819, 25.491], [85.834, 25.485], [85.851, 25.469], [85.861, 25.457], [85.866, 25.448], [85.87, 25.437], [85.882, 25.42], [85.888, 25.415], [85.9, 25.408], [85.932, 25.402]], [[85.779, 25.508], [85.786, 25.511], [85.792, 25.52]], [[85.886, 25.505], [85.891, 25.503], [85.899, 25.506]], [[85.737, 25.511], [85.745, 25.511], [85.762, 25.513]], [[85.68, 25.513], [85.69, 25.513], [85.715, 25.515], [85.733, 25.511], [85.737, 25.511]], [[85.68, 25.513], [85.682, 25.516], [85.688, 25.519], [85.694, 25.524], [85.707, 25.529], [85.716, 25.531], [85.718, 25.534], [85.716, 25.543], [85.719, 25.545], [85.73, 25.545], [85.738, 25.548], [85.744, 25.552], [85.749, 25.553], [85.768, 25.553], [85.783, 25.555], [85.792, 25.554], [85.799, 25.551], [85.804, 25.545], [85.806, 25.539], [85.814, 25.529]], [[85.592, 25.517], [85.598, 25.503]], [[85.899, 25.506], [85.906, 25.499], [85.909, 25.495], [85.909, 25.49], [85.908, 25.477], [85.909, 25.468]], [[85.762, 25.513], [85.775, 25.508], [85.779, 25.508]], [[85.762, 25.513], [85.768, 25.514]], [[85.883, 25.51], [85.886, 25.505]], [[85.883, 25.51], [85.891, 25.513]], [[85.768, 25.514], [85.772, 25.514], [85.792, 25.52]], [[85.768, 25.514], [85.776, 25.522], [85.784, 25.524], [85.79, 25.523], [85.795, 25.526], [85.814, 25.529]], [[85.891, 25.513], [85.899, 25.506]], [[85.291, 25.535], [85.293, 25.526], [85.3, 25.52]], [[85.291, 25.535], [85.295, 25.533], [85.299, 25.526], [85.3, 25.52]], [[85.792, 25.52], [85.795, 25.52], [85.805, 25.518], [85.814, 25.521]], [[85.861, 25.517], [85.864, 25.512], [85.869, 25.508], [85.868, 25.504], [85.875, 25.503], [85.886, 25.505]], [[85.861, 25.517], [85.871, 25.517]], [[85.871, 25.517], [85.878, 25.511], [85.883, 25.51]], [[85.871, 25.517], [85.882, 25.517], [85.891, 25.513]], [[85.49, 25.532], [85.49, 25.519], [85.499, 25.507], [85.502, 25.505]], [[85.49, 25.532], [85.497, 25.525], [85.499, 25.521], [85.499, 25.513], [85.502, 25.505]], [[85.814, 25.521], [85.825, 25.513], [85.833, 25.513], [85.837, 25.514], [85.845, 25.522]], [[85.814, 25.521], [85.823, 25.528]], [[85.845, 25.522], [85.861, 25.517]], [[85.823, 25.528], [85.83, 25.529], [85.835, 25.528], [85.845, 25.522]], [[85.814, 25.529], [85.823, 25.528]], [[85.581, 25.54], [85.583, 25.529], [85.589, 25.521], [85.592, 25.517]], [[85.581, 25.54], [85.59, 25.532], [85.594, 25.527], [85.592, 25.517]], [[84.006, 25.601], [84.012, 25.606], [84.021, 25.61], [84.032, 25.617], [84.048, 25.623], [84.054, 25.627], [84.068, 25.64], [84.075, 25.644], [84.081, 25.652], [84.083, 25.663], [84.081, 25.672], [84.08, 25.687], [84.08, 25.691]], [[84.006, 25.601], [84.004, 25.61], [84.006, 25.613], [84.012, 25.617], [84.02, 25.627], [84.024, 25.636], [84.027, 25.643], [84.036, 25.665], [84.036, 25.673], [84.04, 25.686], [84.043, 25.692], [84.049, 25.698], [84.066, 25.696], [84.073, 25.692], [84.08, 25.691]], [[85.27, 25.566], [85.278, 25.551], [85.285, 25.544], [85.291, 25.535]], [[85.271, 25.571], [85.27, 25.566]], [[85.271, 25.571], [85.283, 25.571], [85.287, 25.566], [85.285, 25.563], [85.292, 25.56], [85.3, 25.559], [85.312, 25.563], [85.32, 25.567], [85.323, 25.576], [85.342, 25.584], [85.347, 25.584], [85.367, 25.594], [85.373, 25.596], [85.384, 25.589], [85.404, 25.581], [85.411, 25.58], [85.42, 25.575], [85.427, 25.565], [85.433, 25.562], [85.442, 25.563], [85.459, 25.568]], [[85.459, 25.568], [85.478, 25.565], [85.481, 25.563], [85.483, 25.556], [85.483, 25.542], [85.49, 25.532]], [[85.459, 25.568], [85.465, 25.572], [85.469, 25.58], [85.474, 25.585], [85.487, 25.586], [85.491, 25.585], [85.496, 25.579]], [[85.496, 25.579], [85.496, 25.573], [85.491, 25.566], [85.49, 25.552], [85.492, 25.549], [85.499, 25.548], [85.505, 25.555], [85.512, 25.557], [85.514, 25.555], [85.514, 25.549], [85.52, 25.542], [85.528, 25.535], [85.548, 25.523], [85.561, 25.512], [85.577, 25.505]], [[85.496, 25.579], [85.505, 25.574], [85.513, 25.573], [85.526, 25.573], [85.536, 25.577], [85.543, 25.578], [85.559, 25.573], [85.566, 25.569], [85.571, 25.555], [85.581, 25.54]], [[85.258, 25.592], [85.27, 25.58], [85.271, 25.571]], [[85.258, 25.592], [85.267, 25.591], [85.269, 25.594], [85.277, 25.596], [85.295, 25.597], [85.304, 25.587], [85.311, 25.584], [85.317, 25.584], [85.331, 25.588], [85.342, 25.59], [85.363, 25.596], [85.37, 25.596], [85.366, 25.602], [85.35, 25.612], [85.335, 25.623], [85.324, 25.629]], [[85.256, 25.593], [85.256, 25.587], [85.261, 25.575], [85.27, 25.566]], [[85.256, 25.593], [85.258, 25.592]], [[85.237, 25.608], [85.243, 25.601], [85.249, 25.599], [85.256, 25.593]], [[85.237, 25.608], [85.253, 25.612], [85.27, 25.613], [85.284, 25.621], [85.289, 25.623], [85.306, 25.624], [85.318, 25.63], [85.324, 25.629]], [[85.211, 25.613], [85.224, 25.607], [85.237, 25.608]], [[85.211, 25.613], [85.224, 25.618], [85.235, 25.62], [85.25, 25.624], [85.257, 25.629], [85.264, 25.635], [85.271, 25.645], [85.277, 25.649], [85.282, 25.649], [85.289, 25.641], [85.296, 25.639], [85.304, 25.638], [85.317, 25.635], [85.324, 25.631], [85.324, 25.629]], [[85.056, 25.645], [85.069, 25.651]], [[85.069, 25.651], [85.083, 25.651], [85.096, 25.65], [85.103, 25.645], [85.117, 25.633], [85.122, 25.629], [85.133, 25.624], [85.143, 25.623], [85.149, 25.625], [85.151, 25.623], [85.164, 25.623], [85.192, 25.62], [85.211, 25.613]], [[85.069, 25.651], [85.081, 25.656], [85.089, 25.661], [85.099, 25.666], [85.116, 25.671], [85.13, 25.671]], [[84.08, 25.691], [84.081, 25.698], [84.089, 25.709]], [[84.977, 25.669], [84.981, 25.663], [84.982, 25.657], [84.989, 25.653], [85.001, 25.644], [85.009, 25.641], [85.022, 25.64], [85.04, 25.639], [85.051, 25.643], [85.056, 25.645]], [[84.977, 25.669], [84.986, 25.668], [85.024, 25.673], [85.037, 25.67], [85.043, 25.663], [85.05, 25.647], [85.056, 25.645]], [[84.899, 25.673], [84.905, 25.669], [84.92, 25.666], [84.931, 25.666], [84.947, 25.666], [84.967, 25.669], [84.977, 25.669]], [[85.13, 25.671], [85.144, 25.667], [85.146, 25.665], [85.158, 25.659], [85.167, 25.652], [85.181, 25.646], [85.194, 25.641], [85.204, 25.628], [85.208, 25.617], [85.211, 25.613]], [[84.273, 25.704], [84.28, 25.702], [84.301, 25.703], [84.319, 25.706], [84.332, 25.713], [84.345, 25.718], [84.353, 25.725], [84.358, 25.734], [84.361, 25.738], [84.366, 25.748], [84.374, 25.772], [84.377, 25.774], [84.384, 25.775], [84.394, 25.774], [84.4, 25.771], [84.404, 25.763], [84.405, 25.759], [84.413, 25.743], [84.416, 25.734], [84.418, 25.73], [84.427, 25.722], [84.441, 25.715], [84.453, 25.714], [84.465, 25.709], [84.483, 25.697], [84.491, 25.688], [84.492, 25.682], [84.497, 25.676], [84.503, 25.673], [84.509, 25.667], [84.516, 25.662], [84.53, 25.66], [84.544, 25.66], [84.555, 25.666], [84.594, 25.698], [84.628, 25.737], [84.635, 25.742], [84.646, 25.747], [84.653, 25.748], [84.658, 25.745], [84.659, 25.741], [84.663, 25.739]], [[84.089, 25.709], [84.114, 25.712], [84.122, 25.716], [84.137, 25.725], [84.145, 25.725], [84.157, 25.719], [84.162, 25.713], [84.168, 25.712], [84.183, 25.711], [84.189, 25.713], [84.198, 25.718], [84.206, 25.717], [84.208, 25.719]], [[84.089, 25.709], [84.104, 25.72], [84.116, 25.728], [84.128, 25.731], [84.146, 25.731], [84.159, 25.729], [84.17, 25.725], [84.187, 25.724], [84.202, 25.719], [84.208, 25.719]], [[84.208, 25.719], [84.217, 25.716], [84.224, 25.711], [84.233, 25.7], [84.241, 25.696], [84.247, 25.696], [84.256, 25.697], [84.273, 25.704]], [[84.137, 25.733], [84.14, 25.737], [84.152, 25.742], [84.152, 25.748], [84.156, 25.752], [84.168, 25.752], [84.177, 25.754], [84.184, 25.753], [84.197, 25.749], [84.213, 25.745], [84.223, 25.74], [84.229, 25.736], [84.239, 25.73], [84.252, 25.724], [84.263, 25.717], [84.273, 25.704]], [[84.888, 25.713], [84.892, 25.708], [84.895, 25.699], [84.897, 25.695], [84.896, 25.686], [84.899, 25.673]], [[84.888, 25.713], [84.895, 25.713], [84.907, 25.717], [84.919, 25.726], [84.931, 25.735], [84.941, 25.742], [84.953, 25.743], [84.959, 25.741], [84.973, 25.729], [84.977, 25.724], [84.985, 25.718], [84.996, 25.715], [85.001, 25.715], [85.008, 25.722]], [[84.869, 25.718], [84.873, 25.715], [84.875, 25.707], [84.873, 25.698], [84.874, 25.693], [84.881, 25.685], [84.899, 25.673]], [[84.869, 25.718], [84.881, 25.717], [84.888, 25.713]], [[84.76, 25.728], [84.766, 25.725], [84.771, 25.726], [84.781, 25.734], [84.786, 25.74], [84.792, 25.742], [84.804, 25.739]], [[85.008, 25.722], [85.016, 25.725], [85.027, 25.725], [85.034, 25.722], [85.043, 25.72], [85.05, 25.721], [85.059, 25.725], [85.064, 25.733], [85.062, 25.741], [85.063, 25.747], [85.069, 25.751]], [[85.008, 25.722], [85.016, 25.732], [85.022, 25.742], [85.025, 25.745], [85.048, 25.75], [85.052, 25.752], [85.065, 25.754], [85.069, 25.751]], [[84.663, 25.739], [84.69, 25.711], [84.693, 25.706], [84.693, 25.692], [84.695, 25.685], [84.701, 25.682], [84.713, 25.679], [84.723, 25.683], [84.732, 25.693], [84.74, 25.713], [84.745, 25.723], [84.756, 25.726], [84.76, 25.728]], [[84.663, 25.739], [84.671, 25.74], [84.678, 25.738], [84.689, 25.738], [84.697, 25.737], [84.712, 25.738], [84.72, 25.738], [84.737, 25.735], [84.743, 25.735], [84.754, 25.732], [84.76, 25.728]], [[84.817, 25.735], [84.837, 25.724], [84.849, 25.719], [84.865, 25.719], [84.869, 25.718]], [[84.816, 25.735], [84.817, 25.735]], [[84.816, 25.735], [84.817, 25.735]], [[84.804, 25.739], [84.808, 25.739], [84.816, 25.735]], [[85.069, 25.751], [85.089, 25.751], [85.096, 25.75], [85.11, 25.743], [85.114, 25.731], [85.114, 25.722], [85.109, 25.712], [85.108, 25.699], [85.111, 25.688], [85.114, 25.681], [85.118, 25.677], [85.13, 25.671]], [[80.662, 26.137], [80.663, 26.126], [80.666, 26.119], [80.664, 26.111], [80.671, 26.104], [80.684, 26.097], [80.702, 26.087], [80.711, 26.079], [80.717, 26.078]], [[80.662, 26.137], [80.665, 26.137], [80.679, 26.131], [80.681, 26.122], [80.686, 26.117], [80.698, 26.118], [80.707, 26.111], [80.713, 26.109], [80.716, 26.105], [80.716, 26.095], [80.711, 26.086], [80.712, 26.081], [80.717, 26.078]], [[80.546, 26.303], [80.553, 26.292], [80.557, 26.284], [80.564, 26.279], [80.574, 26.277], [80.577, 26.27], [80.577, 26.257], [80.582, 26.244], [80.588, 26.236], [80.59, 26.227], [80.594, 26.222], [80.596, 26.212], [80.61, 26.194], [80.617, 26.19], [80.636, 26.19], [80.642, 26.188], [80.647, 26.182], [80.648, 26.167], [80.653, 26.162], [80.662, 26.137]], [[80.546, 26.303], [80.547, 26.312], [80.551, 26.321], [80.554, 26.328], [80.551, 26.345], [80.54, 26.367], [80.53, 26.372], [80.521, 26.374], [80.514, 26.381], [80.505, 26.386], [80.496, 26.394], [80.491, 26.396], [80.479, 26.398], [80.473, 26.4]], [[80.473, 26.4], [80.484, 26.383], [80.487, 26.382], [80.499, 26.373], [80.502, 26.365], [80.512, 26.358], [80.522, 26.352], [80.532, 26.338], [80.54, 26.332], [80.542, 26.325], [80.542, 26.31], [80.546, 26.303]], [[80.289, 26.599], [80.289, 26.581], [80.291, 26.574], [80.305, 26.559], [80.311, 26.554], [80.311, 26.547], [80.316, 26.534], [80.316, 26.528], [80.311, 26.517], [80.313, 26.513], [80.326, 26.503], [80.332, 26.502], [80.336, 26.499], [80.337, 26.491], [80.351, 26.485], [80.365, 26.484], [80.37, 26.48], [80.373, 26.476], [80.379, 26.471], [80.379, 26.466], [80.387, 26.452], [80.397, 26.446], [80.401, 26.441], [80.406, 26.436], [80.411, 26.435], [80.42, 26.429], [80.425, 26.421], [80.432, 26.417], [80.436, 26.416], [80.443, 26.41], [80.454, 26.406], [80.466, 26.406], [80.471, 26.404], [80.473, 26.4]], [[80.268, 26.656], [80.273, 26.652], [80.275, 26.637], [80.273, 26.629], [80.274, 26.616], [80.278, 26.61], [80.282, 26.604], [80.289, 26.599]], [[80.245, 26.69], [80.251, 26.684], [80.254, 26.669], [80.26, 26.661], [80.268, 26.656]], [[80.245, 26.69], [80.248, 26.691]], [[80.239, 26.691], [80.245, 26.69]], [[80.248, 26.691], [80.255, 26.692], [80.265, 26.691], [80.271, 26.688], [80.272, 26.676], [80.274, 26.667], [80.268, 26.66], [80.268, 26.656]], [[80.248, 26.691], [80.261, 26.696], [80.272, 26.698], [80.278, 26.696], [80.285, 26.689], [80.291, 26.686], [80.299, 26.68], [80.301, 26.672], [80.305, 26.663], [80.305, 26.659], [80.299, 26.648], [80.296, 26.643], [80.3, 26.64], [80.299, 26.632], [80.292, 26.624], [80.291, 26.618], [80.283, 26.61], [80.283, 26.607], [80.289, 26.599]], [[80.148, 26.773], [80.149, 26.772], [80.148, 26.758], [80.141, 26.743], [80.14, 26.738], [80.147, 26.728], [80.151, 26.725], [80.159, 26.723], [80.17, 26.715], [80.175, 26.71], [80.177, 26.702], [80.181, 26.693], [80.188, 26.692], [80.202, 26.693], [80.209, 26.688], [80.216, 26.686], [80.226, 26.687], [80.235, 26.688], [80.239, 26.691]], [[80.148, 26.781], [80.148, 26.773]], [[80.148, 26.781], [80.159, 26.78], [80.155, 26.776], [80.158, 26.772], [80.165, 26.77], [80.168, 26.765], [80.167, 26.757], [80.17, 26.754], [80.17, 26.747], [80.177, 26.745], [80.178, 26.729], [80.185, 26.729], [80.192, 26.727], [80.199, 26.729], [80.204, 26.728], [80.207, 26.718], [80.211, 26.713], [80.213, 26.706], [80.218, 26.702], [80.217, 26.697], [80.22, 26.694], [80.227, 26.691], [80.234, 26.692], [80.239, 26.691]], [[80.148, 26.781], [80.153, 26.788], [80.152, 26.796], [80.141, 26.798], [80.132, 26.802], [80.133, 26.808], [80.135, 26.814], [80.132, 26.823], [80.135, 26.829], [80.14, 26.828], [80.147, 26.829], [80.151, 26.832], [80.158, 26.845], [80.153, 26.849], [80.145, 26.854], [80.147, 26.862], [80.141, 26.864], [80.137, 26.867], [80.118, 26.875]], [[80.118, 26.875], [80.122, 26.87], [80.126, 26.854], [80.125, 26.841], [80.117, 26.831], [80.117, 26.826], [80.12, 26.817], [80.122, 26.806], [80.122, 26.794], [80.128, 26.785], [80.138, 26.781], [80.148, 26.773]], [[80.1, 26.882], [80.109, 26.881], [80.118, 26.875]], [[80.045, 26.925], [80.055, 26.919], [80.064, 26.919], [80.068, 26.918], [80.073, 26.911], [80.073, 26.907], [80.08, 26.893], [80.094, 26.884], [80.1, 26.882]], [[80.045, 26.925], [80.061, 26.926], [80.067, 26.923], [80.079, 26.919], [80.092, 26.911], [80.095, 26.902], [80.095, 26.898], [80.088, 26.896], [80.091, 26.891], [80.1, 26.882]], [[79.979, 27.018], [79.995, 27.005], [80, 26.979], [80.007, 26.974], [80.013, 26.96], [80.024, 26.949], [80.034, 26.936], [80.04, 26.927], [80.045, 26.925]], [[79.979, 27.018], [79.972, 27.021], [79.969, 27.028], [79.962, 27.029], [79.959, 27.031], [79.954, 27.044], [79.954, 27.05], [79.957, 27.058], [79.955, 27.062], [79.952, 27.065], [79.945, 27.066], [79.942, 27.068], [79.944, 27.075], [79.949, 27.081], [79.949, 27.086], [79.942, 27.086], [79.941, 27.09], [79.952, 27.086], [79.96, 27.091], [79.952, 27.093], [79.951, 27.104], [79.945, 27.106], [79.946, 27.11], [79.943, 27.113], [79.935, 27.117], [79.934, 27.125], [79.927, 27.128], [79.917, 27.138], [79.912, 27.138], [79.905, 27.142], [79.903, 27.146]], [[79.995, 27.046], [79.992, 27.044], [79.991, 27.036], [79.983, 27.031], [79.982, 27.024], [79.977, 27.024], [79.979, 27.018]], [[80.005, 27.089], [80.001, 27.089], [80.005, 27.078], [80.009, 27.072], [80.006, 27.057], [80.006, 27.05], [79.999, 27.049], [79.995, 27.046]], [[80.006, 27.09], [80, 27.097], [79.994, 27.103], [79.986, 27.123], [79.983, 27.124], [79.984, 27.112], [79.99, 27.104], [79.991, 27.096], [79.99, 27.091], [79.98, 27.09]], [[79.98, 27.09], [79.979, 27.087], [79.98, 27.079], [79.981, 27.062], [79.987, 27.053], [79.994, 27.051], [79.995, 27.046]], [[79.933, 27.145], [79.947, 27.136], [79.953, 27.127], [79.956, 27.12], [79.953, 27.113], [79.959, 27.108], [79.967, 27.105], [79.978, 27.105], [79.983, 27.101], [79.98, 27.09]], [[79.933, 27.145], [79.931, 27.149], [79.923, 27.152], [79.915, 27.151], [79.91, 27.147]], [[79.903, 27.146], [79.91, 27.147]], [[79.91, 27.147], [79.915, 27.146], [79.92, 27.144], [79.933, 27.145]], [[78.597, 30.145], [78.596, 30.13], [78.6, 30.126], [78.595, 30.124], [78.589, 30.123], [78.587, 30.118], [78.589, 30.113], [78.586, 30.105], [78.579, 30.104], [78.581, 30.099], [78.592, 30.089], [78.592, 30.084], [78.583, 30.076], [78.585, 30.071], [78.59, 30.072], [78.601, 30.069], [78.598, 30.065], [78.592, 30.067], [78.589, 30.063], [78.589, 30.053], [78.584, 30.053], [78.578, 30.063], [78.574, 30.063], [78.566, 30.062], [78.563, 30.069], [78.549, 30.071], [78.532, 30.076], [78.525, 30.074], [78.523, 30.066], [78.514, 30.066], [78.514, 30.06], [78.511, 30.055], [78.504, 30.058], [78.499, 30.064], [78.501, 30.073], [78.495, 30.075], [78.488, 30.059], [78.482, 30.056], [78.478, 30.057], [78.479, 30.064], [78.477, 30.066], [78.468, 30.064], [78.45, 30.069], [78.447, 30.073], [78.435, 30.08], [78.434, 30.099], [78.439, 30.111], [78.437, 30.113], [78.428, 30.113], [78.422, 30.118], [78.418, 30.13], [78.41, 30.135], [78.403, 30.138], [78.392, 30.135], [78.392, 30.124], [78.39, 30.121], [78.382, 30.122], [78.376, 30.117], [78.371, 30.117], [78.356, 30.126], [78.349, 30.129], [78.345, 30.132], [78.338, 30.135], [78.332, 30.134], [78.33, 30.126], [78.318, 30.125], [78.311, 30.121], [78.309, 30.117], [78.31, 30.109], [78.304, 30.102], [78.295, 30.102], [78.291, 30.099], [78.29, 30.095], [78.292, 30.09], [78.292, 30.081], [78.287, 30.072], [78.276, 30.056], [78.272, 30.045], [78.272, 30.04], [78.268, 30.037], [78.247, 30.031], [78.239, 30.022], [78.228, 30.016], [78.224, 30.007], [78.221, 30.003], [78.213, 30], [78.207, 29.991], [78.199, 29.99], [78.193, 29.98], [78.188, 29.976], [78.187, 29.97], [78.188, 29.961], [78.179, 29.956], [78.176, 29.948], [78.172, 29.946], [78.163, 29.942], [78.16, 29.937], [78.161, 29.933], [78.158, 29.922], [78.152, 29.915], [78.149, 29.906], [78.145, 29.903], [78.14, 29.891], [78.14, 29.886], [78.145, 29.879], [78.144, 29.863], [78.145, 29.86], [78.165, 29.848], [78.171, 29.841], [78.175, 29.829], [78.172, 29.825], [78.174, 29.817], [78.176, 29.814], [78.179, 29.807], [78.186, 29.8], [78.194, 29.797], [78.195, 29.791], [78.201, 29.787], [78.204, 29.787], [78.207, 29.779], [78.203, 29.774], [78.202, 29.768], [78.206, 29.766], [78.213, 29.764], [78.214, 29.759], [78.209, 29.75], [78.206, 29.748], [78.201, 29.741], [78.197, 29.739], [78.193, 29.736], [78.19, 29.731], [78.192, 29.72], [78.188, 29.712], [78.181, 29.705], [78.17, 29.698], [78.165, 29.684], [78.161, 29.679], [78.161, 29.673], [78.164, 29.665], [78.162, 29.662], [78.132, 29.653], [78.127, 29.651], [78.111, 29.648], [78.104, 29.635], [78.103, 29.629], [78.096, 29.622], [78.077, 29.617], [78.072, 29.608], [78.07, 29.599], [78.07, 29.594], [78.067, 29.581], [78.062, 29.576], [78.059, 29.563], [78.054, 29.552], [78.056, 29.545], [78.06, 29.517], [78.058, 29.512], [78.057, 29.504], [78.056, 29.5], [78.06, 29.494], [78.061, 29.49], [78.055, 29.48], [78.047, 29.475], [78.045, 29.467], [78.061, 29.456], [78.061, 29.446], [78.053, 29.439], [78.05, 29.433], [78.041, 29.424], [78.038, 29.416], [78.044, 29.412], [78.042, 29.407], [78.037, 29.403], [78.038, 29.395], [78.05, 29.385], [78.047, 29.381], [78.038, 29.381], [78.036, 29.371], [78.031, 29.357], [78.034, 29.345], [78.038, 29.337], [78.046, 29.332], [78.053, 29.333], [78.062, 29.341], [78.073, 29.341], [78.075, 29.326], [78.08, 29.322], [78.081, 29.317], [78.087, 29.313], [78.09, 29.303], [78.092, 29.3], [78.091, 29.296], [78.093, 29.291], [78.088, 29.281], [78.081, 29.274], [78.08, 29.268], [78.087, 29.257], [78.096, 29.245], [78.091, 29.24], [78.089, 29.233], [78.088, 29.226], [78.091, 29.217], [78.097, 29.212], [78.102, 29.204], [78.101, 29.189], [78.105, 29.183], [78.105, 29.177], [78.096, 29.166], [78.082, 29.153], [78.073, 29.15], [78.06, 29.149], [78.053, 29.144], [78.057, 29.137], [78.056, 29.133], [78.063, 29.124], [78.064, 29.115], [78.068, 29.112], [78.067, 29.101], [78.062, 29.089], [78.053, 29.083], [78.046, 29.08], [78.043, 29.072], [78.046, 29.066], [78.054, 29.061], [78.06, 29.066], [78.068, 29.068], [78.071, 29.067], [78.075, 29.06], [78.083, 29.057], [78.088, 29.043], [78.087, 29.04], [78.076, 29.026], [78.066, 29.021], [78.062, 29.018], [78.057, 29.009], [78.056, 29.004], [78.058, 28.994], [78.062, 28.984], [78.061, 28.972], [78.067, 28.972], [78.071, 28.968], [78.08, 28.969], [78.086, 28.965], [78.094, 28.953], [78.104, 28.951], [78.107, 28.947], [78.114, 28.944], [78.117, 28.938], [78.117, 28.932], [78.111, 28.926], [78.106, 28.92], [78.102, 28.911], [78.106, 28.898], [78.102, 28.895], [78.099, 28.89], [78.107, 28.886], [78.114, 28.879], [78.119, 28.876], [78.126, 28.874], [78.136, 28.869], [78.145, 28.869], [78.146, 28.862], [78.15, 28.853], [78.157, 28.843], [78.155, 28.84], [78.146, 28.837], [78.144, 28.831], [78.146, 28.826], [78.141, 28.816], [78.146, 28.808], [78.144, 28.799], [78.138, 28.793], [78.14, 28.774], [78.147, 28.759], [78.145, 28.753], [78.147, 28.746], [78.144, 28.742], [78.149, 28.739], [78.151, 28.733], [78.157, 28.725], [78.155, 28.719], [78.162, 28.719], [78.165, 28.717], [78.162, 28.712], [78.168, 28.706], [78.169, 28.702], [78.174, 28.696], [78.18, 28.698], [78.185, 28.695], [78.189, 28.689], [78.189, 28.68], [78.192, 28.674], [78.194, 28.665], [78.193, 28.645], [78.186, 28.636], [78.186, 28.63], [78.19, 28.627], [78.187, 28.618], [78.192, 28.605], [78.2, 28.603], [78.203, 28.599], [78.205, 28.592], [78.206, 28.581], [78.205, 28.575], [78.2, 28.57], [78.201, 28.561], [78.203, 28.552], [78.202, 28.548], [78.205, 28.535], [78.209, 28.525], [78.206, 28.516], [78.212, 28.506], [78.219, 28.501], [78.23, 28.501], [78.234, 28.499], [78.24, 28.493], [78.24, 28.489], [78.248, 28.48], [78.254, 28.476], [78.27, 28.468], [78.281, 28.461], [78.282, 28.444], [78.281, 28.439], [78.282, 28.434], [78.287, 28.428], [78.29, 28.419], [78.292, 28.41], [78.296, 28.404], [78.292, 28.397], [78.293, 28.393], [78.285, 28.389], [78.275, 28.376], [78.277, 28.37], [78.273, 28.367], [78.27, 28.362], [78.272, 28.354], [78.276, 28.335], [78.287, 28.319], [78.291, 28.319], [78.295, 28.315], [78.304, 28.314], [78.306, 28.308], [78.31, 28.305], [78.315, 28.303], [78.313, 28.299], [78.306, 28.293], [78.303, 28.286], [78.309, 28.28], [78.312, 28.274], [78.321, 28.27], [78.326, 28.271], [78.345, 28.274], [78.354, 28.272], [78.356, 28.263], [78.361, 28.256], [78.366, 28.25], [78.366, 28.241], [78.368, 28.234], [78.372, 28.232], [78.389, 28.203], [78.391, 28.198], [78.4, 28.184], [78.401, 28.18], [78.408, 28.176], [78.413, 28.174], [78.432, 28.164], [78.434, 28.155], [78.438, 28.148], [78.444, 28.145], [78.446, 28.137], [78.452, 28.136], [78.454, 28.126], [78.46, 28.122], [78.462, 28.115], [78.472, 28.111], [78.482, 28.107], [78.491, 28.101], [78.492, 28.097], [78.501, 28.094], [78.503, 28.09], [78.509, 28.087], [78.513, 28.08], [78.511, 28.074], [78.511, 28.07], [78.515, 28.065], [78.521, 28.064], [78.528, 28.067], [78.54, 28.064], [78.541, 28.062], [78.542, 28.052], [78.546, 28.047], [78.556, 28.041], [78.564, 28.041], [78.564, 28.033], [78.569, 28.034], [78.578, 28.031], [78.581, 28.028], [78.597, 28.022], [78.601, 28.019], [78.601, 28.011], [78.602, 28.008], [78.609, 28.004], [78.611, 28.001], [78.622, 27.996], [78.624, 27.993], [78.632, 27.994], [78.639, 27.989], [78.647, 27.987], [78.652, 27.984], [78.652, 27.981], [78.658, 27.979], [78.665, 27.984], [78.678, 27.984], [78.681, 27.982], [78.687, 27.984], [78.695, 27.991], [78.707, 27.99], [78.709, 27.993], [78.716, 27.991], [78.719, 27.986], [78.727, 27.977], [78.736, 27.978], [78.743, 27.982], [78.749, 27.99], [78.765, 27.986], [78.774, 27.976], [78.788, 27.973], [78.797, 27.967], [78.801, 27.963], [78.811, 27.961], [78.818, 27.963], [78.82, 27.966], [78.833, 27.969], [78.838, 27.967], [78.836, 27.957], [78.832, 27.953], [78.833, 27.948], [78.838, 27.943], [78.844, 27.941], [78.847, 27.938], [78.856, 27.935], [78.865, 27.929], [78.88, 27.915], [78.882, 27.905], [78.881, 27.9], [78.884, 27.893], [78.88, 27.885], [78.882, 27.88], [78.893, 27.879], [78.899, 27.876], [78.902, 27.87], [78.913, 27.868], [78.918, 27.863], [78.924, 27.859], [78.93, 27.85], [78.938, 27.848], [78.949, 27.839], [78.96, 27.833], [78.97, 27.825], [78.973, 27.821], [78.979, 27.819], [78.98, 27.816], [78.986, 27.816], [78.992, 27.81], [78.997, 27.81], [79.001, 27.806], [79.011, 27.805], [79.019, 27.8], [79.028, 27.801], [79.031, 27.805], [79.043, 27.808], [79.05, 27.802], [79.057, 27.799], [79.071, 27.798], [79.078, 27.797], [79.08, 27.793], [79.085, 27.794], [79.092, 27.801], [79.098, 27.805], [79.104, 27.805], [79.12, 27.793], [79.123, 27.788], [79.134, 27.789], [79.141, 27.784], [79.156, 27.783], [79.163, 27.783], [79.17, 27.781], [79.176, 27.775], [79.178, 27.769], [79.175, 27.762], [79.178, 27.754], [79.175, 27.738], [79.178, 27.733], [79.183, 27.73], [79.191, 27.729], [79.198, 27.735], [79.208, 27.732], [79.217, 27.721], [79.224, 27.725], [79.233, 27.723], [79.241, 27.723], [79.245, 27.725], [79.255, 27.724], [79.26, 27.72], [79.263, 27.708], [79.266, 27.704], [79.283, 27.703], [79.287, 27.701], [79.296, 27.691], [79.305, 27.688], [79.309, 27.679], [79.318, 27.669], [79.323, 27.665], [79.327, 27.66], [79.327, 27.655], [79.334, 27.649], [79.337, 27.643], [79.343, 27.638], [79.354, 27.633], [79.357, 27.626], [79.355, 27.62], [79.356, 27.617], [79.362, 27.614], [79.372, 27.62], [79.379, 27.622], [79.384, 27.619], [79.386, 27.609], [79.386, 27.602], [79.391, 27.597], [79.397, 27.595], [79.401, 27.591], [79.406, 27.59], [79.415, 27.591], [79.415, 27.594], [79.412, 27.6], [79.417, 27.607], [79.425, 27.607], [79.43, 27.611], [79.436, 27.611], [79.44, 27.608], [79.447, 27.609], [79.459, 27.608], [79.464, 27.602], [79.464, 27.594], [79.458, 27.585], [79.458, 27.582], [79.462, 27.571], [79.461, 27.563], [79.464, 27.561], [79.48, 27.554], [79.487, 27.555], [79.496, 27.55], [79.504, 27.549], [79.508, 27.545], [79.514, 27.531], [79.522, 27.527], [79.53, 27.525], [79.537, 27.515], [79.543, 27.513], [79.55, 27.515], [79.555, 27.512], [79.558, 27.508], [79.558, 27.501], [79.567, 27.496], [79.573, 27.494], [79.584, 27.492], [79.587, 27.488], [79.593, 27.485], [79.603, 27.485], [79.61, 27.478], [79.611, 27.474], [79.607, 27.466], [79.609, 27.459], [79.616, 27.45], [79.62, 27.439], [79.618, 27.433], [79.619, 27.427], [79.623, 27.414], [79.623, 27.411], [79.628, 27.402], [79.635, 27.397], [79.637, 27.385], [79.643, 27.379], [79.648, 27.372], [79.655, 27.37], [79.655, 27.362], [79.651, 27.355], [79.647, 27.351], [79.65, 27.34], [79.656, 27.335], [79.656, 27.328], [79.651, 27.311], [79.652, 27.307], [79.649, 27.296], [79.651, 27.291], [79.656, 27.291], [79.661, 27.277], [79.662, 27.268], [79.665, 27.265], [79.676, 27.263], [79.683, 27.264], [79.69, 27.26], [79.691, 27.251], [79.687, 27.247], [79.688, 27.238], [79.696, 27.234], [79.698, 27.229], [79.704, 27.227], [79.726, 27.224], [79.744, 27.217], [79.765, 27.215], [79.771, 27.212], [79.775, 27.208], [79.78, 27.194], [79.787, 27.188], [79.793, 27.179], [79.799, 27.174], [79.803, 27.174], [79.808, 27.178], [79.812, 27.178], [79.821, 27.176], [79.828, 27.177], [79.834, 27.177], [79.846, 27.173], [79.857, 27.165], [79.862, 27.164], [79.866, 27.157], [79.875, 27.161], [79.879, 27.159], [79.881, 27.153], [79.885, 27.151], [79.895, 27.15], [79.903, 27.146]]]}}]}