{"type": "FeatureCollection", "_source": "Godavari river course \u2014 extracted from the GSI/Bhukosh rivers layer (rivers.geojson). Simplified.", "features": [{"type": "Feature", "properties": {"name": "Godavari River"}, "geometry": {"type": "MultiLineString", "coordinates": [[[82.263, 16.644], [82.274, 16.641], [82.281, 16.637], [82.287, 16.629], [82.29, 16.62]], [[82.263, 16.644], [82.259, 16.643], [82.253, 16.645], [82.245, 16.646], [82.241, 16.643], [82.238, 16.636], [82.235, 16.637], [82.232, 16.643], [82.226, 16.641], [82.217, 16.635], [82.21, 16.626], [82.207, 16.618], [82.197, 16.613], [82.194, 16.605], [82.191, 16.602], [82.168, 16.609], [82.162, 16.611], [82.157, 16.618], [82.157, 16.621], [82.165, 16.625], [82.166, 16.628], [82.16, 16.637], [82.16, 16.646], [82.158, 16.653], [82.162, 16.67], [82.154, 16.677], [82.136, 16.689], [82.129, 16.699], [82.128, 16.708]], [[82.263, 16.644], [82.258, 16.647], [82.256, 16.651], [82.256, 16.659], [82.262, 16.667], [82.263, 16.677], [82.262, 16.679], [82.255, 16.701], [82.256, 16.711]], [[82.128, 16.708], [82.133, 16.708], [82.142, 16.709], [82.16, 16.72], [82.174, 16.723], [82.184, 16.723], [82.19, 16.722], [82.201, 16.718], [82.232, 16.715], [82.251, 16.712], [82.256, 16.711]], [[82.256, 16.711], [82.268, 16.707], [82.284, 16.704], [82.293, 16.704], [82.299, 16.705], [82.317, 16.713], [82.322, 16.72]], [[81.799, 16.858], [81.805, 16.851], [81.816, 16.843], [81.82, 16.834], [81.824, 16.828], [81.825, 16.821], [81.824, 16.81], [81.822, 16.802], [81.824, 16.795], [81.828, 16.793], [81.841, 16.791], [81.853, 16.788], [81.86, 16.788], [81.864, 16.784], [81.869, 16.778], [81.875, 16.777], [81.881, 16.771], [81.904, 16.748], [81.909, 16.74], [81.914, 16.735], [81.923, 16.728], [81.936, 16.723], [81.941, 16.723], [81.954, 16.725], [81.964, 16.725], [81.97, 16.723], [81.98, 16.722], [81.984, 16.716], [81.987, 16.714], [81.995, 16.715], [82, 16.719], [82.003, 16.718], [82.012, 16.712], [82.019, 16.704], [82.029, 16.698], [82.043, 16.691], [82.053, 16.684], [82.063, 16.682], [82.073, 16.682], [82.077, 16.684], [82.082, 16.702], [82.086, 16.708], [82.091, 16.71], [82.099, 16.71], [82.109, 16.708], [82.116, 16.711], [82.12, 16.711], [82.128, 16.708]], [[81.761, 16.953], [81.755, 16.953], [81.752, 16.949], [81.751, 16.945], [81.745, 16.95], [81.742, 16.949], [81.735, 16.938], [81.735, 16.929], [81.733, 16.917], [81.734, 16.904], [81.74, 16.886], [81.745, 16.874], [81.758, 16.858], [81.762, 16.854], [81.763, 16.844], [81.76, 16.837], [81.764, 16.834], [81.761, 16.826], [81.757, 16.824], [81.755, 16.815], [81.756, 16.814], [81.753, 16.805], [81.757, 16.803], [81.759, 16.792], [81.756, 16.784], [81.763, 16.777], [81.765, 16.773], [81.77, 16.768], [81.783, 16.761], [81.79, 16.753], [81.795, 16.745], [81.797, 16.739], [81.796, 16.722], [81.798, 16.703], [81.802, 16.696], [81.807, 16.691], [81.811, 16.686], [81.822, 16.679], [81.839, 16.665], [81.849, 16.637], [81.859, 16.616], [81.862, 16.605], [81.869, 16.6], [81.87, 16.593], [81.87, 16.579], [81.871, 16.559], [81.87, 16.552], [81.867, 16.547], [81.862, 16.543], [81.853, 16.535], [81.854, 16.518], [81.853, 16.512], [81.849, 16.503], [81.848, 16.497], [81.839, 16.491], [81.83, 16.49], [81.82, 16.488], [81.815, 16.486], [81.807, 16.479], [81.8, 16.476], [81.794, 16.469], [81.787, 16.454], [81.784, 16.45], [81.767, 16.431], [81.757, 16.419], [81.749, 16.418], [81.743, 16.418], [81.733, 16.423], [81.729, 16.429], [81.725, 16.439], [81.721, 16.445], [81.711, 16.442], [81.704, 16.427], [81.702, 16.42], [81.702, 16.407], [81.712, 16.388], [81.721, 16.373], [81.722, 16.368], [81.723, 16.348], [81.721, 16.332], [81.713, 16.316], [81.702, 16.305]], [[81.761, 16.953], [81.76, 16.947], [81.754, 16.932], [81.755, 16.928], [81.764, 16.922], [81.764, 16.916], [81.763, 16.903], [81.765, 16.894], [81.767, 16.885], [81.773, 16.878], [81.78, 16.873], [81.789, 16.869], [81.799, 16.858]], [[81.761, 17.002], [81.764, 16.994], [81.767, 16.988], [81.767, 16.974], [81.761, 16.953]], [[81.761, 17.002], [81.781, 16.982], [81.782, 16.976], [81.782, 16.966], [81.776, 16.95], [81.777, 16.943], [81.782, 16.938], [81.785, 16.929], [81.788, 16.911], [81.787, 16.901], [81.792, 16.885], [81.793, 16.875], [81.798, 16.867], [81.799, 16.858]], [[78.614, 18.984], [78.609, 18.984]], [[78.614, 18.984], [78.638, 18.978], [78.651, 18.992], [78.656, 18.999], [78.662, 19.012], [78.672, 19.02], [78.677, 19.027], [78.692, 19.034], [78.694, 19.034]], [[78.609, 18.984], [78.625, 18.992], [78.631, 18.991]], [[78.631, 18.991], [78.629, 18.988], [78.614, 18.984]], [[78.694, 19.034], [78.691, 19.037], [78.683, 19.038], [78.679, 19.037], [78.673, 19.041], [78.668, 19.041], [78.665, 19.036], [78.655, 19.021], [78.653, 19.014], [78.645, 19], [78.641, 19], [78.633, 18.997], [78.631, 18.991]], [[78.694, 19.034], [78.7, 19.03], [78.708, 19.03], [78.72, 19.027], [78.728, 19.022], [78.73, 19.019], [78.744, 19.013], [78.756, 19.009], [78.767, 19.014], [78.771, 19.014], [78.775, 19.017], [78.784, 19.022], [78.784, 19.025], [78.788, 19.031], [78.788, 19.042], [78.79, 19.044], [78.802, 19.04], [78.812, 19.042], [78.821, 19.048], [78.825, 19.053], [78.83, 19.065], [78.837, 19.069], [78.846, 19.071], [78.862, 19.059], [78.871, 19.058], [78.877, 19.054], [78.883, 19.049], [78.891, 19.044], [78.896, 19.038], [78.902, 19.034], [78.911, 19.03], [78.914, 19.031], [78.919, 19.036], [78.922, 19.044], [78.935, 19.062], [78.947, 19.075], [78.957, 19.076], [78.964, 19.079], [78.974, 19.079], [78.985, 19.074], [78.993, 19.074], [79, 19.079], [79.008, 19.079], [79.017, 19.074], [79.023, 19.075], [79.03, 19.072], [79.035, 19.065], [79.048, 19.059], [79.051, 19.059], [79.058, 19.054], [79.067, 19.049], [79.07, 19.045], [79.08, 19.036], [79.082, 19.028], [79.089, 19.02], [79.091, 19.013], [79.09, 19.008], [79.092, 18.995], [79.095, 18.988], [79.096, 18.981], [79.104, 18.972], [79.105, 18.966], [79.103, 18.956], [79.104, 18.951], [79.111, 18.942], [79.121, 18.932], [79.132, 18.919], [79.141, 18.914], [79.147, 18.909], [79.153, 18.906], [79.16, 18.894], [79.165, 18.893], [79.17, 18.889], [79.172, 18.88], [79.184, 18.87], [79.196, 18.869], [79.205, 18.869], [79.212, 18.866], [79.219, 18.865], [79.241, 18.855], [79.248, 18.853], [79.255, 18.843], [79.263, 18.84], [79.267, 18.834], [79.278, 18.826], [79.287, 18.821], [79.297, 18.818], [79.311, 18.816], [79.315, 18.818], [79.322, 18.819], [79.328, 18.817], [79.333, 18.817], [79.339, 18.816], [79.343, 18.819], [79.354, 18.822], [79.358, 18.821], [79.364, 18.827], [79.366, 18.836], [79.374, 18.847], [79.374, 18.852], [79.378, 18.858], [79.384, 18.863], [79.389, 18.863], [79.396, 18.862], [79.401, 18.858], [79.41, 18.856], [79.414, 18.852], [79.424, 18.848], [79.431, 18.844], [79.437, 18.843], [79.444, 18.838], [79.446, 18.835], [79.457, 18.829], [79.464, 18.826], [79.472, 18.825], [79.477, 18.822], [79.478, 18.817], [79.489, 18.808], [79.494, 18.799], [79.499, 18.792], [79.508, 18.786], [79.513, 18.784], [79.526, 18.786], [79.534, 18.783], [79.541, 18.782], [79.545, 18.778], [79.551, 18.777], [79.576, 18.758], [79.588, 18.755], [79.59, 18.752], [79.602, 18.743], [79.607, 18.742], [79.612, 18.743], [79.62, 18.739], [79.627, 18.728], [79.647, 18.716], [79.653, 18.714], [79.656, 18.701], [79.662, 18.694], [79.665, 18.686], [79.669, 18.682], [79.676, 18.68], [79.68, 18.672], [79.687, 18.672], [79.694, 18.673], [79.698, 18.68], [79.705, 18.679], [79.708, 18.684], [79.718, 18.686], [79.731, 18.683], [79.744, 18.682], [79.754, 18.681], [79.758, 18.685], [79.764, 18.69], [79.765, 18.694], [79.771, 18.697], [79.783, 18.693], [79.786, 18.693], [79.791, 18.699], [79.796, 18.702], [79.81, 18.704], [79.814, 18.719], [79.819, 18.722], [79.82, 18.725], [79.826, 18.728], [79.827, 18.734], [79.824, 18.74], [79.819, 18.744], [79.819, 18.75], [79.815, 18.755], [79.814, 18.758], [79.825, 18.77], [79.834, 18.773], [79.839, 18.778], [79.841, 18.776], [79.849, 18.78], [79.849, 18.787], [79.851, 18.79], [79.852, 18.797], [79.846, 18.802], [79.841, 18.809], [79.833, 18.813], [79.828, 18.821], [79.824, 18.825], [79.824, 18.829], [79.831, 18.844], [79.831, 18.855], [79.832, 18.86], [79.839, 18.866], [79.84, 18.869], [79.845, 18.871], [79.853, 18.87], [79.855, 18.866], [79.862, 18.856], [79.863, 18.85], [79.861, 18.837], [79.866, 18.832], [79.866, 18.828], [79.869, 18.825], [79.885, 18.827], [79.891, 18.829], [79.897, 18.827], [79.911, 18.827], [79.913, 18.817], [79.925, 18.8], [79.933, 18.791], [79.946, 18.782], [79.969, 18.775], [79.976, 18.782], [79.985, 18.784], [80.006, 18.779], [80.012, 18.773], [80.014, 18.769], [80.022, 18.763], [80.022, 18.754], [80.028, 18.747], [80.034, 18.746], [80.037, 18.742], [80.044, 18.74], [80.048, 18.737], [80.049, 18.733], [80.046, 18.725], [80.047, 18.722], [80.056, 18.72], [80.066, 18.726], [80.069, 18.725], [80.072, 18.715], [80.08, 18.713], [80.085, 18.709], [80.092, 18.707], [80.094, 18.702], [80.104, 18.692], [80.109, 18.691], [80.119, 18.692], [80.127, 18.687], [80.136, 18.688], [80.146, 18.692], [80.147, 18.696], [80.153, 18.701], [80.169, 18.703], [80.174, 18.708], [80.175, 18.713], [80.18, 18.716], [80.183, 18.715], [80.191, 18.71], [80.196, 18.7], [80.203, 18.694], [80.213, 18.695], [80.221, 18.695], [80.23, 18.698], [80.241, 18.705], [80.249, 18.709], [80.253, 18.707], [80.262, 18.716], [80.267, 18.717], [80.267, 18.721], [80.272, 18.724], [80.284, 18.718], [80.29, 18.707], [80.298, 18.699], [80.303, 18.691], [80.307, 18.682], [80.315, 18.654], [80.319, 18.643], [80.323, 18.638], [80.328, 18.635], [80.331, 18.627], [80.334, 18.614], [80.337, 18.608], [80.342, 18.602], [80.347, 18.596], [80.353, 18.594], [80.361, 18.599], [80.367, 18.607], [80.372, 18.609], [80.378, 18.609], [80.386, 18.601], [80.395, 18.587], [80.398, 18.58], [80.4, 18.578], [80.403, 18.567], [80.396, 18.559], [80.373, 18.536], [80.37, 18.531], [80.365, 18.52], [80.366, 18.509], [80.367, 18.503], [80.375, 18.488], [80.379, 18.485], [80.386, 18.475], [80.392, 18.464], [80.397, 18.459], [80.405, 18.457], [80.411, 18.458], [80.418, 18.461], [80.437, 18.461], [80.444, 18.462], [80.457, 18.462], [80.464, 18.462], [80.472, 18.458], [80.473, 18.454], [80.47, 18.449], [80.467, 18.43], [80.467, 18.421], [80.466, 18.415], [80.448, 18.386], [80.448, 18.37], [80.456, 18.365], [80.463, 18.362], [80.467, 18.358], [80.469, 18.351], [80.473, 18.343], [80.471, 18.334], [80.466, 18.325], [80.466, 18.32], [80.47, 18.317], [80.478, 18.318], [80.482, 18.316], [80.486, 18.305], [80.49, 18.302], [80.489, 18.293], [80.49, 18.288], [80.494, 18.282], [80.497, 18.268], [80.502, 18.264], [80.525, 18.263], [80.532, 18.265], [80.544, 18.265], [80.55, 18.262], [80.555, 18.256], [80.557, 18.248], [80.56, 18.245], [80.576, 18.236], [80.589, 18.228], [80.6, 18.219], [80.609, 18.215], [80.614, 18.216], [80.618, 18.212], [80.618, 18.206], [80.619, 18.201], [80.625, 18.198], [80.631, 18.192], [80.639, 18.193], [80.644, 18.189], [80.644, 18.183], [80.65, 18.177], [80.655, 18.174], [80.662, 18.173], [80.668, 18.167], [80.67, 18.163], [80.679, 18.162], [80.683, 18.157], [80.68, 18.154], [80.681, 18.15], [80.687, 18.145], [80.698, 18.145], [80.709, 18.137], [80.718, 18.127], [80.719, 18.121], [80.725, 18.121], [80.728, 18.118], [80.727, 18.113], [80.727, 18.108], [80.739, 18.088], [80.744, 18.085], [80.751, 18.072], [80.76, 18.064], [80.763, 18.055], [80.76, 18.047], [80.761, 18.042], [80.777, 18.031], [80.783, 18.023], [80.793, 18.023], [80.801, 18.021], [80.803, 18.018], [80.802, 18.008], [80.808, 18.001], [80.816, 17.995], [80.841, 17.989], [80.857, 17.989], [80.863, 17.986], [80.869, 17.979], [80.879, 17.971], [80.884, 17.962], [80.886, 17.953], [80.89, 17.936], [80.891, 17.928], [80.891, 17.897], [80.887, 17.878], [80.877, 17.867], [80.875, 17.859], [80.875, 17.852], [80.879, 17.834], [80.882, 17.821], [80.882, 17.815], [80.874, 17.81], [80.868, 17.795], [80.862, 17.786], [80.862, 17.783], [80.871, 17.768], [80.878, 17.746], [80.884, 17.74], [80.89, 17.719], [80.894, 17.709], [80.895, 17.703], [80.894, 17.697], [80.888, 17.691], [80.89, 17.681], [80.879, 17.673], [80.876, 17.662], [80.877, 17.655], [80.881, 17.648], [80.895, 17.641], [80.9, 17.642], [80.913, 17.637], [80.92, 17.637], [80.927, 17.634], [80.943, 17.635], [80.954, 17.638], [80.958, 17.644], [80.969, 17.648], [80.975, 17.651], [80.991, 17.654], [80.996, 17.653], [81.006, 17.648], [81.009, 17.644], [81.008, 17.629], [81.007, 17.624], [81.006, 17.609], [81.009, 17.601], [81.013, 17.599], [81.033, 17.598], [81.041, 17.598], [81.049, 17.601], [81.06, 17.608], [81.064, 17.609], [81.081, 17.609], [81.088, 17.612], [81.099, 17.619], [81.106, 17.622], [81.112, 17.621], [81.117, 17.617], [81.124, 17.6], [81.126, 17.588], [81.13, 17.584], [81.148, 17.577], [81.172, 17.574], [81.197, 17.573], [81.211, 17.569], [81.219, 17.563], [81.23, 17.566], [81.244, 17.573], [81.255, 17.57], [81.268, 17.563], [81.276, 17.555], [81.275, 17.549], [81.281, 17.544], [81.292, 17.525], [81.292, 17.513], [81.291, 17.507], [81.3, 17.493], [81.312, 17.489], [81.32, 17.489], [81.335, 17.495], [81.351, 17.501], [81.358, 17.501], [81.373, 17.498], [81.384, 17.49], [81.389, 17.476], [81.393, 17.472], [81.409, 17.465], [81.438, 17.464], [81.447, 17.462], [81.463, 17.467], [81.474, 17.467], [81.48, 17.469], [81.493, 17.481], [81.5, 17.482], [81.511, 17.474], [81.513, 17.472], [81.517, 17.458], [81.527, 17.444], [81.537, 17.438], [81.54, 17.437], [81.559, 17.441], [81.564, 17.44], [81.577, 17.428], [81.58, 17.414], [81.584, 17.407], [81.591, 17.406], [81.596, 17.409], [81.603, 17.411], [81.609, 17.411], [81.613, 17.409], [81.615, 17.402], [81.608, 17.391], [81.606, 17.383], [81.606, 17.371], [81.61, 17.362], [81.614, 17.356], [81.614, 17.35], [81.611, 17.343], [81.615, 17.331], [81.624, 17.326], [81.639, 17.325], [81.643, 17.323], [81.654, 17.315], [81.669, 17.31], [81.677, 17.304], [81.679, 17.299], [81.679, 17.291], [81.663, 17.283], [81.659, 17.271], [81.658, 17.263], [81.655, 17.252], [81.652, 17.246], [81.641, 17.233], [81.64, 17.228], [81.64, 17.22], [81.644, 17.205], [81.648, 17.195], [81.656, 17.184], [81.664, 17.167], [81.668, 17.147], [81.67, 17.133], [81.674, 17.123], [81.682, 17.112], [81.693, 17.104], [81.704, 17.099], [81.708, 17.094], [81.72, 17.092], [81.722, 17.087], [81.724, 17.078], [81.731, 17.07], [81.733, 17.057], [81.737, 17.052], [81.74, 17.039], [81.744, 17.034], [81.762, 17.015], [81.763, 17.011], [81.761, 17.002]], [[73.524, 19.915], [73.525, 19.924], [73.531, 19.93], [73.539, 19.94], [73.538, 19.943], [73.546, 19.946], [73.551, 19.949], [73.553, 19.955], [73.558, 19.958], [73.559, 19.963], [73.57, 19.972], [73.567, 19.974], [73.57, 19.979], [73.566, 19.987], [73.561, 19.991], [73.559, 19.996], [73.561, 20.001], [73.556, 20.003], [73.565, 20.009], [73.573, 20.004], [73.578, 20.008], [73.581, 20.001], [73.585, 20.004], [73.594, 20.004], [73.598, 19.997], [73.604, 19.996], [73.605, 20.006], [73.611, 20.007], [73.613, 20.004], [73.62, 20.002], [73.627, 20.006], [73.631, 20.005], [73.639, 20], [73.643, 19.999], [73.643, 20.007], [73.649, 20.012], [73.665, 20.028], [73.673, 20.038], [73.685, 20.037], [73.688, 20.039], [73.697, 20.039], [73.706, 20.035], [73.712, 20.039], [73.717, 20.038], [73.722, 20.033], [73.724, 20.028], [73.729, 20.023], [73.737, 20.023], [73.743, 20.017], [73.752, 20.022], [73.763, 20.023], [73.769, 20.02], [73.775, 20.01], [73.779, 20.009], [73.788, 20.01], [73.792, 20.007], [73.796, 20.002], [73.806, 20.002], [73.816, 19.999], [73.816, 19.995], [73.823, 19.99], [73.838, 19.984], [73.845, 19.99], [73.853, 19.99], [73.862, 19.983], [73.868, 19.987], [73.885, 19.988], [73.893, 19.987], [73.9, 19.995], [73.904, 19.994], [73.909, 19.995], [73.917, 19.992], [73.922, 19.993], [73.924, 19.996], [73.933, 19.996], [73.937, 19.998], [73.945, 19.989], [73.944, 19.982], [73.951, 19.981], [73.951, 19.975], [73.964, 19.97], [73.969, 19.971], [73.979, 19.977], [73.981, 19.983], [73.979, 19.994], [73.983, 19.999], [73.994, 19.997], [73.996, 20.002], [74.005, 20.009], [74.004, 20.014], [73.999, 20.017], [74, 20.02], [74.011, 20.02], [74.015, 20.023], [74.017, 20.028], [74.025, 20.036], [74.028, 20.037], [74.033, 20.033], [74.039, 20.045], [74.047, 20.051], [74.053, 20.051], [74.057, 20.05], [74.059, 20.044], [74.069, 20.043], [74.07, 20.04], [74.067, 20.031], [74.068, 20.025], [74.074, 20.022], [74.087, 20.029], [74.092, 20.034], [74.099, 20.034], [74.106, 20.026], [74.117, 20.016], [74.123, 20.012], [74.13, 20.012], [74.133, 20.01], [74.138, 20.012], [74.149, 20.01], [74.149, 19.997], [74.153, 19.991], [74.161, 19.987], [74.167, 19.988], [74.174, 19.993], [74.179, 19.993], [74.189, 19.991], [74.224, 19.966], [74.233, 19.966], [74.241, 19.963], [74.257, 19.962], [74.27, 19.962], [74.277, 19.96], [74.286, 19.953], [74.294, 19.953], [74.305, 19.947], [74.318, 19.945], [74.323, 19.939], [74.326, 19.931], [74.33, 19.927], [74.336, 19.929], [74.335, 19.937], [74.34, 19.938], [74.348, 19.932], [74.353, 19.93], [74.365, 19.932], [74.379, 19.925], [74.39, 19.917], [74.392, 19.916], [74.401, 19.922], [74.404, 19.923], [74.41, 19.92], [74.412, 19.911], [74.416, 19.903], [74.415, 19.894], [74.42, 19.888], [74.431, 19.886], [74.432, 19.884], [74.433, 19.872], [74.438, 19.869], [74.442, 19.869], [74.449, 19.863], [74.454, 19.861], [74.46, 19.868], [74.468, 19.872], [74.472, 19.873], [74.482, 19.877], [74.486, 19.885], [74.49, 19.887], [74.499, 19.886], [74.514, 19.877], [74.525, 19.862], [74.527, 19.854], [74.53, 19.849], [74.544, 19.837], [74.547, 19.835], [74.556, 19.835], [74.559, 19.833], [74.56, 19.824], [74.563, 19.818], [74.564, 19.812], [74.56, 19.803], [74.561, 19.799], [74.567, 19.799], [74.584, 19.791], [74.588, 19.786], [74.592, 19.776], [74.606, 19.769], [74.613, 19.772], [74.616, 19.778], [74.624, 19.788], [74.633, 19.793], [74.637, 19.793], [74.646, 19.787], [74.652, 19.778], [74.654, 19.777], [74.668, 19.776], [74.678, 19.767], [74.689, 19.768], [74.691, 19.766], [74.69, 19.759], [74.694, 19.755], [74.698, 19.757], [74.709, 19.765], [74.718, 19.762], [74.721, 19.757], [74.727, 19.754], [74.731, 19.757], [74.733, 19.763], [74.738, 19.764], [74.743, 19.756], [74.75, 19.749], [74.755, 19.749], [74.762, 19.755], [74.765, 19.754], [74.767, 19.75], [74.766, 19.74], [74.77, 19.736], [74.781, 19.737], [74.786, 19.732], [74.786, 19.719], [74.789, 19.714], [74.797, 19.707], [74.806, 19.703], [74.812, 19.704], [74.814, 19.699], [74.81, 19.691], [74.81, 19.687], [74.819, 19.679], [74.823, 19.668], [74.828, 19.664], [74.836, 19.664], [74.839, 19.662], [74.845, 19.649], [74.848, 19.647], [74.857, 19.647], [74.866, 19.651], [74.873, 19.65], [74.883, 19.655], [74.887, 19.652], [74.885, 19.645], [74.889, 19.639], [74.901, 19.642], [74.907, 19.647], [74.915, 19.649], [74.921, 19.646], [74.926, 19.647], [74.93, 19.645], [74.929, 19.64], [74.933, 19.637], [74.941, 19.645], [74.944, 19.646], [74.954, 19.646], [74.961, 19.648], [74.965, 19.647], [74.973, 19.643], [74.983, 19.64], [74.986, 19.634], [74.998, 19.625], [75.026, 19.624], [75.035, 19.626], [75.041, 19.624], [75.04, 19.617], [75.041, 19.612], [75.045, 19.61], [75.059, 19.606], [75.077, 19.609], [75.088, 19.613], [75.095, 19.607], [75.102, 19.604], [75.113, 19.604], [75.119, 19.6], [75.132, 19.592], [75.138, 19.59], [75.149, 19.59], [75.159, 19.592], [75.171, 19.597], [75.176, 19.602], [75.178, 19.607], [75.188, 19.602], [75.194, 19.596], [75.203, 19.584], [75.209, 19.572], [75.23, 19.546], [75.243, 19.521], [75.251, 19.518], [75.278, 19.506], [75.294, 19.5], [75.322, 19.496], [75.355, 19.491], [75.373, 19.484], [75.376, 19.48], [75.382, 19.469], [75.38, 19.462], [75.384, 19.459], [75.393, 19.465], [75.405, 19.467], [75.408, 19.469], [75.416, 19.468], [75.423, 19.461], [75.431, 19.46], [75.434, 19.457], [75.433, 19.452], [75.435, 19.437], [75.442, 19.43], [75.441, 19.417], [75.444, 19.414], [75.45, 19.414], [75.455, 19.416], [75.466, 19.415], [75.472, 19.42], [75.474, 19.427], [75.477, 19.431], [75.479, 19.439], [75.484, 19.442], [75.489, 19.441], [75.495, 19.435], [75.5, 19.432], [75.507, 19.432], [75.506, 19.425], [75.513, 19.421], [75.518, 19.416], [75.516, 19.407], [75.522, 19.402], [75.533, 19.398], [75.543, 19.393], [75.551, 19.387], [75.562, 19.383], [75.576, 19.382], [75.584, 19.379], [75.59, 19.38], [75.6, 19.385], [75.603, 19.385], [75.611, 19.38], [75.623, 19.374], [75.629, 19.374], [75.638, 19.382], [75.644, 19.379], [75.649, 19.369], [75.657, 19.367], [75.67, 19.368], [75.676, 19.363], [75.676, 19.359], [75.679, 19.356], [75.687, 19.355], [75.697, 19.359], [75.702, 19.359], [75.711, 19.356], [75.716, 19.355], [75.722, 19.357], [75.739, 19.359], [75.75, 19.358], [75.753, 19.359], [75.756, 19.366], [75.761, 19.374], [75.761, 19.381], [75.757, 19.387], [75.764, 19.393], [75.785, 19.399], [75.791, 19.399], [75.817, 19.384], [75.822, 19.38], [75.83, 19.375], [75.84, 19.371], [75.854, 19.375], [75.871, 19.382], [75.883, 19.382], [75.89, 19.379], [75.905, 19.39], [75.913, 19.392], [75.923, 19.385], [75.923, 19.38], [75.917, 19.371], [75.917, 19.365], [75.915, 19.361], [75.909, 19.357], [75.906, 19.35], [75.904, 19.336], [75.906, 19.317], [75.91, 19.311], [75.919, 19.301], [75.936, 19.293], [75.945, 19.293], [75.953, 19.298], [75.966, 19.303], [75.978, 19.306], [75.987, 19.313], [75.997, 19.322], [76, 19.323], [76.01, 19.336], [76.019, 19.339], [76.024, 19.335], [76.021, 19.328], [76.021, 19.324], [76.026, 19.312], [76.026, 19.298], [76.032, 19.289], [76.042, 19.284], [76.058, 19.284], [76.068, 19.279], [76.076, 19.279], [76.084, 19.28], [76.089, 19.282], [76.091, 19.286], [76.096, 19.305], [76.103, 19.308], [76.111, 19.304], [76.113, 19.296], [76.115, 19.296], [76.124, 19.303], [76.13, 19.303], [76.132, 19.294], [76.137, 19.291], [76.142, 19.29], [76.153, 19.296], [76.158, 19.297], [76.162, 19.294], [76.16, 19.287], [76.163, 19.283], [76.172, 19.283], [76.177, 19.287], [76.181, 19.288], [76.196, 19.285], [76.202, 19.282], [76.212, 19.272], [76.214, 19.269], [76.214, 19.262], [76.225, 19.258], [76.225, 19.252], [76.221, 19.245], [76.227, 19.243], [76.238, 19.246], [76.242, 19.245], [76.246, 19.241], [76.251, 19.241], [76.255, 19.244], [76.259, 19.254], [76.265, 19.257], [76.271, 19.258], [76.277, 19.263], [76.287, 19.266], [76.297, 19.262], [76.305, 19.265], [76.313, 19.263], [76.32, 19.255], [76.327, 19.252], [76.34, 19.252], [76.344, 19.25], [76.359, 19.24], [76.364, 19.233], [76.363, 19.217], [76.362, 19.209], [76.359, 19.203], [76.35, 19.194], [76.357, 19.184], [76.358, 19.18], [76.354, 19.17], [76.355, 19.164], [76.36, 19.161], [76.36, 19.154], [76.35, 19.144], [76.343, 19.142], [76.333, 19.138], [76.329, 19.13], [76.328, 19.122], [76.319, 19.117], [76.319, 19.111], [76.324, 19.105], [76.334, 19.1], [76.349, 19.098], [76.359, 19.108], [76.364, 19.12], [76.371, 19.128], [76.375, 19.13], [76.381, 19.13], [76.388, 19.126], [76.395, 19.111], [76.401, 19.105], [76.408, 19.094], [76.418, 19.091], [76.421, 19.092], [76.424, 19.099], [76.434, 19.098], [76.439, 19.089], [76.438, 19.083], [76.434, 19.073], [76.44, 19.062], [76.447, 19.054], [76.454, 19.05], [76.463, 19.051], [76.467, 19.055], [76.469, 19.06], [76.477, 19.072], [76.482, 19.074], [76.485, 19.079], [76.484, 19.084], [76.486, 19.088], [76.494, 19.089], [76.501, 19.092], [76.506, 19.099], [76.511, 19.103], [76.522, 19.099], [76.53, 19.101], [76.537, 19.11], [76.542, 19.111], [76.544, 19.108], [76.56, 19.102], [76.564, 19.102], [76.569, 19.105], [76.574, 19.111], [76.582, 19.108], [76.589, 19.101], [76.602, 19.089], [76.607, 19.079], [76.611, 19.075], [76.617, 19.076], [76.625, 19.08], [76.635, 19.077], [76.643, 19.056], [76.645, 19.047], [76.643, 19.039], [76.636, 19.031], [76.627, 19.028], [76.624, 19.024], [76.625, 19.017], [76.632, 19.014], [76.645, 19.004], [76.659, 18.999], [76.666, 18.994], [76.674, 18.994], [76.688, 18.998], [76.697, 18.999], [76.698, 19.011], [76.701, 19.019], [76.705, 19.023], [76.712, 19.027], [76.716, 19.02], [76.737, 19.022], [76.746, 19.019], [76.747, 19.01], [76.741, 19.001], [76.739, 18.991], [76.741, 18.983], [76.745, 18.979], [76.755, 18.98], [76.761, 18.982], [76.768, 18.988], [76.777, 18.993], [76.779, 19.003], [76.781, 19.006], [76.796, 19.011], [76.798, 19.02], [76.789, 19.026], [76.787, 19.036], [76.789, 19.044], [76.789, 19.053], [76.791, 19.056], [76.803, 19.056], [76.82, 19.044], [76.825, 19.041], [76.832, 19.04], [76.835, 19.042], [76.833, 19.055], [76.838, 19.065], [76.843, 19.065], [76.855, 19.062], [76.863, 19.068], [76.869, 19.068], [76.877, 19.056], [76.88, 19.055], [76.885, 19.061], [76.891, 19.065], [76.898, 19.064], [76.901, 19.061], [76.908, 19.05], [76.913, 19.047], [76.92, 19.048], [76.928, 19.056], [76.951, 19.071], [76.97, 19.081], [76.979, 19.082], [76.98, 19.085], [76.978, 19.094], [76.981, 19.102], [76.985, 19.106], [76.991, 19.107], [77.007, 19.095], [77.013, 19.095], [77.026, 19.108], [77.032, 19.109], [77.036, 19.106], [77.042, 19.096], [77.051, 19.092], [77.056, 19.09], [77.066, 19.092], [77.07, 19.096], [77.069, 19.104], [77.063, 19.111], [77.062, 19.119], [77.068, 19.122], [77.082, 19.123], [77.096, 19.128], [77.1, 19.128], [77.105, 19.119], [77.102, 19.113], [77.101, 19.109], [77.103, 19.104], [77.103, 19.095], [77.09, 19.09], [77.088, 19.088], [77.085, 19.08], [77.086, 19.074], [77.091, 19.068], [77.101, 19.069], [77.118, 19.079], [77.123, 19.08], [77.128, 19.077], [77.13, 19.073], [77.137, 19.071], [77.142, 19.071], [77.144, 19.075], [77.155, 19.082], [77.163, 19.096], [77.163, 19.104], [77.162, 19.11], [77.162, 19.117], [77.165, 19.122], [77.17, 19.123], [77.175, 19.119], [77.178, 19.11], [77.181, 19.106], [77.188, 19.104], [77.199, 19.106], [77.216, 19.11], [77.229, 19.112], [77.258, 19.122], [77.264, 19.122], [77.275, 19.118], [77.28, 19.118], [77.283, 19.121], [77.279, 19.135], [77.279, 19.142], [77.286, 19.147], [77.299, 19.146], [77.305, 19.148], [77.31, 19.147], [77.326, 19.14], [77.333, 19.14], [77.342, 19.147], [77.354, 19.151], [77.361, 19.162], [77.373, 19.164], [77.378, 19.167], [77.402, 19.157], [77.408, 19.151], [77.408, 19.149], [77.406, 19.14], [77.408, 19.134], [77.407, 19.129], [77.397, 19.12], [77.391, 19.111], [77.386, 19.097], [77.386, 19.092], [77.389, 19.088], [77.41, 19.08], [77.418, 19.066], [77.422, 19.059], [77.434, 19.056], [77.448, 19.048], [77.461, 19.04], [77.468, 19.033], [77.473, 19.019], [77.476, 19.016], [77.483, 19.013], [77.491, 19.013], [77.503, 19.014], [77.521, 19.009], [77.53, 18.994], [77.541, 18.993], [77.551, 18.998], [77.558, 18.997], [77.563, 18.994], [77.579, 18.984], [77.586, 18.975], [77.591, 18.967], [77.591, 18.957], [77.594, 18.942], [77.599, 18.931], [77.601, 18.929], [77.61, 18.929], [77.621, 18.937], [77.627, 18.935], [77.632, 18.927], [77.639, 18.914], [77.641, 18.912], [77.651, 18.91], [77.66, 18.908], [77.662, 18.905], [77.668, 18.898], [77.676, 18.897], [77.686, 18.899], [77.691, 18.899], [77.699, 18.895], [77.704, 18.886], [77.705, 18.875], [77.714, 18.87], [77.729, 18.868], [77.739, 18.863], [77.755, 18.865], [77.773, 18.868], [77.782, 18.865], [77.802, 18.855], [77.821, 18.853], [77.837, 18.857], [77.843, 18.854], [77.846, 18.844], [77.849, 18.837], [77.862, 18.828], [77.87, 18.82], [77.874, 18.818], [77.879, 18.818], [77.898, 18.826], [77.907, 18.828], [77.913, 18.828], [77.929, 18.823], [77.941, 18.826], [77.947, 18.829], [77.948, 18.833], [77.947, 18.844], [77.95, 18.85], [77.956, 18.855], [77.96, 18.865], [77.971, 18.874], [77.985, 18.879], [78.002, 18.883], [78.014, 18.884], [78.018, 18.883], [78.027, 18.877], [78.036, 18.876], [78.038, 18.881], [78.038, 18.892], [78.039, 18.902], [78.042, 18.915], [78.049, 18.939], [78.053, 18.942], [78.059, 18.942], [78.07, 18.94], [78.087, 18.941], [78.092, 18.942], [78.097, 18.946], [78.108, 18.957], [78.115, 18.961], [78.129, 18.96], [78.138, 18.961], [78.146, 18.965], [78.15, 18.968], [78.158, 18.978], [78.164, 18.993], [78.173, 18.998], [78.186, 18.997], [78.192, 18.998], [78.202, 19.002], [78.22, 19.005], [78.232, 19.01], [78.235, 19.014], [78.243, 19.017], [78.25, 19.013], [78.261, 19.004], [78.28, 18.99], [78.31, 18.973], [78.325, 18.966], [78.335, 18.965], [78.339, 18.966], [78.349, 18.978], [78.36, 18.988], [78.375, 18.996], [78.389, 18.998], [78.397, 18.997], [78.404, 18.999], [78.41, 18.998], [78.418, 18.994], [78.42, 18.99], [78.425, 18.976], [78.431, 18.97], [78.438, 18.967], [78.452, 18.965], [78.456, 18.957], [78.458, 18.955], [78.467, 18.959], [78.47, 18.957], [78.478, 18.959], [78.483, 18.963], [78.484, 18.967], [78.492, 18.973], [78.503, 18.974], [78.507, 18.973], [78.519, 18.964], [78.522, 18.957], [78.526, 18.953], [78.537, 18.947], [78.54, 18.943], [78.548, 18.943], [78.552, 18.954], [78.552, 18.964], [78.555, 18.974], [78.559, 18.98], [78.571, 18.991], [78.578, 18.995], [78.583, 18.995], [78.587, 18.989], [78.592, 18.989], [78.595, 18.986], [78.602, 18.986], [78.609, 18.984]]]}}]}