{"type": "FeatureCollection", "_source": "Gondwana (Gond kingdom) region \u2014 namesake of the geological term. Source image: 'Gondwana Kingdom' by BharatWale, Wikimedia Commons (https://commons.wikimedia.org/wiki/File:Gondwana_Kingdom_edited.jpg), CC BY-SA 4.0. Manually traced/georeferenced by Akif Vohra (repo author) on georeference.ai, then colour-vectorised with scripts/trace-geotiff.py. This derived outline is likewise CC BY-SA 4.0. Approximate.", "features": [{"type": "Feature", "properties": {"name": "Gondwana region"}, "geometry": {"type": "Polygon", "coordinates": [[[77.216, 24.717], [77.4992, 24.0562], [77.7824, 24.0562], [77.8296, 24.2922], [78.16, 24.481], [78.2072, 23.4426], [78.4905, 23.4426], [78.6321, 23.6314], [79.0097, 23.773], [79.0097, 24.0562], [78.8209, 24.4338], [78.9153, 24.5282], [79.1041, 24.3394], [79.3873, 24.3394], [79.4345, 24.4338], [79.8121, 24.3866], [80.3785, 23.7258], [80.7562, 23.773], [80.945, 23.537], [81.9834, 23.4898], [82.9275, 23.2066], [84.8156, 22.3097], [85.5236, 21.8377], [86.3732, 21.6961], [86.798, 21.1769], [86.7508, 20.5632], [86.4204, 20.3744], [86.4204, 20.1856], [86.2316, 19.9496], [85.6652, 19.7136], [85.2404, 19.3832], [84.7683, 19.3832], [84.5323, 19.2416], [84.3907, 18.7695], [83.8715, 18.6751], [83.3995, 18.1559], [83.4467, 17.8255], [83.3523, 17.6367], [82.8331, 17.5423], [82.7859, 17.3063], [82.361, 17.3063], [82.125, 17.1175], [82.125, 16.8343], [82.2666, 16.6927], [81.653, 16.5038], [81.2282, 17.1647], [80.5674, 17.6367], [80.0953, 17.8255], [80.0953, 18.1087], [79.5289, 18.9584], [79.0569, 19.1944], [78.9625, 19.808], [79.1041, 20.044], [79.1041, 20.516], [78.6321, 20.516], [78.5377, 20.8936], [78.3488, 20.9409], [78.5377, 21.2241], [78.5377, 21.6017], [78.4433, 21.6961], [78.4905, 22.3569], [77.3576, 22.4041], [76.9328, 22.6873], [76.6024, 22.6873], [76.7912, 23.301], [76.98, 23.301], [77.0272, 23.6314], [77.2632, 23.7258], [77.1688, 24.1034], [77.216, 24.6698], [77.216, 24.717]]]}}]}