{"type": "FeatureCollection", "_source": "Basin extent traced from a Soar.earth Himalayan foreland basin raster (approximate).", "features": [{"type": "Feature", "properties": {"name": "Himalayan Foreland Basin"}, "geometry": {"type": "Polygon", "coordinates": [[[74.1157, 32.8235], [75.5908, 32.4904], [77.0184, 31.5863], [77.5894, 30.587], [78.7315, 29.778], [78.8266, 29.6829], [78.5887, 29.7304], [78.7315, 29.5877], [79.1597, 29.5401], [80.3018, 28.9215], [81.1107, 28.7787], [81.3011, 28.5884], [81.4438, 28.6836], [81.9197, 28.2077], [83.5852, 27.3512], [83.7279, 27.4464], [84.7748, 27.0657], [85.2031, 26.6374], [85.0603, 26.4946], [85.5362, 26.5422], [85.7265, 26.3043], [86.2023, 26.3043], [86.7258, 26.0188], [88.4389, 25.9236], [90.5802, 26.3995], [92.3884, 26.4946], [94.4822, 27.0657], [95.6718, 28.0174], [95.9573, 28.065], [95.9573, 27.7795], [95.4339, 26.9705], [94.9105, 26.7802], [94.3394, 26.2091], [94.1967, 26.2091], [94.3394, 26.5898], [94.1491, 26.7326], [93.9112, 26.4471], [93.0546, 26.1616], [92.8643, 26.114], [92.7691, 26.3043], [92.5788, 26.114], [91.7222, 26.0664], [90.9133, 25.5429], [90.9133, 25.1623], [91.2464, 25.0671], [91.0085, 24.8767], [91.1512, 24.7816], [90.9609, 24.6864], [91.056, 24.5912], [91.4843, 24.8292], [91.5795, 25.1147], [92.6739, 24.9243], [92.5788, 24.734], [92.7215, 24.6388], [91.7222, 24.2581], [91.7698, 23.9726], [91.5319, 23.8775], [91.6747, 23.7823], [91.6747, 22.9258], [91.3416, 22.8782], [90.6278, 22.3071], [90.1043, 22.1168], [89.6285, 22.212], [89.6761, 22.0216], [88.6292, 21.6885], [88.2485, 21.8313], [88.1058, 23.354], [87.4396, 25.3526], [87.1065, 25.4002], [86.6782, 25.0671], [86.4879, 25.2574], [85.0603, 24.5437], [84.7748, 24.6864], [84.8224, 24.9243], [84.3465, 25.1623], [83.1093, 25.4002], [81.4914, 26.0188], [80.4921, 26.0188], [79.3976, 26.5422], [79.3976, 26.7802], [79.0646, 26.9229], [79.2549, 27.0181], [79.1597, 27.1608], [77.8273, 27.8746], [78.6363, 28.2077], [75.7812, 29.1594], [74.4488, 28.9691], [72.7833, 27.827], [70.8799, 27.1608], [68.4054, 24.0202], [68.1199, 23.8299], [67.6917, 24.0202], [67.4062, 24.2581], [67.3586, 24.734], [67.8344, 24.8292], [68.3579, 25.305], [68.3579, 25.7333], [67.5489, 26.8753], [67.6441, 27.7319], [67.4537, 28.7312], [67.6917, 29.3974], [68.0723, 29.4449], [68.1675, 28.9691], [68.5482, 28.5884], [69.6427, 28.4932], [70.3564, 29.207], [70.8799, 30.1587], [71.4985, 30.587], [71.2606, 32.4428], [71.6888, 32.1573], [71.9268, 32.3952], [71.7364, 32.7283], [71.9743, 32.7759], [72.593, 32.3476], [74.0681, 32.7759], [74.1157, 32.8235]]]}}]}