{"type": "FeatureCollection", "_source": "Indus river course (full length, Ladakh -> Arabian Sea) \u2014 Natural Earth 10m rivers (public domain, naturalearthdata.com).", "features": [{"type": "Feature", "properties": {"name": "Indus"}, "geometry": {"type": "MultiLineString", "coordinates": [[[72.781668, 34.622504], [72.783214, 34.61282], [72.802257, 34.576768], [72.801524, 34.558295], [72.789154, 34.52322], [72.788666, 34.514228], [72.801524, 34.503933], [72.826264, 34.498358], [72.836681, 34.481024], [72.832449, 34.459499], [72.829519, 34.440619], [72.826671, 34.414903], [72.827891, 34.393175], [72.838634, 34.375841], [72.845307, 34.35456], [72.85019, 34.321153], [72.852468, 34.287787], [72.842459, 34.255072], [72.836681, 34.221015], [72.838796, 34.194688], [72.8331, 34.168321], [72.813731, 34.144843], [72.789154, 34.127956], [72.760671, 34.115831], [72.740001, 34.105089], [72.721446, 34.09337], [72.707042, 34.085557]]]}}, {"type": "Feature", "properties": {"name": "Indus"}, "geometry": {"type": "MultiLineString", "coordinates": [[[72.70696, 34.085517], [72.667491, 34.05919], [72.651866, 34.043524], [72.645763, 34.023261], [72.63323, 34.01378], [72.604991, 34.013373], [72.509532, 34.02265], [72.467459, 34.020453], [72.430675, 34.011298], [72.398692, 33.993191], [72.36671, 33.969346], [72.348399, 33.961005], [72.254975, 33.944403], [72.240326, 33.937934], [72.225841, 33.901231], [72.241303, 33.804796], [72.23406, 33.765977], [72.223155, 33.774237], [72.210867, 33.776475], [72.198253, 33.773505], [72.186453, 33.765977], [72.171886, 33.773057], [72.152599, 33.777289], [72.114757, 33.779649], [72.087413, 33.789903], [72.082937, 33.788153], [72.062918, 33.765977], [72.052826, 33.76085], [72.031749, 33.753974], [72.021902, 33.746161], [72.010183, 33.71601], [72.004893, 33.711371], [71.999034, 33.703437], [71.97934, 33.664496], [71.974132, 33.64997], [71.971772, 33.598212], [71.953136, 33.570502], [71.953054, 33.559882], [71.955577, 33.547146], [71.953054, 33.526435], [71.944753, 33.515652], [71.901785, 33.488552], [71.897065, 33.481635], [71.892507, 33.467963], [71.888194, 33.461249], [71.879405, 33.45185], [71.873546, 33.443468], [71.872569, 33.434516], [71.87794, 33.423407], [71.867768, 33.420844], [71.863373, 33.41531], [71.859386, 33.408759], [71.850597, 33.40351], [71.841807, 33.402167], [71.812755, 33.40351], [71.796804, 33.40001], [71.740733, 33.375556], [71.723155, 33.355251], [71.722341, 33.336127], [71.725027, 33.318671], [71.716889, 33.303575], [71.704682, 33.289618], [71.698985, 33.272528], [71.703217, 33.256537], [71.720876, 33.245876], [71.712901, 33.245876], [71.726573, 33.231147], [71.740733, 33.219428], [71.751069, 33.20539], [71.754405, 33.183783], [71.749522, 33.163438], [71.740245, 33.14997], [71.729584, 33.139716], [71.720876, 33.129177], [71.712901, 33.110867], [71.710948, 33.094306], [71.712901, 33.054063], [71.718761, 33.037177], [71.718435, 33.029405], [71.699474, 33.022813], [71.694021, 33.015082], [71.690684, 33.005968], [71.685476, 32.998847], [71.649343, 32.978624], [71.611095, 32.964057], [71.599539, 32.961859], [71.572765, 32.960639], [71.549408, 32.954169], [71.551687, 32.955593], [71.541921, 32.952948], [71.533783, 32.949083], [71.526947, 32.943386], [71.512706, 32.920193], [71.506765, 32.914822], [71.498139, 32.910712], [71.461925, 32.897976], [71.448009, 32.887274], [71.437511, 32.868964], [71.430268, 32.842556], [71.426036, 32.83454], [71.409109, 32.816433], [71.40504, 32.808946], [71.403087, 32.790107], [71.412852, 32.753119], [71.414073, 32.734402], [71.411713, 32.725653], [71.407725, 32.718777], [71.402436, 32.713324], [71.396088, 32.709011], [71.364187, 32.695014], [71.354503, 32.68891], [71.340587, 32.673692], [71.331472, 32.656073], [71.325857, 32.636786], [71.322765, 32.616482], [71.323416, 32.593573], [71.329682, 32.574286], [71.348074, 32.535264], [71.350841, 32.52501], [71.346609, 32.432318], [71.340587, 32.415107], [71.331472, 32.399278], [71.293875, 32.356147], [71.283376, 32.339911], [71.278738, 32.322333], [71.278331, 32.302029], [71.276459, 32.292589], [71.271902, 32.282823], [71.251964, 32.254503], [71.247162, 32.243516], [71.236501, 32.20185], [71.22877, 32.181749], [71.215587, 32.165473], [71.206716, 32.159695], [71.177664, 32.147162], [71.167898, 32.140815], [71.132091, 32.105821], [71.123464, 32.094062], [71.117198, 32.081122], [71.114675, 32.066514], [71.11435, 32.047471], [71.112315, 32.039008], [71.106944, 32.030544], [71.070242, 31.999091], [71.054698, 31.982204], [71.036876, 31.940212], [71.023041, 31.925849], [71.007335, 31.912909], [70.992768, 31.897895], [70.983409, 31.879259], [70.973888, 31.83869], [70.966807, 31.818915], [70.923595, 31.744452], [70.905772, 31.721462], [70.899343, 31.709581], [70.899343, 31.695136], [70.904226, 31.678819], [70.904714, 31.672919], [70.903331, 31.663682], [70.826752, 31.489447], [70.801036, 31.453681], [70.795421, 31.440945], [70.791433, 31.426337], [70.788178, 31.379665], [70.767507, 31.263983], [70.768077, 31.249823], [70.771495, 31.235948], [70.781668, 31.209296], [70.784434, 31.195136], [70.788829, 31.138251], [70.793386, 31.125434], [70.814057, 31.09162], [70.818614, 31.078152], [70.835867, 30.977607], [70.835216, 30.948269], [70.829031, 30.919867], [70.819347, 30.883857], [70.814708, 30.872667], [70.796886, 30.846747], [70.765554, 30.813056], [70.757253, 30.801703], [70.75172, 30.789008], [70.750011, 30.774441], [70.751231, 30.766425], [70.759939, 30.74433], [70.762136, 30.736843], [70.765717, 30.695095], [70.771414, 30.677314], [70.780772, 30.661322], [70.814464, 30.625434], [70.830333, 30.599433], [70.841726, 30.57099], [70.848074, 30.542019], [70.849701, 30.522325], [70.84905, 30.502997], [70.84547, 30.484076], [70.835541, 30.456977], [70.829845, 30.416571], [70.815196, 30.363959], [70.811046, 30.356147], [70.805186, 30.349718], [70.785085, 30.33747], [70.779552, 30.331366], [70.774018, 30.315863], [70.775076, 30.298448], [70.780528, 30.28144], [70.80185, 30.237657], [70.812266, 30.225653], [70.815929, 30.219509], [70.817312, 30.210517], [70.816417, 30.20246], [70.805431, 30.171007], [70.803722, 30.162299], [70.80185, 30.109442], [70.806163, 30.093533], [70.835053, 30.053412], [70.838878, 30.018378], [70.834239, 29.946885], [70.83546, 29.938666], [70.843272, 29.916571], [70.844737, 29.908026], [70.844168, 29.89997], [70.830007, 29.854763], [70.823741, 29.841417], [70.812999, 29.829413], [70.805431, 29.824978], [70.788503, 29.819119], [70.780772, 29.814521], [70.775076, 29.808905], [70.770763, 29.802436], [70.76767, 29.795274], [70.763194, 29.771674], [70.760509, 29.765001], [70.755056, 29.758124], [70.728282, 29.732123], [70.701182, 29.696641], [70.689138, 29.686143], [70.668956, 29.673367], [70.663097, 29.66828], [70.658702, 29.661241], [70.653412, 29.637274], [70.635346, 29.600653], [70.6338, 29.591986], [70.633556, 29.582465], [70.635753, 29.564073], [70.644542, 29.545966], [70.659434, 29.53738], [70.676768, 29.531358], [70.692882, 29.521186], [70.700287, 29.506049], [70.702159, 29.486151], [70.700206, 29.448188], [70.701182, 29.438422], [70.704112, 29.431098], [70.714692, 29.416612], [70.718842, 29.40823], [70.720307, 29.399604], [70.719249, 29.390733], [70.716319, 29.381456], [70.708751, 29.366645], [70.680593, 29.32453], [70.67628, 29.307644], [70.675385, 29.272406], [70.67213, 29.254706], [70.668712, 29.248074], [70.659434, 29.236436], [70.648204, 29.215115], [70.649343, 29.187283], [70.651947, 29.173896], [70.661632, 29.14822], [70.667898, 29.123603], [70.667898, 29.083808], [70.665294, 29.070624], [70.660167, 29.058783], [70.652192, 29.049669], [70.641856, 29.043809], [70.630382, 29.040351], [70.59075, 29.033637], [70.577566, 29.029649], [70.565033, 29.023261], [70.555268, 29.015408], [70.525971, 28.975898], [70.476003, 28.922675], [70.466075, 28.916124], [70.436534, 28.911566], [70.404063, 28.915595], [70.373627, 28.914618], [70.350108, 28.895128], [70.34547, 28.883409], [70.339122, 28.858954], [70.333914, 28.84752], [70.326264, 28.837958], [70.276378, 28.792507], [70.252371, 28.777615], [70.156749, 28.745429], [70.144135, 28.738959], [70.132742, 28.728949], [70.107351, 28.69241], [70.095795, 28.682644], [70.054698, 28.666612], [70.043061, 28.659247], [70.037364, 28.650255], [70.035574, 28.639268], [70.03655, 28.625922], [70.028575, 28.597927], [70.003022, 28.586737], [69.940929, 28.581651], [69.926768, 28.576972], [69.91505, 28.569525], [69.893565, 28.550116], [69.882498, 28.542263], [69.871186, 28.538438], [69.82366, 28.533515], [69.801768, 28.528428], [69.781016, 28.520453], [69.762218, 28.509101], [69.752533, 28.499864], [69.746349, 28.489773], [69.724701, 28.416083], [69.716563, 28.40119], [69.708263, 28.391872], [69.678315, 28.37462], [69.6692, 28.366034], [69.66269, 28.355496], [69.652599, 28.332384], [69.64503, 28.320624], [69.585378, 28.258612], [69.573334, 28.250271], [69.561127, 28.245673], [69.535737, 28.239691], [69.523529, 28.234971], [69.500011, 28.220811], [69.487804, 28.21601], [69.473888, 28.215399], [69.432709, 28.231879], [69.419526, 28.232449], [69.410574, 28.225775], [69.405691, 28.214179], [69.400483, 28.189643], [69.395763, 28.176052], [69.388764, 28.16295], [69.378998, 28.152371], [69.365896, 28.146308], [69.338308, 28.150458], [69.312022, 28.164008], [69.288097, 28.169745], [69.2671, 28.150702], [69.259369, 28.138129], [69.25058, 28.12934], [69.23935, 28.124091], [69.224376, 28.121934], [69.194835, 28.121894], [69.180756, 28.11876], [69.1692, 28.110175], [69.162852, 28.098497], [69.153331, 28.073432], [69.144786, 28.062812], [69.131358, 28.056179], [69.116954, 28.054999], [69.074311, 28.064276], [69.06129, 28.065619], [69.048432, 28.065131], [69.034923, 28.06269], [69.036225, 28.034939], [69.035574, 28.030585], [69.026134, 28.001776], [69.021902, 27.992499], [69.016124, 27.984076], [68.998953, 27.972113], [68.980886, 27.970974], [68.932872, 27.985907], [68.927826, 27.986518], [68.922537, 27.98432], [68.918712, 27.979682], [68.917491, 27.974229], [68.918224, 27.968451], [68.920421, 27.962917], [68.926768, 27.952989], [68.942963, 27.936143], [68.949636, 27.926296], [68.953624, 27.915229], [68.955089, 27.903754], [68.953543, 27.880439], [68.949962, 27.868272], [68.943126, 27.86164], [68.933197, 27.858588], [68.895112, 27.853705], [68.882742, 27.849433], [68.87322, 27.842597], [68.870372, 27.837917], [68.862641, 27.820014], [68.860932, 27.813585], [68.860769, 27.807563], [68.863048, 27.794989], [68.87794, 27.782538], [68.884044, 27.782416], [68.890717, 27.780219], [68.896088, 27.77615], [68.898204, 27.770535], [68.917898, 27.766425], [68.940684, 27.758653], [68.955577, 27.745876], [68.951752, 27.726426], [68.932628, 27.710273], [68.882091, 27.691474], [68.835867, 27.667996], [68.813406, 27.663113], [68.791026, 27.666938], [68.768891, 27.680732], [68.749929, 27.699734], [68.734386, 27.721706], [68.717052, 27.766872], [68.699229, 27.784857], [68.676524, 27.790351], [68.65797, 27.781684], [68.65211, 27.757188], [68.655284, 27.732733], [68.653738, 27.721137], [68.646576, 27.711046], [68.635671, 27.705268], [68.623057, 27.703192], [68.609955, 27.703803], [68.575857, 27.710069], [68.565522, 27.70954], [68.554698, 27.705512], [68.542572, 27.696397], [68.522065, 27.674262], [68.510671, 27.66474], [68.48878, 27.662462], [68.468191, 27.672187], [68.449718, 27.676581], [68.433849, 27.658026], [68.424327, 27.635443], [68.416596, 27.627387], [68.404552, 27.623603], [68.37794, 27.624538], [68.365164, 27.623399], [68.352794, 27.617743], [68.344737, 27.609646], [68.332612, 27.590155], [68.325287, 27.581366], [68.29835, 27.56448], [68.291108, 27.556912], [68.289236, 27.534613], [68.326182, 27.499294], [68.331472, 27.477647], [68.324962, 27.464789], [68.305675, 27.442328], [68.29835, 27.429796], [68.296967, 27.418769], [68.300873, 27.409532], [68.315684, 27.393622], [68.326671, 27.374132], [68.316987, 27.364081], [68.296641, 27.361151], [68.274832, 27.362738], [68.247081, 27.368354], [68.232921, 27.369656], [68.219249, 27.367865], [68.20989, 27.363105], [68.15325, 27.300727], [68.146495, 27.27912], [68.162201, 27.259792], [68.19752, 27.244818], [68.205496, 27.235948], [68.206716, 27.224677], [68.201671, 27.214871], [68.192393, 27.207221], [68.182384, 27.202257], [68.161388, 27.200548], [68.134288, 27.201524], [68.108979, 27.198757], [68.094168, 27.185858], [68.094249, 27.175727], [68.099213, 27.165473], [68.111746, 27.147162], [68.117768, 27.133979], [68.120697, 27.120632], [68.119558, 27.107245], [68.113292, 27.094102], [68.074474, 27.053412], [68.051036, 27.021918], [68.040945, 27.013373], [68.000011, 26.991563], [67.976085, 26.969672], [67.966726, 26.964423], [67.955333, 26.962348], [67.943858, 26.963731], [67.92213, 26.972032], [67.913015, 26.965644], [67.908702, 26.957058], [67.908132, 26.947089], [67.917003, 26.914374], [67.917084, 26.90294], [67.914236, 26.891181], [67.904714, 26.867051], [67.901785, 26.861762], [67.894623, 26.852078], [67.892589, 26.846544], [67.891694, 26.83279], [67.902599, 26.794135], [67.905284, 26.768256], [67.904714, 26.742051], [67.902436, 26.717393], [67.900645, 26.711127], [67.890554, 26.694363], [67.884939, 26.681952], [67.881358, 26.669867], [67.879405, 26.657335], [67.878998, 26.643826], [67.88087, 26.63349], [67.884858, 26.624538], [67.891124, 26.616523], [67.911225, 26.598253], [67.920421, 26.586778], [67.926036, 26.573676], [67.927338, 26.557929], [67.922862, 26.537177], [67.922374, 26.530056], [67.924734, 26.505723], [67.927013, 26.498969], [67.919526, 26.471706], [67.918712, 26.46129], [67.91684, 26.451443], [67.913503, 26.442003], [67.908295, 26.432929], [67.88974, 26.410468], [67.886322, 26.401801], [67.889903, 26.385688], [67.917084, 26.358222], [67.927419, 26.34394], [67.931895, 26.325548], [67.9345, 26.287218], [67.939057, 26.26907], [67.952566, 26.255194], [67.972341, 26.24962], [67.993744, 26.246121], [68.012136, 26.238145], [68.018565, 26.230902], [68.02239, 26.222683], [68.02825, 26.204861], [68.033214, 26.19656], [68.039968, 26.190741], [68.047944, 26.186713], [68.094168, 26.174587], [68.110362, 26.166327], [68.124115, 26.152371], [68.128998, 26.143744], [68.132091, 26.134711], [68.133393, 26.125271], [68.133311, 26.115424], [68.127208, 26.088324], [68.127208, 26.079291], [68.13616, 26.062079], [68.153331, 26.047146], [68.207286, 26.012519], [68.221446, 25.999823], [68.233002, 25.98489], [68.241954, 25.966173], [68.252533, 25.932644], [68.259939, 25.916693], [68.271088, 25.903266], [68.28655, 25.893378], [68.318451, 25.878241], [68.331554, 25.865505], [68.341401, 25.852891], [68.347097, 25.847846], [68.35434, 25.843573], [68.38323, 25.832587], [68.391368, 25.82685], [68.397716, 25.809597], [68.385753, 25.795274], [68.365815, 25.784288], [68.349132, 25.777289], [68.331391, 25.765815], [68.321869, 25.750515], [68.322683, 25.732937], [68.33489, 25.714789], [68.353445, 25.702908], [68.396495, 25.689276], [68.41627, 25.678656], [68.426362, 25.661241], [68.416108, 25.646837], [68.39739, 25.633979], [68.382335, 25.621161], [68.378835, 25.603461], [68.393972, 25.567816], [68.39267, 25.54918], [68.380382, 25.535346], [68.362397, 25.527045], [68.343191, 25.520779], [68.325857, 25.512885], [68.314464, 25.498806], [68.315033, 25.48371], [68.327891, 25.451036], [68.326264, 25.435411], [68.310639, 25.409288], [68.309825, 25.395331], [68.315522, 25.385281], [68.332042, 25.371609], [68.339447, 25.363593], [68.344168, 25.352851], [68.349132, 25.279324], [68.347179, 25.272081], [68.343516, 25.265977], [68.332774, 25.25495], [68.313569, 25.241482], [68.30836, 25.236029], [68.304291, 25.228054], [68.301768, 25.218329], [68.301199, 25.208319], [68.302745, 25.19953], [68.311615, 25.188178], [68.355561, 25.16474], [68.360769, 25.160264], [68.365896, 25.154812], [68.369884, 25.148464], [68.370535, 25.141791], [68.366222, 25.134833], [68.358002, 25.131619], [68.348643, 25.130968], [68.32252, 25.134955], [68.306651, 25.135606], [68.294688, 25.129096], [68.28948, 25.110622], [68.288666, 25.10102], [68.287039, 25.093126], [68.283702, 25.085801], [68.272553, 25.070014], [68.268565, 25.06212], [68.266368, 25.053656], [68.266531, 25.044053], [68.273448, 25.00963], [68.273692, 24.992743], [68.2671, 24.976345], [68.260834, 24.969265], [68.253347, 24.964545], [68.245128, 24.963731], [68.237071, 24.968207], [68.231212, 24.976426], [68.222585, 24.995225], [68.215424, 25.002631], [68.197765, 25.006374], [68.180593, 24.998236], [68.165457, 24.98432], [68.142589, 24.956488], [68.134776, 24.941474], [68.132253, 24.925238], [68.136811, 24.907416], [68.144135, 24.895209], [68.146495, 24.888861], [68.145518, 24.881619], [68.140636, 24.874091], [68.133067, 24.869005], [68.123953, 24.866278], [68.115001, 24.86579], [68.078705, 24.875922], [68.060639, 24.877305], [68.044037, 24.868354], [68.037527, 24.853461], [68.042247, 24.839138], [68.050222, 24.824734], [68.053315, 24.809516], [68.047455, 24.790717], [68.036062, 24.77497], [68.009207, 24.746161], [68.001069, 24.732245], [67.986827, 24.687567], [67.970307, 24.656317], [67.968761, 24.64114], [67.978445, 24.625067], [68.003998, 24.601142], [68.010509, 24.587348], [68.006765, 24.569892], [68.002045, 24.562323], [67.996593, 24.555976], [67.990245, 24.550727], [67.966889, 24.53852], [67.960948, 24.532823], [67.957937, 24.524482], [67.958263, 24.516547], [67.967377, 24.494167], [67.97169, 24.479438], [67.974132, 24.464301], [67.974213, 24.45657], [67.973074, 24.44953], [67.970307, 24.442898], [67.966319, 24.436306], [67.956716, 24.43122], [67.943858, 24.432196], [67.920095, 24.436713], [67.915294, 24.435248], [67.900645, 24.427069], [67.877208, 24.420681], [67.858897, 24.418809], [67.849539, 24.416612], [67.843354, 24.411892], [67.842052, 24.403388], [67.846202, 24.396104], [67.858653, 24.383857], [67.863536, 24.375841], [67.867931, 24.366034], [67.870535, 24.35578], [67.870046, 24.346462], [67.854747, 24.333319], [67.830333, 24.339138], [67.805431, 24.348456], [67.788097, 24.3463], [67.784679, 24.336046], [67.78769, 24.325019], [67.794363, 24.314724], [67.801524, 24.306667], [67.819021, 24.29267], [67.826101, 24.284857], [67.830333, 24.273871], [67.8296, 24.263536], [67.824799, 24.255194], [67.816824, 24.2508], [67.80657, 24.252387], [67.788097, 24.266547], [67.778087, 24.271308], [67.766531, 24.269314], [67.758067, 24.261013], [67.755626, 24.250271], [67.756358, 24.227159], [67.753184, 24.20539], [67.749929, 24.19477], [67.745209, 24.185085], [67.737804, 24.17414], [67.729747, 24.166571], [67.719819, 24.163682], [67.707042, 24.166612], [67.687022, 24.174872], [67.676768, 24.175605], [67.666026, 24.171576], [67.659679, 24.166124], [67.65504, 24.159125], [67.652273, 24.15115], [67.651296, 24.14289], [67.653331, 24.132839], [67.661632, 24.114447], [67.663585, 24.106431]], [[79.437266, 32.738105], [79.422374, 32.752712], [79.399343, 32.792751], [79.356944, 32.850694], [79.336436, 32.860419], [79.327403, 32.868476], [79.317882, 32.908271], [79.308604, 32.928168], [79.289236, 32.936794], [79.284272, 32.94005], [79.273692, 32.954617], [79.268891, 32.957831], [79.224376, 32.970893], [79.181895, 32.989325], [79.152354, 33.015408], [79.100841, 33.080756], [78.955333, 33.201239], [78.935802, 33.211127], [78.924083, 33.212836], [78.91505, 33.210395], [78.906993, 33.206732], [78.898529, 33.204901], [78.797781, 33.153103], [78.78655, 33.14997], [78.771902, 33.149685], [78.760834, 33.152289], [78.734386, 33.163275], [78.710948, 33.165351], [78.592377, 33.207872], [78.576671, 33.211127], [78.570567, 33.216498], [78.559093, 33.240424], [78.548757, 33.245876], [78.538259, 33.247585], [78.511241, 33.259548], [78.433523, 33.282416], [78.406261, 33.299425], [78.366303, 33.344062], [78.353038, 33.354682], [78.335867, 33.360297], [78.3095, 33.361925], [78.291026, 33.365505], [78.276541, 33.374294], [78.25172, 33.396674], [78.195811, 33.432888], [78.162608, 33.461859], [78.152273, 33.46894], [78.149099, 33.479844], [78.158376, 33.525336], [78.157807, 33.54796], [78.149832, 33.566514], [78.131358, 33.574246], [78.100841, 33.577826], [78.092459, 33.588406], [78.090831, 33.605536], [78.079845, 33.628852], [78.066987, 33.638129], [78.022472, 33.659451], [78.007823, 33.663601], [77.996511, 33.673936], [77.958751, 33.722846], [77.942556, 33.738715], [77.884207, 33.769151], [77.870372, 33.773464], [77.858409, 33.780382], [77.733897, 33.921983], [77.660411, 34.029324], [77.593272, 34.088162], [77.556163, 34.113471], [77.53419, 34.124538], [77.5053, 34.131212], [77.497569, 34.135077], [77.488862, 34.136908], [77.466563, 34.130439], [77.433604, 34.128485], [77.421316, 34.129096], [77.339366, 34.160183], [77.333751, 34.1824], [77.319591, 34.196153], [77.299571, 34.202989], [77.277354, 34.20421], [77.272716, 34.202012], [77.269135, 34.193386], [77.263682, 34.191189], [77.257091, 34.19184], [77.252208, 34.193915], [77.248057, 34.196234], [77.23349, 34.20128], [77.217052, 34.209906], [77.196788, 34.212958], [77.184093, 34.216498], [77.172862, 34.221991], [77.167979, 34.229031], [77.164073, 34.237372], [77.154714, 34.23725], [77.143484, 34.233913], [77.133881, 34.232123], [77.112722, 34.237576], [77.07073, 34.255561], [77.043386, 34.26199], [77.036143, 34.268866], [77.032481, 34.278835], [77.031505, 34.290798], [76.990001, 34.307888], [76.904307, 34.307888], [76.887706, 34.311143], [76.842784, 34.330349], [76.788585, 34.37169], [76.772716, 34.389512], [76.770274, 34.403428], [76.737722, 34.424262], [76.694021, 34.44123], [76.6845, 34.447821], [76.625092, 34.518826], [76.611827, 34.54267], [76.600108, 34.554267], [76.584402, 34.5633], [76.538097, 34.574774], [76.523448, 34.582628], [76.490245, 34.608913], [76.449474, 34.631415], [76.435069, 34.636827], [76.387462, 34.64411], [76.372976, 34.649848], [76.372976, 34.643622], [76.334239, 34.657986], [76.316824, 34.667792], [76.300873, 34.680854], [76.242686, 34.746039], [76.234386, 34.752305], [76.220876, 34.760321], [76.215343, 34.766547], [76.210378, 34.777371], [76.203217, 34.802558], [76.189871, 34.829901], [76.190359, 34.853054], [76.195404, 34.87519], [76.201671, 34.890692], [76.206391, 34.897081], [76.218028, 34.908515], [76.222748, 34.917344], [76.224864, 34.931423], [76.221934, 34.941026], [76.217459, 34.948188], [76.215343, 34.954901], [76.210216, 34.95893], [76.185802, 34.965115], [76.177745, 34.968858], [76.15032, 34.989285], [76.12322, 35.016384], [76.075613, 35.051134], [76.06129, 35.066474], [76.052664, 35.072577], [76.041108, 35.075019], [76.038259, 35.077012], [76.03655, 35.087592], [76.034272, 35.092393], [76.027436, 35.096055], [76.011241, 35.09455], [76.003673, 35.096137], [75.957449, 35.148261], [75.945323, 35.157009], [75.921641, 35.165554], [75.914968, 35.185614], [75.915619, 35.208564], [75.914236, 35.225857], [75.90797, 35.234442], [75.90089, 35.238471], [75.893565, 35.241278], [75.886974, 35.246365], [75.882498, 35.254259], [75.874604, 35.275946], [75.859386, 35.303046], [75.85377, 35.324042], [75.843272, 35.341376], [75.817963, 35.349392], [75.79713, 35.34337], [75.768077, 35.31448], [75.746349, 35.307807], [75.726492, 35.308051], [75.721283, 35.311062], [75.712169, 35.318386], [75.699962, 35.322862], [75.689138, 35.319159], [75.67864, 35.312323], [75.667247, 35.307807], [75.635916, 35.314154], [75.486095, 35.415595], [75.46933, 35.431098], [75.462413, 35.448065], [75.451752, 35.46015], [75.427175, 35.471137], [75.399506, 35.476671], [75.379812, 35.472276], [75.362804, 35.485907], [75.352468, 35.505316], [75.347097, 35.527859], [75.345714, 35.551093], [75.339366, 35.575303], [75.323253, 35.585639], [75.105479, 35.602607], [75.085948, 35.601752], [75.080007, 35.603583], [75.07073, 35.609442], [75.061534, 35.618842], [75.055756, 35.627875], [75.048269, 35.63463], [75.033214, 35.637315], [74.989268, 35.640082], [74.967296, 35.644314], [74.948334, 35.650987], [74.938569, 35.657172], [74.920502, 35.678331], [74.88974, 35.701931], [74.872488, 35.711737], [74.850108, 35.716864], [74.772716, 35.717963], [74.76295, 35.719306], [74.745209, 35.724148], [74.739757, 35.728339], [74.742442, 35.749701], [74.747488, 35.768663], [74.747081, 35.777167], [74.72462, 35.785997], [74.722911, 35.798285], [74.728608, 35.822333], [74.726573, 35.836371], [74.72462, 35.841579], [74.656749, 35.842841], [74.638927, 35.836371], [74.630463, 35.820868], [74.629161, 35.802436], [74.632498, 35.786933], [74.639171, 35.777371], [74.64503, 35.77558], [74.648204, 35.772895], [74.646902, 35.760281], [74.641205, 35.759467], [74.629487, 35.749538], [74.621674, 35.737901], [74.629161, 35.732367], [74.635183, 35.728705], [74.644054, 35.720079], [74.650483, 35.710028], [74.649913, 35.701931], [74.611339, 35.671495], [74.609467, 35.660509], [74.611339, 35.649522], [74.624278, 35.620144], [74.628673, 35.613715], [74.631602, 35.606228], [74.632498, 35.527452], [74.607188, 35.495795], [74.564708, 35.483669], [74.516694, 35.478135], [74.474864, 35.466091], [74.459565, 35.453559], [74.443614, 35.437445], [74.42571, 35.423529], [74.403575, 35.41767], [74.317882, 35.41767], [74.27003, 35.427558], [74.246674, 35.426703], [74.207042, 35.404893], [74.183442, 35.402655], [74.15919, 35.405341], [74.139659, 35.410834], [74.129324, 35.417182], [74.10906, 35.433539], [74.098155, 35.438178], [74.087576, 35.437852], [74.046886, 35.431342], [74.029796, 35.434272], [73.967784, 35.458604], [73.923106, 35.489691], [73.910818, 35.494086], [73.862315, 35.492743], [73.836925, 35.49726], [73.756114, 35.527452], [73.627208, 35.543484], [73.563569, 35.542304], [73.502371, 35.534369], [73.463145, 35.558132], [73.439952, 35.562201], [73.395925, 35.543524], [73.344005, 35.548936], [73.323416, 35.548041], [73.312429, 35.541571], [73.307709, 35.533515], [73.303722, 35.513251], [73.304128, 35.512071], [73.29835, 35.486274], [73.296886, 35.482856], [73.294688, 35.473944], [73.285411, 35.453437], [73.283214, 35.44123], [73.280284, 35.434841], [73.266694, 35.414171], [73.262706, 35.403998], [73.262706, 35.343126], [73.260183, 35.337429], [73.251069, 35.324978], [73.249034, 35.318386], [73.258556, 35.306586], [73.276134, 35.298163], [73.285411, 35.285224], [73.26946, 35.260037], [73.250662, 35.248725], [73.201915, 35.233262], [73.118663, 35.184882], [73.053233, 35.126532], [73.038829, 35.116523], [73.003998, 35.099066], [72.988292, 35.08869], [72.950857, 35.050727], [72.927989, 35.034939], [72.90919, 35.037787], [72.899506, 35.042507], [72.892019, 35.036973], [72.887136, 35.026679], [72.885265, 35.016669], [72.888113, 35.008979], [72.893891, 35.00198], [72.898855, 34.992784], [72.898936, 34.978827], [72.891368, 34.961859], [72.869395, 34.929023], [72.864838, 34.906806], [72.872325, 34.892035], [72.890636, 34.884711], [72.933604, 34.87641], [72.969168, 34.856553], [72.986339, 34.840115], [72.98463, 34.824897], [72.975597, 34.821885], [72.962901, 34.82038], [72.951671, 34.817694], [72.946788, 34.81155], [72.943777, 34.806586], [72.927175, 34.787543], [72.919444, 34.780829], [72.888113, 34.771511], [72.854747, 34.769314], [72.824474, 34.76081], [72.802745, 34.732449], [72.80071, 34.717231], [72.809581, 34.674099], [72.804861, 34.657172], [72.785411, 34.637478], [72.781668, 34.622504]], [[79.73463, 32.443915], [79.719656, 32.45246], [79.67628, 32.511583], [79.461518, 32.707384], [79.429779, 32.744981]], [[67.663585, 24.106431], [67.661388, 24.1081]], [[67.663585, 24.106431], [67.664073, 24.104763], [67.658132, 24.083808], [67.63974, 24.070828], [67.616466, 24.065212], [67.573171, 24.068549], [67.552338, 24.066596], [67.532319, 24.060492]], [[67.71339, 24.066433], [67.701915, 24.078559], [67.663585, 24.106431]], [[67.71339, 24.066433], [67.723725, 24.062934], [67.737885, 24.056952], [67.753673, 24.054145], [67.760183, 24.052843]], [[67.925873, 23.982449], [67.9428, 23.986518], [67.95574, 23.994493], [67.954845, 24.004421], [67.945079, 24.017361], [67.932628, 24.045518], [67.924246, 24.055976], [67.911143, 24.063096], [67.868907, 24.076443], [67.853526, 24.075466], [67.828298, 24.065294], [67.811127, 24.062771], [67.794688, 24.06623], [67.777924, 24.071641], [67.764903, 24.071845], [67.759695, 24.059353], [67.7671, 24.023017], [67.786713, 24.002956], [67.815196, 23.994737], [67.883311, 23.993964], [67.900645, 23.990912], [67.913992, 23.983954], [67.925548, 23.982367], [67.925873, 23.982449]], [[67.925873, 23.982449], [67.926768, 23.984931]], [[68.024506, 23.933661], [68.022065, 23.949327], [68.016368, 23.968085], [68.016612, 23.978949], [68.02003, 23.994574], [68.018891, 24.001492], [68.013927, 24.00963], [68.007091, 24.015937], [67.999278, 24.018744], [67.990733, 24.018581], [67.981456, 24.015937], [67.973155, 24.010932], [67.966726, 24.005235], [67.956391, 23.999457]], [[67.65089, 23.93122], [67.668712, 23.943712], [67.707612, 23.947455], [67.725515, 23.953559], [67.731375, 23.965155], [67.728933, 23.980333], [67.722667, 23.997382], [67.719249, 24.015001], [67.719819, 24.049994], [67.71339, 24.066433]], [[67.857514, 23.909491], [67.857514, 23.915351], [67.86085, 23.9324], [67.862722, 23.938015], [67.868175, 23.944525], [67.875662, 23.949083], [67.884044, 23.952175], [67.910167, 23.957709], [67.915538, 23.960883], [67.919526, 23.965115], [67.925873, 23.982449]]]}}]}