{"type": "FeatureCollection", "_source": "Cauvery river course \u2014 extracted from the GSI/Bhukosh rivers layer (rivers.geojson). Simplified.", "features": [{"type": "Feature", "properties": {"name": "Kaveri"}, "geometry": {"type": "MultiLineString", "coordinates": [[[79.02, 10.871], [79.029, 10.874], [79.035, 10.873]], [[79.043, 10.872], [79.045, 10.874], [79.053, 10.871], [79.06, 10.874], [79.063, 10.873]], [[79.017, 10.872], [79.02, 10.871]], [[79.017, 10.872], [79.02, 10.871]], [[79.067, 10.873], [79.074, 10.875], [79.082, 10.874], [79.084, 10.876], [79.09, 10.874], [79.099, 10.874], [79.108, 10.877]], [[79.035, 10.873], [79.039, 10.87], [79.043, 10.872]], [[79.035, 10.873], [79.043, 10.872]], [[79.063, 10.873], [79.067, 10.873]], [[79.063, 10.873], [79.067, 10.873]], [[79.008, 10.873], [79.012, 10.874]], [[79.008, 10.873], [79.012, 10.874]], [[79.012, 10.874], [79.017, 10.872]], [[79.108, 10.877], [79.111, 10.88]], [[79.108, 10.877], [79.111, 10.88]], [[79.111, 10.88], [79.117, 10.883], [79.126, 10.884], [79.132, 10.887], [79.14, 10.887], [79.152, 10.896], [79.158, 10.902], [79.163, 10.906], [79.172, 10.909], [79.18, 10.914], [79.183, 10.913], [79.195, 10.917], [79.201, 10.919], [79.207, 10.925], [79.216, 10.931], [79.225, 10.933], [79.239, 10.938], [79.266, 10.944], [79.281, 10.944], [79.298, 10.946], [79.302, 10.948], [79.315, 10.948], [79.325, 10.954], [79.334, 10.956], [79.338, 10.96], [79.342, 10.96], [79.351, 10.965], [79.362, 10.965], [79.372, 10.966], [79.385, 10.971], [79.388, 10.974], [79.399, 10.978], [79.405, 10.989], [79.409, 10.991], [79.411, 10.994], [79.435, 11.003], [79.437, 11.005], [79.454, 11.011], [79.461, 11.017], [79.473, 11.02], [79.48, 11.023], [79.49, 11.034], [79.506, 11.042], [79.516, 11.045], [79.519, 11.05], [79.531, 11.056], [79.533, 11.061], [79.541, 11.064], [79.546, 11.071], [79.562, 11.081], [79.571, 11.084], [79.582, 11.079], [79.589, 11.081], [79.604, 11.091], [79.608, 11.09], [79.619, 11.094], [79.629, 11.099], [79.631, 11.102], [79.641, 11.104], [79.646, 11.106], [79.655, 11.105], [79.668, 11.109], [79.678, 11.108], [79.681, 11.109], [79.691, 11.11], [79.702, 11.112], [79.713, 11.109], [79.722, 11.112], [79.73, 11.109], [79.739, 11.112], [79.741, 11.117], [79.747, 11.122], [79.755, 11.131], [79.755, 11.137], [79.757, 11.138], [79.758, 11.146], [79.764, 11.146], [79.769, 11.149], [79.79, 11.15], [79.795, 11.149], [79.801, 11.151], [79.81, 11.146], [79.818, 11.146], [79.825, 11.142], [79.837, 11.14], [79.845, 11.14], [79.85, 11.137], [79.857, 11.137]], [[78.168, 11.008], [78.17, 11], [78.175, 10.989], [78.179, 10.977], [78.182, 10.973], [78.192, 10.969], [78.199, 10.961], [78.212, 10.956], [78.218, 10.953], [78.239, 10.962], [78.247, 10.962], [78.254, 10.971], [78.26, 10.975], [78.263, 10.975], [78.271, 10.97], [78.277, 10.969], [78.281, 10.971], [78.297, 10.966], [78.302, 10.962], [78.312, 10.962], [78.319, 10.965], [78.328, 10.966], [78.336, 10.962], [78.341, 10.964], [78.352, 10.964], [78.363, 10.961], [78.379, 10.963], [78.388, 10.966], [78.394, 10.967], [78.402, 10.965], [78.413, 10.958], [78.42, 10.949], [78.426, 10.944], [78.441, 10.944], [78.449, 10.934], [78.455, 10.934], [78.464, 10.927], [78.471, 10.913], [78.479, 10.916], [78.486, 10.915], [78.492, 10.919], [78.5, 10.917], [78.507, 10.917], [78.511, 10.912], [78.519, 10.906], [78.526, 10.906], [78.531, 10.901], [78.536, 10.9], [78.546, 10.904], [78.552, 10.905], [78.558, 10.903], [78.563, 10.897], [78.565, 10.897], [78.57, 10.889], [78.579, 10.891], [78.58, 10.885], [78.587, 10.886], [78.592, 10.884], [78.593, 10.881], [78.599, 10.877], [78.608, 10.881], [78.612, 10.882], [78.619, 10.879], [78.624, 10.879], [78.632, 10.873], [78.636, 10.875], [78.654, 10.871], [78.655, 10.868], [78.668, 10.861], [78.676, 10.852], [78.686, 10.845], [78.69, 10.844], [78.692, 10.839], [78.7, 10.837], [78.71, 10.836], [78.723, 10.84], [78.729, 10.838], [78.738, 10.836], [78.743, 10.839], [78.75, 10.84], [78.758, 10.839], [78.763, 10.837], [78.766, 10.833], [78.776, 10.832], [78.779, 10.829], [78.791, 10.832], [78.8, 10.837], [78.806, 10.833], [78.818, 10.83], [78.835, 10.834], [78.839, 10.832], [78.848, 10.835], [78.859, 10.836], [78.863, 10.835], [78.875, 10.835], [78.882, 10.839], [78.891, 10.837], [78.899, 10.841], [78.904, 10.849], [78.908, 10.85], [78.915, 10.847], [78.922, 10.849], [78.928, 10.853], [78.935, 10.852], [78.939, 10.854], [78.946, 10.852], [78.951, 10.855], [78.958, 10.855], [78.967, 10.859], [78.971, 10.866], [78.974, 10.869], [78.982, 10.869], [78.985, 10.867], [78.996, 10.871], [79.001, 10.87], [79.008, 10.873]], [[78.168, 11.008], [78.158, 11.019], [78.158, 11.022]], [[78.167, 11.015], [78.168, 11.008]], [[78.165, 11.019], [78.167, 11.015]], [[78.161, 11.021], [78.165, 11.019]], [[78.161, 11.021], [78.164, 11.021]], [[78.164, 11.021], [78.165, 11.019]], [[78.16, 11.021], [78.167, 11.015]], [[78.16, 11.021], [78.161, 11.021]], [[78.158, 11.022], [78.16, 11.021]], [[78.157, 11.023], [78.158, 11.022]], [[78.156, 11.025], [78.157, 11.023]], [[78.156, 11.025], [78.164, 11.021]], [[78.152, 11.027], [78.157, 11.023]], [[78.152, 11.027], [78.156, 11.025]], [[78.146, 11.039], [78.15, 11.029], [78.152, 11.027]], [[78.14, 11.046], [78.142, 11.041], [78.146, 11.039]], [[78.14, 11.046], [78.144, 11.045], [78.146, 11.039]], [[78.135, 11.052], [78.14, 11.046]], [[78.13, 11.055], [78.135, 11.052]], [[78.129, 11.059], [78.13, 11.055]], [[78.129, 11.059], [78.132, 11.057], [78.135, 11.052]], [[78.118, 11.063], [78.13, 11.055]], [[78.11, 11.065], [78.118, 11.063]], [[78.116, 11.068], [78.118, 11.063]], [[78.116, 11.068], [78.12, 11.066], [78.129, 11.059]], [[78.109, 11.071], [78.11, 11.065]], [[78.109, 11.071], [78.111, 11.072]], [[78.111, 11.072], [78.116, 11.068]], [[78.105, 11.072], [78.11, 11.065]], [[78.106, 11.073], [78.109, 11.071]], [[78.106, 11.073], [78.109, 11.074]], [[78.109, 11.074], [78.111, 11.072]], [[78.053, 11.073], [78.059, 11.071], [78.066, 11.072], [78.071, 11.075]], [[78.104, 11.075], [78.106, 11.073]], [[78.071, 11.075], [78.074, 11.076]], [[78.102, 11.076], [78.105, 11.072]], [[78.102, 11.076], [78.104, 11.075]], [[78.069, 11.075], [78.071, 11.075]], [[78.069, 11.075], [78.075, 11.079]], [[78.101, 11.076], [78.102, 11.076]], [[78.101, 11.076], [78.103, 11.076]], [[78.103, 11.076], [78.104, 11.075]], [[78.103, 11.077], [78.103, 11.076]], [[78.103, 11.077], [78.105, 11.077]], [[78.074, 11.076], [78.079, 11.075], [78.089, 11.077]], [[78.074, 11.076], [78.076, 11.079]], [[78.066, 11.076], [78.069, 11.075]], [[78.066, 11.076], [78.075, 11.079]], [[78.098, 11.077], [78.101, 11.076]], [[78.098, 11.077], [78.101, 11.076]], [[78.097, 11.077], [78.098, 11.077]], [[78.105, 11.077], [78.109, 11.074]], [[78.089, 11.077], [78.095, 11.074], [78.105, 11.072]], [[78.089, 11.077], [78.094, 11.078]], [[78.102, 11.078], [78.103, 11.077]], [[78.048, 11.077], [78.053, 11.073]], [[78.048, 11.077], [78.053, 11.073]], [[78.097, 11.078], [78.097, 11.077]], [[78.097, 11.078], [78.102, 11.078]], [[78.096, 11.078], [78.097, 11.077]], [[78.094, 11.078], [78.096, 11.078]], [[78.101, 11.079], [78.102, 11.078]], [[78.097, 11.079], [78.097, 11.078]], [[78.097, 11.079], [78.101, 11.079]], [[78.075, 11.079], [78.076, 11.079]], [[78.076, 11.079], [78.081, 11.083], [78.088, 11.083]], [[78.102, 11.079], [78.101, 11.079]], [[78.102, 11.079], [78.105, 11.077]], [[78.094, 11.08], [78.096, 11.078]], [[78.094, 11.08], [78.096, 11.08]], [[78.096, 11.08], [78.097, 11.079]], [[78.093, 11.081], [78.094, 11.08]], [[78.093, 11.081], [78.094, 11.081]], [[78.09, 11.081], [78.094, 11.078]], [[78.09, 11.081], [78.094, 11.08]], [[78.094, 11.081], [78.096, 11.08]], [[78.094, 11.081], [78.102, 11.079]], [[78.043, 11.081], [78.048, 11.077]], [[78.088, 11.083], [78.09, 11.081]], [[78.088, 11.083], [78.093, 11.081]], [[78.036, 11.083], [78.043, 11.077], [78.048, 11.077]], [[78.036, 11.083], [78.043, 11.081]], [[78.037, 11.088], [78.043, 11.081]], [[78.037, 11.088], [78.042, 11.087], [78.046, 11.082], [78.056, 11.077], [78.066, 11.076]], [[78.03, 11.089], [78.036, 11.083]], [[78.03, 11.089], [78.037, 11.088]], [[78.026, 11.09], [78.03, 11.089]], [[78.008, 11.096], [78.016, 11.09], [78.026, 11.09]], [[78.008, 11.096], [78.015, 11.096], [78.026, 11.09]], [[77.17, 12.259], [77.173, 12.26], [77.176, 12.266], [77.179, 12.274], [77.179, 12.281], [77.183, 12.284], [77.185, 12.292], [77.19, 12.308]], [[77.17, 12.259], [77.169, 12.265], [77.165, 12.271], [77.166, 12.275], [77.16, 12.289], [77.162, 12.293], [77.17, 12.295], [77.17, 12.3], [77.168, 12.303], [77.166, 12.31], [77.179, 12.311], [77.19, 12.308]], [[77.19, 12.308], [77.203, 12.308], [77.209, 12.307], [77.218, 12.308], [77.221, 12.304], [77.226, 12.303], [77.232, 12.309], [77.24, 12.31], [77.245, 12.308], [77.264, 12.314], [77.283, 12.308], [77.285, 12.305], [77.29, 12.303], [77.295, 12.303], [77.302, 12.298], [77.307, 12.298], [77.312, 12.304], [77.316, 12.306], [77.326, 12.307], [77.331, 12.302], [77.34, 12.284], [77.343, 12.281], [77.35, 12.278], [77.364, 12.283], [77.37, 12.282], [77.386, 12.279], [77.399, 12.279], [77.41, 12.282], [77.416, 12.287], [77.42, 12.289], [77.432, 12.287], [77.44, 12.276], [77.441, 12.269], [77.447, 12.262], [77.448, 12.251], [77.455, 12.247], [77.461, 12.249], [77.465, 12.245], [77.477, 12.241], [77.483, 12.232], [77.482, 12.227], [77.472, 12.21], [77.476, 12.206], [77.486, 12.204], [77.492, 12.198], [77.498, 12.198], [77.509, 12.195], [77.519, 12.195], [77.523, 12.198], [77.531, 12.2], [77.539, 12.199], [77.545, 12.205], [77.55, 12.204], [77.567, 12.196], [77.57, 12.2], [77.576, 12.201], [77.579, 12.199], [77.599, 12.2], [77.602, 12.203], [77.608, 12.206], [77.613, 12.205], [77.621, 12.2], [77.631, 12.201], [77.635, 12.197], [77.64, 12.197], [77.647, 12.199], [77.656, 12.2], [77.66, 12.197], [77.668, 12.196], [77.677, 12.193], [77.685, 12.191], [77.697, 12.186], [77.711, 12.182], [77.719, 12.183], [77.731, 12.18], [77.734, 12.176], [77.736, 12.168], [77.744, 12.163], [77.747, 12.157], [77.747, 12.147], [77.749, 12.139], [77.753, 12.134], [77.762, 12.128], [77.769, 12.124], [77.776, 12.118], [77.773, 12.109], [77.768, 12.106], [77.764, 12.099], [77.763, 12.094], [77.757, 12.081], [77.749, 12.074], [77.737, 12.066], [77.728, 12.063], [77.721, 12.053], [77.715, 12.042], [77.709, 12.036], [77.702, 12.023], [77.696, 12.014], [77.682, 11.982], [77.676, 11.969], [77.674, 11.96], [77.675, 11.953], [77.687, 11.944], [77.692, 11.942], [77.699, 11.942], [77.712, 11.94], [77.736, 11.94], [77.739, 11.934], [77.748, 11.927], [77.763, 11.912], [77.771, 11.91], [77.785, 11.908], [77.808, 11.907], [77.818, 11.905], [77.829, 11.905], [77.839, 11.901], [77.842, 11.896], [77.838, 11.886], [77.826, 11.868], [77.819, 11.855], [77.816, 11.847], [77.813, 11.831], [77.809, 11.815], [77.808, 11.796], [77.803, 11.783], [77.8, 11.773], [77.794, 11.752], [77.789, 11.748], [77.781, 11.728], [77.781, 11.719], [77.783, 11.714], [77.778, 11.702], [77.773, 11.686], [77.768, 11.677], [77.767, 11.668], [77.762, 11.656], [77.76, 11.646], [77.751, 11.634], [77.75, 11.624], [77.745, 11.618], [77.736, 11.604], [77.737, 11.592], [77.74, 11.586], [77.742, 11.577], [77.746, 11.571], [77.745, 11.565], [77.739, 11.561], [77.731, 11.55], [77.728, 11.543], [77.725, 11.538], [77.725, 11.532], [77.731, 11.522], [77.732, 11.512], [77.73, 11.508], [77.724, 11.505], [77.717, 11.497], [77.709, 11.49], [77.701, 11.48], [77.698, 11.473], [77.697, 11.464], [77.695, 11.456], [77.687, 11.443], [77.685, 11.434], [77.681, 11.423], [77.683, 11.417], [77.694, 11.41], [77.699, 11.399], [77.709, 11.39], [77.721, 11.376], [77.726, 11.374], [77.731, 11.37], [77.739, 11.371], [77.743, 11.361], [77.746, 11.358], [77.752, 11.356], [77.753, 11.345], [77.756, 11.341], [77.756, 11.334], [77.767, 11.326], [77.774, 11.318], [77.784, 11.299], [77.792, 11.291], [77.805, 11.274], [77.81, 11.265], [77.83, 11.259], [77.839, 11.262], [77.856, 11.251], [77.864, 11.244], [77.867, 11.235], [77.871, 11.215], [77.864, 11.201], [77.862, 11.191], [77.862, 11.184], [77.868, 11.173], [77.871, 11.169], [77.883, 11.159], [77.886, 11.152], [77.885, 11.146], [77.881, 11.135], [77.881, 11.123], [77.881, 11.117], [77.888, 11.103], [77.888, 11.087], [77.89, 11.08], [77.895, 11.074], [77.918, 11.071], [77.933, 11.071], [77.942, 11.067], [77.95, 11.07], [77.958, 11.068], [77.966, 11.076], [77.972, 11.08], [77.978, 11.087], [77.982, 11.088], [77.987, 11.093], [77.996, 11.098], [78.008, 11.096]], [[76.809, 12.357], [76.813, 12.357], [76.821, 12.353], [76.825, 12.349], [76.826, 12.343], [76.829, 12.34], [76.836, 12.326], [76.847, 12.314], [76.851, 12.308], [76.852, 12.299], [76.86, 12.297], [76.867, 12.29], [76.87, 12.282], [76.875, 12.271], [76.887, 12.258], [76.892, 12.247], [76.902, 12.239], [76.909, 12.229], [76.912, 12.219], [76.916, 12.213], [76.923, 12.212], [76.934, 12.213], [76.946, 12.217], [76.954, 12.221], [76.962, 12.222], [76.977, 12.229], [76.987, 12.238], [76.992, 12.24], [77.006, 12.242], [77.014, 12.241], [77.019, 12.237], [77.028, 12.234], [77.033, 12.228], [77.035, 12.22], [77.033, 12.216], [77.025, 12.211], [77.017, 12.209], [77.012, 12.198], [77.01, 12.188], [77.009, 12.175], [77.012, 12.172], [77.018, 12.17], [77.038, 12.173], [77.048, 12.169], [77.057, 12.167], [77.063, 12.169], [77.071, 12.174], [77.073, 12.184], [77.078, 12.191], [77.085, 12.192], [77.095, 12.188], [77.103, 12.188], [77.123, 12.199], [77.131, 12.208], [77.132, 12.214], [77.13, 12.219], [77.134, 12.223], [77.133, 12.228], [77.13, 12.23], [77.124, 12.238], [77.126, 12.246], [77.132, 12.25], [77.139, 12.248], [77.149, 12.253], [77.155, 12.258], [77.16, 12.257], [77.17, 12.259]], [[76.789, 12.388], [76.791, 12.38], [76.794, 12.377], [76.796, 12.37], [76.805, 12.357], [76.809, 12.357]], [[76.789, 12.388], [76.797, 12.385], [76.798, 12.38], [76.801, 12.375], [76.805, 12.363], [76.809, 12.357]], [[76.723, 12.407], [76.738, 12.404], [76.758, 12.406], [76.764, 12.404], [76.777, 12.404], [76.784, 12.394], [76.789, 12.388]], [[76.598, 12.418], [76.606, 12.419], [76.611, 12.417], [76.615, 12.421]], [[76.598, 12.418], [76.601, 12.415], [76.606, 12.413], [76.612, 12.417], [76.622, 12.417], [76.626, 12.423]], [[76.615, 12.421], [76.62, 12.424], [76.626, 12.423]], [[76.615, 12.421], [76.612, 12.421], [76.61, 12.426], [76.598, 12.423], [76.587, 12.422]], [[76.626, 12.423], [76.635, 12.424], [76.646, 12.428], [76.651, 12.43], [76.659, 12.432], [76.664, 12.43]], [[76.587, 12.422], [76.598, 12.418]], [[75.492, 12.396], [75.501, 12.392], [75.507, 12.397], [75.515, 12.401], [75.533, 12.385], [75.537, 12.385], [75.546, 12.377], [75.553, 12.372], [75.563, 12.369], [75.565, 12.366], [75.574, 12.362], [75.584, 12.355], [75.587, 12.355], [75.597, 12.348], [75.605, 12.345], [75.613, 12.338], [75.615, 12.332], [75.624, 12.33], [75.637, 12.333], [75.643, 12.332], [75.647, 12.327], [75.655, 12.334], [75.659, 12.33], [75.664, 12.33], [75.667, 12.325], [75.673, 12.332], [75.677, 12.331], [75.679, 12.335], [75.686, 12.329], [75.692, 12.326], [75.698, 12.321], [75.696, 12.317], [75.703, 12.314], [75.703, 12.307], [75.709, 12.311], [75.711, 12.306], [75.716, 12.299], [75.724, 12.298], [75.727, 12.296], [75.736, 12.297], [75.742, 12.3], [75.741, 12.288], [75.752, 12.278], [75.76, 12.282], [75.763, 12.277], [75.771, 12.277], [75.774, 12.285], [75.777, 12.286], [75.783, 12.297], [75.789, 12.299], [75.791, 12.303], [75.795, 12.302], [75.798, 12.298], [75.802, 12.297], [75.805, 12.291], [75.81, 12.293], [75.807, 12.301], [75.813, 12.301], [75.816, 12.309], [75.822, 12.315], [75.83, 12.309], [75.828, 12.299], [75.831, 12.299], [75.836, 12.304], [75.84, 12.305], [75.843, 12.309], [75.85, 12.304], [75.851, 12.299], [75.858, 12.305], [75.864, 12.304], [75.874, 12.307], [75.881, 12.311], [75.884, 12.317], [75.888, 12.32], [75.879, 12.333], [75.884, 12.337], [75.884, 12.34], [75.893, 12.341], [75.896, 12.347], [75.903, 12.347], [75.906, 12.355], [75.901, 12.359], [75.898, 12.368], [75.91, 12.374], [75.915, 12.383], [75.91, 12.393], [75.909, 12.402], [75.914, 12.409], [75.916, 12.413], [75.923, 12.422], [75.922, 12.43], [75.929, 12.441], [75.936, 12.438], [75.939, 12.444], [75.945, 12.449], [75.96, 12.452], [75.969, 12.447], [75.972, 12.452], [75.969, 12.454], [75.967, 12.465], [75.968, 12.471], [75.964, 12.475], [75.967, 12.478], [75.966, 12.484], [75.961, 12.484], [75.959, 12.49], [75.962, 12.496], [75.961, 12.505], [75.963, 12.509], [75.97, 12.511], [75.974, 12.514], [75.974, 12.519], [75.978, 12.521], [75.986, 12.519], [75.993, 12.522], [75.994, 12.527], [75.991, 12.533], [75.983, 12.541], [75.985, 12.545], [75.995, 12.541], [75.999, 12.547], [75.998, 12.551], [75.992, 12.555], [75.991, 12.561], [75.996, 12.563], [76, 12.559], [76.008, 12.555], [76.013, 12.556], [76.011, 12.56], [76.018, 12.568], [76.021, 12.576], [76.022, 12.585], [76.029, 12.59], [76.033, 12.597], [76.036, 12.598], [76.044, 12.597], [76.048, 12.604], [76.042, 12.611], [76.043, 12.616], [76.05, 12.619], [76.054, 12.623], [76.06, 12.622], [76.07, 12.614], [76.078, 12.614], [76.083, 12.612], [76.093, 12.602], [76.101, 12.604], [76.104, 12.601], [76.109, 12.602], [76.118, 12.606], [76.124, 12.606], [76.126, 12.6], [76.131, 12.592], [76.13, 12.585], [76.137, 12.586], [76.157, 12.579], [76.167, 12.58], [76.176, 12.578], [76.185, 12.571], [76.183, 12.565], [76.178, 12.563], [76.176, 12.559], [76.181, 12.554], [76.182, 12.547], [76.185, 12.545], [76.194, 12.542], [76.199, 12.536], [76.206, 12.535], [76.215, 12.53], [76.221, 12.536], [76.226, 12.535], [76.23, 12.532], [76.226, 12.525], [76.225, 12.522], [76.235, 12.52], [76.248, 12.523], [76.254, 12.517], [76.259, 12.518], [76.262, 12.515], [76.27, 12.516], [76.281, 12.511], [76.284, 12.508], [76.292, 12.507], [76.298, 12.506], [76.305, 12.512], [76.313, 12.51], [76.322, 12.516], [76.326, 12.515], [76.326, 12.51], [76.336, 12.505], [76.342, 12.505], [76.347, 12.503], [76.356, 12.502], [76.361, 12.503], [76.375, 12.496], [76.382, 12.494], [76.386, 12.488], [76.39, 12.489], [76.393, 12.482], [76.389, 12.472], [76.395, 12.469], [76.4, 12.471], [76.4, 12.478], [76.41, 12.486], [76.412, 12.491], [76.41, 12.495], [76.41, 12.501], [76.413, 12.506], [76.412, 12.517], [76.413, 12.526], [76.416, 12.532], [76.42, 12.533], [76.432, 12.526], [76.44, 12.511], [76.448, 12.499], [76.447, 12.491], [76.449, 12.486], [76.455, 12.482], [76.477, 12.474], [76.487, 12.468], [76.499, 12.457], [76.508, 12.452], [76.523, 12.447], [76.566, 12.427], [76.571, 12.425], [76.579, 12.426], [76.587, 12.422]], [[76.664, 12.43], [76.669, 12.426], [76.679, 12.421], [76.68, 12.416], [76.683, 12.413], [76.689, 12.402], [76.695, 12.4], [76.7, 12.4], [76.704, 12.403], [76.711, 12.402], [76.715, 12.405], [76.723, 12.407]], [[76.664, 12.43], [76.671, 12.428], [76.68, 12.429], [76.691, 12.426], [76.699, 12.421], [76.712, 12.42], [76.717, 12.417], [76.723, 12.407]]]}}]}