{"type": "FeatureCollection", "_source": "Krishna river course \u2014 extracted from the GSI/Bhukosh rivers layer (rivers.geojson). Simplified.", "features": [{"type": "Feature", "properties": {"name": "Krishna"}, "geometry": {"type": "MultiLineString", "coordinates": [[[80.829, 15.711], [80.833, 15.721], [80.831, 15.727], [80.83, 15.734], [80.832, 15.739], [80.833, 15.748], [80.841, 15.771], [80.847, 15.779], [80.849, 15.785], [80.853, 15.8], [80.856, 15.814], [80.859, 15.823], [80.868, 15.836], [80.875, 15.852], [80.885, 15.867], [80.894, 15.872], [80.898, 15.882], [80.898, 15.901], [80.902, 15.914], [80.903, 15.931], [80.906, 15.94], [80.909, 15.944], [80.911, 15.963], [80.909, 15.969], [80.901, 15.977], [80.898, 15.984], [80.893, 15.99], [80.888, 16.001], [80.887, 16.009], [80.881, 16.026], [80.885, 16.031], [80.885, 16.043], [80.891, 16.053], [80.887, 16.063]], [[80.887, 16.063], [80.89, 16.069], [80.897, 16.065], [80.9, 16.053], [80.911, 16.043], [80.913, 16.038], [80.924, 16.033], [80.93, 16.033], [80.939, 16.036], [80.945, 16.043], [80.955, 16.047], [80.959, 16.047], [80.968, 16.044], [80.983, 16.043], [80.99, 16.044], [81, 16.05], [81.005, 16.056], [81.005, 16.061], [81.002, 16.075], [81.003, 16.078], [81, 16.087], [81.007, 16.091], [81.012, 16.091], [81.021, 16.088], [81.027, 16.085], [81.04, 16.079], [81.045, 16.073], [81.045, 16.061], [81.047, 16.058], [81.052, 16.058], [81.063, 16.06], [81.069, 16.058], [81.072, 16.056], [81.073, 16.048], [81.073, 16.037], [81.074, 16.029], [81.071, 16.021], [81.064, 16.012], [81.064, 16.006], [81.07, 16], [81.079, 15.999], [81.089, 16.006], [81.098, 16.008], [81.118, 16.001], [81.125, 15.995], [81.125, 15.988]], [[80.272, 16.599], [80.281, 16.599], [80.285, 16.594], [80.295, 16.591], [80.305, 16.591], [80.323, 16.594], [80.327, 16.592], [80.341, 16.584], [80.351, 16.583], [80.358, 16.585], [80.374, 16.585], [80.381, 16.585], [80.392, 16.588], [80.402, 16.585], [80.414, 16.587], [80.418, 16.585], [80.424, 16.579], [80.431, 16.575], [80.448, 16.573], [80.461, 16.573], [80.465, 16.572], [80.471, 16.567], [80.478, 16.564], [80.485, 16.563], [80.499, 16.566], [80.51, 16.57], [80.517, 16.571], [80.527, 16.568], [80.531, 16.564], [80.541, 16.549], [80.547, 16.545], [80.558, 16.541], [80.568, 16.536], [80.575, 16.531], [80.586, 16.524], [80.594, 16.518], [80.6, 16.51], [80.607, 16.505], [80.623, 16.494], [80.635, 16.485], [80.649, 16.47], [80.659, 16.463], [80.665, 16.462], [80.671, 16.464], [80.675, 16.459], [80.681, 16.437], [80.694, 16.424], [80.697, 16.414], [80.708, 16.406], [80.714, 16.4], [80.717, 16.393], [80.717, 16.385], [80.713, 16.381], [80.713, 16.378], [80.72, 16.364], [80.727, 16.356], [80.731, 16.342], [80.742, 16.341], [80.745, 16.339], [80.75, 16.331], [80.755, 16.328], [80.756, 16.323], [80.751, 16.32], [80.75, 16.317], [80.756, 16.311], [80.762, 16.304], [80.768, 16.301], [80.774, 16.29], [80.778, 16.288], [80.785, 16.288], [80.791, 16.286], [80.796, 16.28], [80.797, 16.274], [80.803, 16.269], [80.811, 16.265], [80.816, 16.265], [80.82, 16.261], [80.822, 16.254], [80.826, 16.249], [80.826, 16.241], [80.824, 16.235], [80.825, 16.229], [80.824, 16.223], [80.829, 16.219], [80.83, 16.208], [80.833, 16.201], [80.841, 16.186], [80.842, 16.183], [80.837, 16.174], [80.838, 16.166], [80.842, 16.151], [80.843, 16.143], [80.846, 16.139], [80.861, 16.139], [80.87, 16.131], [80.873, 16.119], [80.881, 16.11], [80.887, 16.097], [80.887, 16.089], [80.88, 16.081], [80.882, 16.072], [80.887, 16.063]], [[80.171, 16.639], [80.181, 16.626], [80.19, 16.616], [80.2, 16.61], [80.203, 16.606], [80.213, 16.601], [80.228, 16.599], [80.234, 16.597], [80.244, 16.589], [80.25, 16.588], [80.26, 16.591], [80.264, 16.595], [80.272, 16.599]], [[80.171, 16.639], [80.175, 16.64], [80.178, 16.637], [80.183, 16.63], [80.189, 16.629], [80.195, 16.633], [80.201, 16.633], [80.208, 16.629], [80.211, 16.626], [80.236, 16.613], [80.24, 16.612], [80.248, 16.613], [80.259, 16.611], [80.264, 16.605], [80.271, 16.602], [80.272, 16.599]], [[73.632, 17.989], [73.642, 17.989], [73.649, 17.987], [73.658, 17.982], [73.664, 17.982], [73.673, 17.98], [73.677, 17.98], [73.684, 17.976], [73.691, 17.969], [73.694, 17.965], [73.701, 17.96], [73.72, 17.953], [73.727, 17.952], [73.738, 17.948], [73.75, 17.947], [73.776, 17.958], [73.79, 17.967], [73.797, 17.973], [73.817, 17.981], [73.823, 17.981], [73.828, 17.977], [73.837, 17.976], [73.845, 17.971], [73.849, 17.972], [73.851, 17.967], [73.855, 17.97], [73.863, 17.967], [73.865, 17.964], [73.871, 17.963], [73.872, 17.958], [73.893, 17.95], [73.895, 17.944], [73.9, 17.942], [73.908, 17.931], [73.912, 17.932], [73.916, 17.928], [73.922, 17.93], [73.928, 17.924], [73.933, 17.913], [73.937, 17.91], [73.936, 17.906], [73.941, 17.903], [73.941, 17.9], [73.952, 17.892], [73.957, 17.889], [73.96, 17.883], [73.965, 17.88], [73.966, 17.868], [73.963, 17.857], [73.965, 17.848], [73.964, 17.841], [73.966, 17.836], [73.964, 17.833], [73.968, 17.83], [73.976, 17.818], [73.978, 17.814], [73.986, 17.805], [73.991, 17.804], [74.007, 17.794], [74.013, 17.794], [74.016, 17.789], [74.024, 17.786], [74.026, 17.778], [74.033, 17.774], [74.036, 17.767], [74.047, 17.759], [74.051, 17.753], [74.054, 17.751], [74.057, 17.743], [74.06, 17.742], [74.06, 17.732], [74.057, 17.725], [74.063, 17.72], [74.057, 17.71], [74.061, 17.707], [74.055, 17.699], [74.054, 17.695], [74.049, 17.688], [74.05, 17.683], [74.054, 17.68], [74.058, 17.682], [74.066, 17.682], [74.068, 17.68], [74.066, 17.672], [74.07, 17.665], [74.079, 17.661], [74.086, 17.659], [74.094, 17.66], [74.096, 17.656], [74.107, 17.658], [74.111, 17.66], [74.113, 17.657], [74.121, 17.656], [74.129, 17.649], [74.13, 17.646], [74.127, 17.636], [74.133, 17.634], [74.138, 17.634], [74.141, 17.637], [74.145, 17.637], [74.15, 17.631], [74.157, 17.633], [74.159, 17.63], [74.158, 17.623], [74.158, 17.619], [74.162, 17.615], [74.161, 17.612], [74.154, 17.611], [74.151, 17.608], [74.151, 17.599], [74.154, 17.596], [74.153, 17.592], [74.149, 17.583], [74.151, 17.578], [74.148, 17.573], [74.151, 17.569], [74.156, 17.566], [74.159, 17.558], [74.155, 17.554], [74.157, 17.544], [74.151, 17.537], [74.148, 17.528], [74.15, 17.525], [74.146, 17.52], [74.142, 17.508], [74.135, 17.505], [74.128, 17.509], [74.125, 17.509], [74.121, 17.502], [74.11, 17.494], [74.102, 17.495], [74.098, 17.492], [74.095, 17.475], [74.098, 17.468], [74.103, 17.467], [74.107, 17.47], [74.115, 17.469], [74.118, 17.468], [74.119, 17.463], [74.117, 17.453], [74.117, 17.447], [74.12, 17.44], [74.116, 17.435], [74.114, 17.424], [74.115, 17.417], [74.12, 17.413], [74.12, 17.407], [74.116, 17.406], [74.108, 17.409], [74.105, 17.406], [74.108, 17.401], [74.115, 17.398], [74.116, 17.394], [74.124, 17.387], [74.123, 17.384], [74.118, 17.378], [74.122, 17.373], [74.128, 17.374], [74.134, 17.379], [74.14, 17.378], [74.141, 17.371], [74.135, 17.364], [74.137, 17.357], [74.149, 17.358], [74.151, 17.357], [74.148, 17.35], [74.142, 17.347], [74.143, 17.341], [74.16, 17.338], [74.173, 17.337], [74.177, 17.335], [74.172, 17.328], [74.173, 17.325], [74.18, 17.32], [74.181, 17.317], [74.18, 17.312], [74.168, 17.31], [74.168, 17.303], [74.171, 17.304], [74.176, 17.302], [74.175, 17.297], [74.184, 17.297], [74.196, 17.292], [74.207, 17.283], [74.211, 17.283], [74.225, 17.284], [74.233, 17.28], [74.232, 17.276], [74.226, 17.273], [74.221, 17.266], [74.209, 17.256], [74.207, 17.252], [74.208, 17.245], [74.202, 17.242], [74.188, 17.221], [74.187, 17.219], [74.191, 17.211], [74.198, 17.209], [74.217, 17.207], [74.221, 17.206], [74.228, 17.199], [74.231, 17.188], [74.229, 17.183], [74.221, 17.175], [74.214, 17.173], [74.199, 17.17], [74.192, 17.165], [74.193, 17.158], [74.199, 17.151], [74.224, 17.139], [74.239, 17.141], [74.249, 17.141], [74.257, 17.136], [74.263, 17.12], [74.273, 17.115], [74.281, 17.114], [74.287, 17.12], [74.292, 17.127], [74.301, 17.129], [74.307, 17.128], [74.309, 17.122], [74.309, 17.114], [74.306, 17.101], [74.311, 17.096], [74.32, 17.092], [74.328, 17.094], [74.329, 17.099], [74.327, 17.105], [74.331, 17.125], [74.336, 17.129], [74.339, 17.13], [74.35, 17.125], [74.355, 17.117], [74.368, 17.106], [74.372, 17.097], [74.371, 17.084], [74.368, 17.073], [74.365, 17.067], [74.365, 17.063], [74.377, 17.049], [74.39, 17.046], [74.392, 17.042], [74.388, 17.035], [74.381, 17.031], [74.382, 17.025], [74.389, 17.019], [74.395, 17.019], [74.397, 17.023], [74.396, 17.031], [74.399, 17.037], [74.407, 17.042], [74.423, 17.041], [74.428, 17.04], [74.432, 17.036], [74.437, 17.035], [74.446, 17.036], [74.454, 17.032], [74.458, 17.025], [74.468, 17.019], [74.471, 17.015], [74.472, 17], [74.469, 16.993], [74.461, 16.993], [74.455, 16.998], [74.452, 16.997], [74.448, 16.987], [74.45, 16.977], [74.457, 16.967], [74.463, 16.96], [74.47, 16.959], [74.474, 16.956], [74.483, 16.941], [74.486, 16.938], [74.5, 16.936], [74.507, 16.934], [74.512, 16.93], [74.514, 16.925], [74.524, 16.906], [74.535, 16.901], [74.54, 16.894], [74.545, 16.883], [74.553, 16.875], [74.557, 16.865], [74.557, 16.855], [74.554, 16.851], [74.546, 16.85], [74.537, 16.857], [74.532, 16.856], [74.534, 16.848], [74.548, 16.832], [74.555, 16.825], [74.559, 16.817], [74.558, 16.81], [74.561, 16.806], [74.577, 16.802], [74.595, 16.802], [74.609, 16.798], [74.615, 16.793], [74.625, 16.789], [74.631, 16.786], [74.635, 16.779], [74.641, 16.774], [74.643, 16.77], [74.643, 16.757], [74.645, 16.752], [74.665, 16.749], [74.677, 16.743], [74.694, 16.737], [74.7, 16.732], [74.698, 16.727], [74.69, 16.714], [74.685, 16.712], [74.675, 16.715], [74.646, 16.714], [74.633, 16.717], [74.629, 16.717], [74.627, 16.712], [74.625, 16.705], [74.622, 16.701], [74.617, 16.699], [74.606, 16.697], [74.602, 16.689], [74.604, 16.681], [74.609, 16.675], [74.622, 16.664], [74.631, 16.653], [74.636, 16.65], [74.643, 16.649], [74.649, 16.646], [74.657, 16.633], [74.662, 16.63], [74.668, 16.629], [74.688, 16.617], [74.689, 16.61], [74.687, 16.607], [74.68, 16.607], [74.672, 16.609], [74.662, 16.604], [74.658, 16.603], [74.643, 16.611], [74.636, 16.609], [74.633, 16.601], [74.634, 16.59], [74.635, 16.584], [74.64, 16.578], [74.647, 16.574], [74.667, 16.569], [74.68, 16.559], [74.687, 16.555], [74.696, 16.556], [74.704, 16.561], [74.712, 16.573], [74.725, 16.58], [74.732, 16.581], [74.738, 16.579], [74.742, 16.572], [74.746, 16.569], [74.753, 16.568], [74.762, 16.568], [74.772, 16.57], [74.79, 16.576], [74.795, 16.578], [74.804, 16.588], [74.805, 16.591], [74.805, 16.604], [74.806, 16.611], [74.806, 16.626], [74.808, 16.641], [74.815, 16.644], [74.819, 16.642], [74.825, 16.637], [74.831, 16.635], [74.84, 16.634], [74.847, 16.635], [74.858, 16.642], [74.869, 16.653], [74.875, 16.657], [74.885, 16.657], [74.899, 16.651], [74.91, 16.641], [74.913, 16.635], [74.915, 16.623], [74.923, 16.614], [74.933, 16.611], [74.94, 16.614], [74.946, 16.632], [74.949, 16.642], [74.951, 16.647], [74.959, 16.658], [74.965, 16.661], [74.979, 16.663], [74.987, 16.661], [74.994, 16.656], [75.001, 16.646], [75.005, 16.643], [75.019, 16.641], [75.024, 16.638], [75.028, 16.631], [75.028, 16.621], [75.032, 16.612], [75.041, 16.598], [75.044, 16.591], [75.045, 16.585], [75.051, 16.577], [75.058, 16.572], [75.071, 16.568], [75.082, 16.562], [75.088, 16.556], [75.089, 16.542], [75.091, 16.537], [75.1, 16.528], [75.102, 16.524], [75.104, 16.515], [75.107, 16.509], [75.113, 16.506], [75.122, 16.508], [75.126, 16.512], [75.132, 16.522], [75.142, 16.527], [75.153, 16.527], [75.159, 16.53], [75.163, 16.534], [75.167, 16.549], [75.165, 16.554], [75.159, 16.564], [75.157, 16.569], [75.157, 16.577], [75.158, 16.586], [75.161, 16.592], [75.174, 16.602], [75.181, 16.605], [75.197, 16.608], [75.213, 16.614], [75.222, 16.617], [75.23, 16.617], [75.247, 16.607], [75.259, 16.603], [75.264, 16.6], [75.261, 16.586], [75.264, 16.579], [75.271, 16.576], [75.288, 16.585], [75.293, 16.589], [75.298, 16.591], [75.304, 16.588], [75.307, 16.583], [75.306, 16.575], [75.307, 16.572], [75.313, 16.567], [75.32, 16.566], [75.331, 16.569], [75.339, 16.577], [75.349, 16.591], [75.354, 16.593], [75.367, 16.593], [75.376, 16.59], [75.384, 16.583], [75.388, 16.578], [75.389, 16.57], [75.386, 16.564], [75.385, 16.539], [75.389, 16.532], [75.393, 16.529], [75.399, 16.527], [75.412, 16.527], [75.424, 16.53], [75.437, 16.527], [75.449, 16.518], [75.454, 16.511], [75.456, 16.506], [75.458, 16.492], [75.463, 16.479], [75.461, 16.47], [75.447, 16.452], [75.434, 16.439], [75.433, 16.434], [75.435, 16.428], [75.446, 16.417], [75.449, 16.414], [75.465, 16.411], [75.471, 16.413], [75.48, 16.417], [75.489, 16.42], [75.496, 16.424], [75.5, 16.433], [75.501, 16.438], [75.5, 16.452], [75.506, 16.458], [75.515, 16.463], [75.533, 16.467], [75.544, 16.465], [75.552, 16.457], [75.553, 16.454], [75.553, 16.44], [75.556, 16.427], [75.564, 16.414], [75.568, 16.412], [75.573, 16.412], [75.577, 16.415], [75.58, 16.426], [75.589, 16.438], [75.599, 16.446], [75.609, 16.448], [75.63, 16.445], [75.639, 16.442], [75.662, 16.431], [75.675, 16.424], [75.678, 16.42], [75.689, 16.415], [75.702, 16.413], [75.705, 16.411], [75.714, 16.397], [75.718, 16.394], [75.729, 16.39], [75.74, 16.389], [75.771, 16.383], [75.783, 16.38], [75.811, 16.37], [75.824, 16.362], [75.842, 16.349], [75.851, 16.346], [75.868, 16.344], [75.88, 16.335], [75.901, 16.323], [75.905, 16.323], [75.936, 16.312], [75.945, 16.306], [75.954, 16.298], [75.96, 16.297], [75.972, 16.3], [75.978, 16.301], [75.99, 16.299], [76.003, 16.301], [76.014, 16.301], [76.03, 16.29], [76.043, 16.281], [76.054, 16.273], [76.063, 16.266], [76.068, 16.256], [76.068, 16.25], [76.064, 16.241], [76.059, 16.227], [76.059, 16.22], [76.063, 16.214], [76.072, 16.208], [76.088, 16.203], [76.112, 16.193], [76.134, 16.185], [76.14, 16.184], [76.169, 16.184], [76.211, 16.175], [76.23, 16.169], [76.248, 16.163], [76.258, 16.159], [76.272, 16.154], [76.278, 16.154], [76.284, 16.155], [76.289, 16.162], [76.296, 16.174], [76.302, 16.178], [76.314, 16.182], [76.32, 16.186], [76.33, 16.197], [76.337, 16.209], [76.345, 16.224], [76.348, 16.227], [76.35, 16.236], [76.358, 16.236], [76.366, 16.24], [76.38, 16.245], [76.39, 16.254], [76.401, 16.253], [76.413, 16.251], [76.43, 16.262], [76.435, 16.263], [76.441, 16.268], [76.454, 16.275], [76.464, 16.284], [76.468, 16.284], [76.473, 16.289], [76.486, 16.296], [76.496, 16.298], [76.512, 16.297], [76.52, 16.301], [76.524, 16.306], [76.549, 16.317], [76.556, 16.323], [76.572, 16.338], [76.579, 16.343], [76.585, 16.342], [76.591, 16.339], [76.6, 16.341], [76.609, 16.341], [76.619, 16.346], [76.627, 16.352], [76.639, 16.359], [76.65, 16.36], [76.653, 16.365], [76.664, 16.373], [76.676, 16.376], [76.687, 16.383], [76.692, 16.387], [76.702, 16.395], [76.705, 16.394], [76.716, 16.398], [76.73, 16.405], [76.734, 16.406], [76.746, 16.413], [76.751, 16.421], [76.757, 16.425], [76.767, 16.428], [76.779, 16.42], [76.784, 16.418], [76.807, 16.422], [76.812, 16.422], [76.824, 16.426], [76.834, 16.426], [76.837, 16.43], [76.85, 16.437], [76.856, 16.443], [76.861, 16.452], [76.866, 16.466], [76.864, 16.475], [76.866, 16.481], [76.871, 16.49], [76.874, 16.492], [76.885, 16.492], [76.907, 16.485], [76.914, 16.486], [76.921, 16.491], [76.931, 16.495], [76.935, 16.498], [76.955, 16.503], [76.963, 16.503], [76.974, 16.51], [76.976, 16.52], [76.968, 16.536], [76.968, 16.553], [76.97, 16.556], [76.982, 16.562], [76.992, 16.563], [77.006, 16.553], [77.011, 16.544], [77.005, 16.52], [77.005, 16.516], [77.012, 16.503], [77.016, 16.502], [77.025, 16.502], [77.034, 16.509], [77.038, 16.515], [77.047, 16.52], [77.054, 16.521], [77.062, 16.516], [77.066, 16.511], [77.079, 16.502], [77.087, 16.501], [77.095, 16.493], [77.1, 16.492], [77.115, 16.486], [77.123, 16.481], [77.145, 16.478], [77.155, 16.474], [77.158, 16.471], [77.16, 16.464], [77.164, 16.459], [77.165, 16.452], [77.161, 16.444], [77.169, 16.438], [77.175, 16.432], [77.182, 16.431], [77.202, 16.426], [77.207, 16.424], [77.231, 16.419], [77.239, 16.42], [77.255, 16.412], [77.261, 16.407], [77.271, 16.402], [77.276, 16.403], [77.279, 16.407], [77.283, 16.408], [77.287, 16.408], [77.298, 16.403], [77.305, 16.402], [77.317, 16.397], [77.322, 16.396], [77.33, 16.396], [77.337, 16.393], [77.343, 16.386], [77.355, 16.382], [77.372, 16.386], [77.378, 16.386], [77.391, 16.379], [77.394, 16.376], [77.408, 16.369], [77.416, 16.366], [77.426, 16.367], [77.436, 16.375], [77.437, 16.378], [77.447, 16.381], [77.456, 16.381], [77.462, 16.38], [77.469, 16.382], [77.474, 16.382], [77.488, 16.384], [77.492, 16.384], [77.508, 16.377], [77.513, 16.377], [77.524, 16.371], [77.527, 16.366], [77.537, 16.359], [77.547, 16.356], [77.553, 16.351], [77.558, 16.344], [77.57, 16.34], [77.574, 16.34], [77.585, 16.344], [77.604, 16.341], [77.609, 16.343], [77.624, 16.355], [77.629, 16.358], [77.643, 16.361], [77.651, 16.361], [77.678, 16.354], [77.688, 16.349], [77.702, 16.334], [77.706, 16.333], [77.712, 16.335], [77.723, 16.333], [77.731, 16.33], [77.739, 16.325], [77.766, 16.312], [77.786, 16.3], [77.813, 16.283], [77.822, 16.275], [77.831, 16.271], [77.835, 16.265], [77.844, 16.26], [77.857, 16.251], [77.874, 16.237], [77.886, 16.231], [77.893, 16.225], [77.896, 16.217], [77.906, 16.208], [77.909, 16.196], [77.913, 16.19], [77.927, 16.181], [77.932, 16.177], [77.935, 16.167], [77.936, 16.157], [77.942, 16.147], [77.943, 16.128], [77.951, 16.115], [77.962, 16.109], [77.973, 16.098], [77.991, 16.086], [78.006, 16.074], [78.029, 16.058], [78.037, 16.05], [78.04, 16.045], [78.059, 16.028], [78.081, 16.016], [78.114, 16.009], [78.124, 16], [78.134, 15.995], [78.141, 15.986], [78.144, 15.969], [78.148, 15.96], [78.157, 15.953], [78.173, 15.946], [78.214, 15.944], [78.22, 15.945], [78.23, 15.95], [78.249, 15.964], [78.249, 15.969], [78.252, 15.981], [78.256, 15.99], [78.255, 16], [78.251, 16.014], [78.253, 16.023], [78.261, 16.027], [78.277, 16.027], [78.288, 16.019], [78.299, 16.014], [78.309, 16.014], [78.312, 16.016], [78.321, 16.03], [78.33, 16.041], [78.334, 16.043], [78.364, 16.047], [78.373, 16.053], [78.383, 16.063], [78.394, 16.067], [78.398, 16.073], [78.411, 16.075], [78.421, 16.074], [78.429, 16.075], [78.443, 16.073], [78.46, 16.073], [78.481, 16.067], [78.496, 16.061], [78.522, 16.054], [78.529, 16.051], [78.543, 16.044], [78.555, 16.044], [78.566, 16.048], [78.578, 16.059], [78.586, 16.063], [78.593, 16.07], [78.597, 16.08], [78.604, 16.086], [78.61, 16.087], [78.625, 16.088], [78.635, 16.086], [78.645, 16.082], [78.648, 16.079], [78.646, 16.074], [78.651, 16.07], [78.66, 16.065], [78.674, 16.045], [78.682, 16.034], [78.686, 16.031], [78.698, 16.028], [78.722, 16.022], [78.731, 16.012], [78.739, 16.009], [78.749, 16.016], [78.757, 16.018], [78.769, 16.018], [78.773, 16.021], [78.781, 16.021], [78.792, 16.025], [78.795, 16.028], [78.801, 16.04], [78.817, 16.047], [78.823, 16.053], [78.829, 16.063], [78.836, 16.07], [78.839, 16.075], [78.842, 16.085], [78.842, 16.091], [78.84, 16.107], [78.833, 16.135], [78.833, 16.142], [78.838, 16.147], [78.85, 16.149], [78.856, 16.149], [78.871, 16.145], [78.875, 16.142], [78.88, 16.119], [78.888, 16.096], [78.889, 16.085], [78.894, 16.085], [78.902, 16.09], [78.905, 16.095], [78.916, 16.098], [78.921, 16.103], [78.922, 16.106], [78.92, 16.115], [78.922, 16.125], [78.925, 16.131], [78.923, 16.142], [78.916, 16.149], [78.912, 16.163], [78.905, 16.176], [78.904, 16.181], [78.907, 16.187], [78.914, 16.191], [78.926, 16.197], [78.938, 16.201], [78.949, 16.204], [78.965, 16.211], [78.971, 16.211], [78.982, 16.211], [78.991, 16.214], [79.002, 16.229], [79.007, 16.238], [79.014, 16.242], [79.027, 16.242], [79.052, 16.238], [79.06, 16.235], [79.066, 16.23], [79.074, 16.227], [79.081, 16.23], [79.085, 16.23], [79.09, 16.226], [79.103, 16.224], [79.11, 16.23], [79.119, 16.233], [79.124, 16.231], [79.132, 16.224], [79.146, 16.214], [79.158, 16.209], [79.172, 16.211], [79.192, 16.216], [79.21, 16.222], [79.22, 16.23], [79.224, 16.238], [79.224, 16.247], [79.225, 16.265], [79.225, 16.271], [79.23, 16.28], [79.231, 16.293], [79.232, 16.315], [79.234, 16.324], [79.234, 16.334], [79.232, 16.34], [79.223, 16.349], [79.21, 16.356], [79.212, 16.368], [79.212, 16.373], [79.207, 16.382], [79.208, 16.395], [79.21, 16.415], [79.21, 16.425], [79.212, 16.435], [79.212, 16.449], [79.218, 16.454], [79.231, 16.457], [79.233, 16.46], [79.22, 16.475], [79.216, 16.477], [79.213, 16.484], [79.213, 16.495], [79.22, 16.512], [79.222, 16.525], [79.222, 16.541], [79.225, 16.553], [79.257, 16.57], [79.268, 16.576], [79.276, 16.579], [79.287, 16.58], [79.3, 16.579], [79.319, 16.575], [79.33, 16.577], [79.337, 16.581], [79.342, 16.581], [79.35, 16.579], [79.365, 16.581], [79.368, 16.582], [79.379, 16.584], [79.382, 16.579], [79.391, 16.581], [79.404, 16.579], [79.408, 16.58], [79.418, 16.58], [79.428, 16.586], [79.433, 16.592], [79.436, 16.604], [79.439, 16.612], [79.442, 16.616], [79.448, 16.62], [79.458, 16.623], [79.462, 16.624], [79.47, 16.622], [79.478, 16.622], [79.486, 16.624], [79.489, 16.628], [79.497, 16.635], [79.505, 16.636], [79.53, 16.631], [79.541, 16.632], [79.56, 16.644], [79.579, 16.649], [79.581, 16.654], [79.587, 16.662], [79.59, 16.668], [79.604, 16.673], [79.624, 16.664], [79.631, 16.658], [79.633, 16.658], [79.645, 16.67], [79.656, 16.679], [79.661, 16.687], [79.663, 16.689], [79.675, 16.692], [79.683, 16.697], [79.687, 16.697], [79.7, 16.69], [79.724, 16.69], [79.727, 16.692], [79.733, 16.706], [79.736, 16.709], [79.744, 16.719], [79.749, 16.722], [79.765, 16.728], [79.776, 16.731], [79.787, 16.73], [79.792, 16.726], [79.796, 16.716], [79.8, 16.709], [79.808, 16.706], [79.813, 16.695], [79.82, 16.691], [79.833, 16.698], [79.834, 16.701], [79.844, 16.706], [79.857, 16.707], [79.87, 16.702], [79.887, 16.686], [79.888, 16.684], [79.89, 16.661], [79.893, 16.652], [79.897, 16.644], [79.907, 16.634], [79.912, 16.633], [79.923, 16.631], [79.934, 16.631], [79.942, 16.634], [79.95, 16.634], [79.956, 16.637], [79.967, 16.646], [79.973, 16.655], [79.972, 16.661], [79.983, 16.673], [79.992, 16.691], [79.996, 16.694], [79.999, 16.7], [80.004, 16.707], [80.007, 16.709], [80.013, 16.709], [80.024, 16.712], [80.03, 16.715], [80.033, 16.718], [80.034, 16.725], [80.039, 16.731], [80.052, 16.741], [80.056, 16.747], [80.054, 16.759], [80.054, 16.765], [80.057, 16.772], [80.064, 16.782], [80.07, 16.796], [80.071, 16.803], [80.071, 16.813], [80.073, 16.817], [80.086, 16.822], [80.102, 16.823], [80.114, 16.822], [80.121, 16.816], [80.13, 16.799], [80.132, 16.787], [80.132, 16.772], [80.134, 16.761], [80.139, 16.751], [80.145, 16.733], [80.145, 16.725], [80.141, 16.714], [80.142, 16.705], [80.146, 16.694], [80.144, 16.685], [80.14, 16.678], [80.138, 16.672], [80.137, 16.657], [80.139, 16.652], [80.147, 16.646], [80.162, 16.644], [80.171, 16.639]]]}}]}