{"type": "FeatureCollection", "_source": "Lonar crater lake rim, hand-digitised in Google Earth.", "features": [{"type": "Feature", "properties": {"name": "Lonar Crater Lake"}, "geometry": {"type": "Polygon", "coordinates": [[[76.500824, 19.973226], [76.504975, 19.968961], [76.507858, 19.96838], [76.510944, 19.968497], [76.51444, 19.970587], [76.516624, 19.973421], [76.51747, 19.975037], [76.517239, 19.976584], [76.51686, 19.979351], [76.515398, 19.982308], [76.510217, 19.985066], [76.506988, 19.984636], [76.503666, 19.983779], [76.501216, 19.981161], [76.49937, 19.978069], [76.499454, 19.975506], [76.500824, 19.973226]]]}}]}