{"type": "FeatureCollection", "_source": "Narmada river course \u2014 extracted from the GSI/Bhukosh rivers layer (rivers.geojson). Simplified.", "features": [{"type": "Feature", "properties": {"name": "Narmada"}, "geometry": {"type": "MultiLineString", "coordinates": [[[72.84, 21.672], [72.835, 21.668], [72.814, 21.663], [72.802, 21.657], [72.785, 21.656], [72.771, 21.66], [72.742, 21.674], [72.731, 21.678], [72.716, 21.677], [72.709, 21.671], [72.697, 21.667], [72.663, 21.665], [72.647, 21.657], [72.633, 21.648], [72.616, 21.644], [72.594, 21.635]], [[72.919, 21.676], [72.911, 21.675], [72.907, 21.673], [72.9, 21.664], [72.893, 21.661], [72.883, 21.662], [72.867, 21.664], [72.86, 21.664], [72.845, 21.672], [72.84, 21.672]], [[72.919, 21.676], [72.899, 21.682], [72.875, 21.686], [72.866, 21.687], [72.851, 21.684], [72.841, 21.675], [72.84, 21.672]], [[73.042, 21.713], [73.02, 21.703], [73.011, 21.698], [72.999, 21.688], [72.985, 21.678], [72.971, 21.676], [72.938, 21.675], [72.919, 21.676]], [[73.122, 21.732], [73.113, 21.725], [73.105, 21.718], [73.096, 21.715], [73.082, 21.713], [73.071, 21.714], [73.062, 21.716], [73.052, 21.717], [73.042, 21.713]], [[73.122, 21.732], [73.107, 21.73], [73.096, 21.73], [73.085, 21.735], [73.077, 21.734], [73.071, 21.74], [73.063, 21.738], [73.046, 21.717], [73.042, 21.713]], [[73.136, 21.748], [73.127, 21.737], [73.122, 21.732]], [[73.136, 21.748], [73.143, 21.751], [73.15, 21.756], [73.162, 21.767], [73.173, 21.784], [73.176, 21.794], [73.173, 21.799], [73.164, 21.805], [73.159, 21.806], [73.15, 21.813], [73.147, 21.817], [73.14, 21.82]], [[73.138, 21.811], [73.139, 21.8], [73.138, 21.753], [73.136, 21.748]], [[73.14, 21.82], [73.138, 21.811]], [[77.378, 22.609], [77.373, 22.609], [77.36, 22.606], [77.355, 22.602], [77.349, 22.589], [77.342, 22.57], [77.335, 22.563], [77.322, 22.557], [77.317, 22.556], [77.297, 22.561], [77.291, 22.561], [77.283, 22.578], [77.278, 22.597], [77.271, 22.606], [77.267, 22.608], [77.256, 22.603], [77.249, 22.596], [77.239, 22.583], [77.22, 22.569], [77.215, 22.567], [77.206, 22.568], [77.2, 22.569], [77.174, 22.581], [77.167, 22.583], [77.16, 22.583], [77.154, 22.58], [77.145, 22.572], [77.14, 22.562], [77.126, 22.553], [77.113, 22.539], [77.11, 22.537], [77.098, 22.524], [77.091, 22.519], [77.084, 22.51], [77.074, 22.508], [77.053, 22.5], [77.02, 22.493], [77.014, 22.493], [77.003, 22.494], [76.995, 22.491], [76.983, 22.492], [76.973, 22.49], [76.953, 22.492], [76.94, 22.493], [76.936, 22.491], [76.922, 22.49], [76.901, 22.485], [76.889, 22.479], [76.876, 22.472], [76.863, 22.46], [76.839, 22.452], [76.825, 22.448], [76.82, 22.446], [76.805, 22.435], [76.793, 22.429], [76.79, 22.424], [76.789, 22.419], [76.791, 22.406], [76.791, 22.397], [76.786, 22.385], [76.781, 22.375], [76.78, 22.359], [76.776, 22.344], [76.77, 22.328], [76.762, 22.317], [76.75, 22.305], [76.72, 22.278], [76.704, 22.27], [76.663, 22.25], [76.647, 22.242], [76.633, 22.24], [76.621, 22.24], [76.612, 22.238], [76.594, 22.234], [76.578, 22.231], [76.571, 22.231], [76.555, 22.233], [76.543, 22.233], [76.529, 22.235], [76.513, 22.242], [76.504, 22.248], [76.5, 22.253], [76.498, 22.261], [76.49, 22.276], [76.484, 22.281], [76.462, 22.286], [76.459, 22.292], [76.469, 22.301], [76.467, 22.312], [76.468, 22.319], [76.464, 22.323], [76.445, 22.328], [76.439, 22.332], [76.423, 22.337], [76.415, 22.338], [76.405, 22.338], [76.395, 22.335], [76.379, 22.326], [76.357, 22.318], [76.351, 22.314], [76.348, 22.308], [76.341, 22.304], [76.326, 22.298], [76.316, 22.297], [76.307, 22.295], [76.291, 22.294], [76.265, 22.293], [76.25, 22.29], [76.237, 22.286], [76.224, 22.284], [76.208, 22.28], [76.205, 22.277], [76.203, 22.27], [76.202, 22.254], [76.2, 22.247], [76.197, 22.241], [76.189, 22.236], [76.178, 22.235], [76.169, 22.237], [76.16, 22.248], [76.157, 22.256], [76.147, 22.256], [76.14, 22.258], [76.124, 22.256], [76.115, 22.254], [76.096, 22.248], [76.089, 22.244], [76.065, 22.228], [76.057, 22.226], [76.042, 22.227], [76.032, 22.226], [76.021, 22.222], [76.016, 22.218], [76.006, 22.207], [75.996, 22.2], [75.99, 22.198], [75.973, 22.194], [75.956, 22.188], [75.949, 22.188], [75.938, 22.191], [75.928, 22.193], [75.912, 22.192], [75.871, 22.18], [75.856, 22.176], [75.846, 22.175], [75.821, 22.181], [75.812, 22.182], [75.804, 22.181], [75.777, 22.177], [75.768, 22.172], [75.759, 22.162], [75.754, 22.159], [75.745, 22.155], [75.734, 22.154], [75.711, 22.152], [75.699, 22.153], [75.683, 22.159], [75.655, 22.171], [75.642, 22.172], [75.614, 22.168], [75.584, 22.168], [75.567, 22.168], [75.552, 22.17], [75.548, 22.163], [75.542, 22.158], [75.531, 22.158], [75.521, 22.16], [75.513, 22.159], [75.503, 22.156], [75.484, 22.152], [75.469, 22.153], [75.462, 22.152], [75.447, 22.149], [75.422, 22.145], [75.401, 22.137], [75.395, 22.136], [75.386, 22.137], [75.38, 22.141], [75.373, 22.142], [75.352, 22.14], [75.33, 22.137], [75.313, 22.136], [75.297, 22.127], [75.288, 22.125], [75.279, 22.124], [75.253, 22.125], [75.247, 22.125], [75.231, 22.122], [75.214, 22.116], [75.2, 22.108], [75.188, 22.104], [75.166, 22.104], [75.153, 22.102], [75.134, 22.101], [75.095, 22.094], [75.088, 22.095], [75.063, 22.095], [75.028, 22.089], [75.008, 22.088], [74.988, 22.087], [74.971, 22.085], [74.961, 22.083], [74.948, 22.083], [74.923, 22.084], [74.916, 22.084], [74.89, 22.08], [74.877, 22.077], [74.847, 22.064], [74.834, 22.063], [74.822, 22.065], [74.814, 22.068], [74.794, 22.076], [74.786, 22.079], [74.776, 22.078], [74.765, 22.073], [74.751, 22.069], [74.73, 22.059], [74.707, 22.053], [74.695, 22.049], [74.683, 22.038], [74.672, 22.035], [74.666, 22.035], [74.641, 22.036], [74.626, 22.033], [74.613, 22.028], [74.59, 22.023], [74.564, 22.022], [74.56, 22.024], [74.555, 22.029], [74.541, 22.048], [74.538, 22.051], [74.528, 22.052], [74.499, 22.044], [74.475, 22.041], [74.451, 22.035], [74.427, 22.029], [74.416, 22.025], [74.395, 22.022], [74.386, 22.019], [74.382, 22.014], [74.379, 22.006], [74.353, 21.979], [74.347, 21.976], [74.337, 21.974], [74.319, 21.974], [74.305, 21.97], [74.297, 21.965], [74.295, 21.959], [74.292, 21.944], [74.289, 21.939], [74.282, 21.935], [74.27, 21.933], [74.24, 21.931], [74.225, 21.929], [74.193, 21.926], [74.186, 21.927], [74.18, 21.931], [74.166, 21.945], [74.155, 21.951], [74.144, 21.951], [74.133, 21.95], [74.112, 21.945], [74.098, 21.94], [74.088, 21.936], [74.07, 21.932], [74.056, 21.928], [74.036, 21.918], [74.034, 21.915], [74.024, 21.91], [74, 21.898], [73.973, 21.887], [73.941, 21.871], [73.926, 21.862], [73.918, 21.86], [73.902, 21.857], [73.89, 21.857], [73.886, 21.855], [73.88, 21.846], [73.871, 21.841], [73.865, 21.841], [73.852, 21.844], [73.832, 21.843], [73.811, 21.839], [73.801, 21.829], [73.79, 21.822], [73.777, 21.824], [73.767, 21.828], [73.759, 21.829], [73.744, 21.831], [73.741, 21.832], [73.732, 21.83], [73.719, 21.837], [73.71, 21.842], [73.698, 21.854], [73.695, 21.859], [73.693, 21.868], [73.687, 21.877], [73.68, 21.882], [73.668, 21.886], [73.659, 21.885], [73.639, 21.888], [73.624, 21.891], [73.605, 21.898], [73.599, 21.905], [73.593, 21.923], [73.591, 21.941], [73.588, 21.946], [73.583, 21.95], [73.57, 21.954], [73.566, 21.956], [73.552, 21.968], [73.548, 21.976], [73.541, 21.98], [73.536, 21.98], [73.528, 21.977], [73.515, 21.965], [73.508, 21.963], [73.498, 21.965], [73.486, 21.969], [73.479, 21.973], [73.468, 21.982], [73.464, 21.983], [73.452, 21.983], [73.444, 21.98], [73.44, 21.974], [73.439, 21.959], [73.443, 21.943], [73.44, 21.93], [73.438, 21.925], [73.432, 21.92], [73.419, 21.911], [73.411, 21.909], [73.4, 21.912], [73.384, 21.922], [73.376, 21.928], [73.368, 21.931], [73.36, 21.93], [73.354, 21.927], [73.346, 21.919], [73.345, 21.914], [73.344, 21.902], [73.346, 21.887], [73.345, 21.878], [73.334, 21.874], [73.326, 21.875], [73.318, 21.879], [73.292, 21.896], [73.285, 21.9], [73.275, 21.909], [73.273, 21.919], [73.265, 21.927], [73.258, 21.934], [73.249, 21.936], [73.242, 21.934], [73.235, 21.93], [73.228, 21.923], [73.223, 21.915], [73.222, 21.911], [73.222, 21.901], [73.225, 21.893], [73.234, 21.879], [73.248, 21.865], [73.249, 21.861], [73.248, 21.851], [73.245, 21.843], [73.238, 21.837], [73.223, 21.826], [73.217, 21.823], [73.203, 21.822], [73.197, 21.824], [73.181, 21.833], [73.16, 21.857], [73.154, 21.861], [73.146, 21.865], [73.142, 21.865], [73.137, 21.862], [73.13, 21.851], [73.131, 21.841], [73.139, 21.825], [73.14, 21.82]], [[77.378, 22.609], [77.391, 22.61], [77.4, 22.614], [77.409, 22.616]], [[77.409, 22.616], [77.406, 22.61], [77.398, 22.604], [77.391, 22.603], [77.378, 22.609]], [[81.751, 22.659], [81.755, 22.659], [81.758, 22.665], [81.759, 22.672], [81.752, 22.68], [81.747, 22.684], [81.738, 22.689], [81.73, 22.697], [81.723, 22.7], [81.716, 22.701], [81.711, 22.699], [81.694, 22.706], [81.692, 22.712], [81.699, 22.723], [81.701, 22.731], [81.704, 22.735], [81.704, 22.745], [81.695, 22.758], [81.693, 22.772], [81.694, 22.776], [81.686, 22.781], [81.676, 22.784], [81.673, 22.783], [81.665, 22.785], [81.658, 22.784], [81.656, 22.787], [81.651, 22.786], [81.642, 22.788], [81.634, 22.782], [81.629, 22.782], [81.626, 22.774], [81.618, 22.771], [81.615, 22.772], [81.607, 22.768], [81.606, 22.765], [81.597, 22.76], [81.594, 22.755], [81.586, 22.759], [81.581, 22.758], [81.577, 22.755], [81.57, 22.756], [81.564, 22.755], [81.563, 22.76], [81.551, 22.759], [81.544, 22.751], [81.536, 22.753], [81.521, 22.754], [81.52, 22.759], [81.515, 22.758], [81.509, 22.765], [81.504, 22.766], [81.501, 22.76], [81.496, 22.763], [81.491, 22.759], [81.484, 22.761], [81.478, 22.758], [81.468, 22.762], [81.467, 22.768], [81.463, 22.772], [81.459, 22.769], [81.453, 22.771], [81.453, 22.777], [81.445, 22.789], [81.451, 22.794], [81.44, 22.799], [81.435, 22.806], [81.434, 22.81], [81.438, 22.817], [81.437, 22.822], [81.43, 22.828], [81.43, 22.835], [81.424, 22.84], [81.419, 22.843], [81.411, 22.843], [81.403, 22.847], [81.405, 22.851], [81.402, 22.854], [81.395, 22.852], [81.39, 22.855], [81.379, 22.856], [81.37, 22.856], [81.366, 22.852], [81.36, 22.851], [81.35, 22.852], [81.346, 22.858], [81.341, 22.858], [81.336, 22.862], [81.33, 22.862], [81.325, 22.863], [81.32, 22.868], [81.316, 22.877], [81.312, 22.877], [81.3, 22.882], [81.287, 22.879], [81.278, 22.88], [81.266, 22.89], [81.259, 22.9], [81.256, 22.902], [81.241, 22.901], [81.232, 22.906], [81.215, 22.915], [81.211, 22.916], [81.201, 22.911], [81.195, 22.923], [81.191, 22.929], [81.193, 22.938], [81.191, 22.945], [81.186, 22.947], [81.175, 22.944], [81.172, 22.942], [81.159, 22.941], [81.151, 22.943], [81.135, 22.941], [81.12, 22.943], [81.113, 22.945], [81.103, 22.947], [81.097, 22.945], [81.085, 22.945], [81.079, 22.947], [81.073, 22.952], [81.067, 22.964], [81.063, 22.967], [81.046, 22.968], [81.032, 22.971], [81.03, 22.97], [81.027, 22.962], [81.026, 22.951], [81.023, 22.943], [81.028, 22.933], [81.024, 22.93], [81.009, 22.931], [81, 22.93], [80.993, 22.927], [80.984, 22.932], [80.98, 22.94], [80.974, 22.941], [80.958, 22.937], [80.942, 22.944], [80.931, 22.944], [80.928, 22.946], [80.922, 22.955], [80.914, 22.958], [80.907, 22.956], [80.902, 22.95], [80.903, 22.942], [80.9, 22.937], [80.895, 22.936], [80.889, 22.939], [80.887, 22.943], [80.889, 22.948], [80.899, 22.962], [80.895, 22.979], [80.895, 22.982], [80.902, 22.994], [80.901, 23.005], [80.904, 23.01], [80.903, 23.016], [80.891, 23.014], [80.883, 23.017], [80.874, 23.025], [80.87, 23.035], [80.862, 23.045], [80.849, 23.052], [80.827, 23.06], [80.82, 23.057], [80.82, 23.05], [80.825, 23.044], [80.822, 23.032], [80.827, 23.02], [80.822, 23.018], [80.812, 23.022], [80.806, 23.02], [80.804, 23.017], [80.811, 22.999], [80.809, 22.993], [80.804, 22.988], [80.799, 22.989], [80.795, 22.996], [80.795, 23.001], [80.785, 23.01], [80.78, 23.017], [80.775, 23.028], [80.769, 23.03], [80.766, 23.026], [80.765, 23.021], [80.767, 23.015], [80.766, 23.009], [80.763, 23.002], [80.756, 22.999], [80.748, 22.997], [80.741, 23], [80.737, 23.006], [80.732, 23.007], [80.725, 23.007], [80.719, 23.005], [80.713, 23.005], [80.699, 23], [80.683, 23.005], [80.68, 23.001], [80.679, 22.99], [80.675, 22.987], [80.671, 22.991], [80.668, 22.998], [80.664, 23.002], [80.657, 23.004], [80.653, 23.003], [80.647, 22.997], [80.646, 22.991], [80.65, 22.982], [80.657, 22.978], [80.66, 22.972], [80.655, 22.965], [80.651, 22.964], [80.648, 22.969], [80.64, 22.976], [80.631, 22.978], [80.628, 22.975], [80.628, 22.97], [80.631, 22.963], [80.633, 22.953], [80.63, 22.949], [80.622, 22.952], [80.619, 22.963], [80.612, 22.969], [80.604, 22.97], [80.596, 22.963], [80.59, 22.961], [80.588, 22.965], [80.595, 22.971], [80.595, 22.977], [80.592, 22.98], [80.587, 22.983], [80.581, 22.982], [80.576, 22.978], [80.576, 22.974], [80.572, 22.963], [80.566, 22.956], [80.554, 22.959], [80.546, 22.964], [80.542, 22.959], [80.54, 22.954], [80.54, 22.947], [80.533, 22.944], [80.524, 22.948], [80.518, 22.954], [80.514, 22.953], [80.509, 22.948], [80.511, 22.945], [80.52, 22.938], [80.528, 22.937], [80.533, 22.934], [80.536, 22.93], [80.54, 22.922], [80.541, 22.916], [80.539, 22.9], [80.535, 22.896], [80.527, 22.875], [80.521, 22.87], [80.507, 22.865], [80.499, 22.864], [80.495, 22.861], [80.492, 22.855], [80.485, 22.847], [80.476, 22.844], [80.468, 22.837], [80.469, 22.832], [80.472, 22.829], [80.48, 22.83], [80.487, 22.827], [80.491, 22.823], [80.496, 22.811], [80.495, 22.806], [80.498, 22.803], [80.506, 22.804], [80.515, 22.802], [80.519, 22.798], [80.517, 22.794], [80.504, 22.783], [80.504, 22.779], [80.507, 22.768], [80.504, 22.761], [80.492, 22.758], [80.487, 22.754], [80.486, 22.746], [80.492, 22.74], [80.499, 22.738], [80.505, 22.742], [80.511, 22.74], [80.519, 22.724], [80.519, 22.712], [80.511, 22.705], [80.505, 22.703], [80.502, 22.697], [80.502, 22.686], [80.496, 22.678], [80.485, 22.674], [80.476, 22.674], [80.474, 22.671], [80.479, 22.668], [80.489, 22.657], [80.497, 22.66], [80.502, 22.66], [80.507, 22.653], [80.502, 22.648], [80.501, 22.644], [80.504, 22.638], [80.504, 22.626], [80.508, 22.622], [80.51, 22.618], [80.506, 22.613], [80.499, 22.612], [80.493, 22.616], [80.486, 22.612], [80.482, 22.609], [80.476, 22.598], [80.474, 22.588], [80.467, 22.587], [80.457, 22.592], [80.452, 22.591], [80.45, 22.587], [80.456, 22.583], [80.458, 22.578], [80.452, 22.574], [80.45, 22.579], [80.446, 22.579], [80.437, 22.573], [80.425, 22.567], [80.416, 22.568], [80.409, 22.58], [80.405, 22.583], [80.4, 22.583], [80.391, 22.586], [80.39, 22.593], [80.387, 22.596], [80.379, 22.598], [80.375, 22.595], [80.371, 22.586], [80.367, 22.588], [80.366, 22.594], [80.362, 22.601], [80.361, 22.608], [80.358, 22.611], [80.351, 22.612], [80.343, 22.62], [80.337, 22.619], [80.336, 22.634], [80.332, 22.639], [80.331, 22.648], [80.329, 22.651], [80.322, 22.653], [80.316, 22.658], [80.316, 22.662], [80.32, 22.676], [80.328, 22.689], [80.331, 22.696], [80.331, 22.703], [80.326, 22.719], [80.322, 22.724], [80.316, 22.727], [80.31, 22.728], [80.299, 22.723], [80.293, 22.723], [80.286, 22.728], [80.285, 22.731], [80.283, 22.751], [80.279, 22.76], [80.278, 22.766], [80.281, 22.778], [80.281, 22.784], [80.278, 22.789], [80.258, 22.796], [80.24, 22.796], [80.228, 22.799], [80.218, 22.8], [80.21, 22.798], [80.206, 22.793], [80.205, 22.78], [80.201, 22.776], [80.192, 22.774], [80.185, 22.767], [80.178, 22.765], [80.168, 22.767], [80.155, 22.767], [80.139, 22.765], [80.127, 22.766], [80.105, 22.769], [80.096, 22.769], [80.082, 22.765], [80.067, 22.765], [80.061, 22.767], [80.052, 22.772], [80.032, 22.782], [80.026, 22.788], [80.02, 22.805], [80.01, 22.823], [80.006, 22.827], [80, 22.83], [79.99, 22.83], [79.983, 22.835], [79.98, 22.838], [79.965, 22.849], [79.949, 22.854], [79.936, 22.863], [79.933, 22.867], [79.931, 22.879], [79.931, 22.886], [79.934, 22.908], [79.933, 22.92], [79.931, 22.928], [79.925, 22.94], [79.917, 22.945], [79.909, 22.958], [79.905, 22.974], [79.902, 22.987], [79.903, 22.993], [79.912, 22.996], [79.92, 23.002], [79.929, 23.015], [79.928, 23.028], [79.931, 23.035], [79.942, 23.05], [79.947, 23.057], [79.951, 23.06], [79.962, 23.065], [79.965, 23.068], [79.964, 23.075], [79.959, 23.078], [79.957, 23.083], [79.949, 23.09], [79.943, 23.099], [79.938, 23.104], [79.929, 23.103], [79.918, 23.106], [79.913, 23.105], [79.904, 23.108], [79.893, 23.113], [79.886, 23.113], [79.874, 23.108], [79.864, 23.109], [79.853, 23.109], [79.839, 23.104], [79.828, 23.105], [79.827, 23.109], [79.819, 23.118], [79.817, 23.124], [79.812, 23.126], [79.801, 23.125], [79.796, 23.128], [79.799, 23.133], [79.798, 23.138], [79.79, 23.139], [79.783, 23.136], [79.778, 23.133], [79.762, 23.125], [79.745, 23.115], [79.728, 23.109], [79.721, 23.108], [79.708, 23.111], [79.701, 23.107], [79.697, 23.103], [79.692, 23.101], [79.677, 23.104], [79.672, 23.099], [79.668, 23.092], [79.664, 23.091], [79.657, 23.097], [79.653, 23.105], [79.649, 23.107], [79.639, 23.104], [79.629, 23.107], [79.61, 23.106], [79.601, 23.108], [79.595, 23.111], [79.587, 23.111], [79.58, 23.112], [79.579, 23.115], [79.577, 23.129], [79.572, 23.134], [79.565, 23.137], [79.556, 23.136], [79.543, 23.14], [79.534, 23.14], [79.52, 23.143], [79.515, 23.144], [79.508, 23.14], [79.501, 23.134], [79.497, 23.128], [79.48, 23.119], [79.477, 23.116], [79.464, 23.101], [79.458, 23.097], [79.453, 23.098], [79.446, 23.102], [79.442, 23.107], [79.433, 23.108], [79.422, 23.105], [79.412, 23.103], [79.402, 23.1], [79.396, 23.103], [79.389, 23.11], [79.385, 23.113], [79.377, 23.113], [79.364, 23.105], [79.347, 23.107], [79.34, 23.102], [79.33, 23.098], [79.311, 23.1], [79.306, 23.095], [79.295, 23.09], [79.282, 23.09], [79.274, 23.094], [79.257, 23.094], [79.248, 23.088], [79.24, 23.081], [79.234, 23.08], [79.22, 23.08], [79.204, 23.075], [79.19, 23.072], [79.176, 23.069], [79.156, 23.068], [79.149, 23.067], [79.145, 23.074], [79.138, 23.075], [79.133, 23.078], [79.124, 23.076], [79.118, 23.071], [79.114, 23.066], [79.104, 23.055], [79.094, 23.042], [79.089, 23.039], [79.092, 23.031], [79.092, 23.02], [79.09, 23.015], [79.083, 23.012], [79.076, 23.01], [79.069, 23.012], [79.064, 23.016], [79.059, 23.018], [79.049, 23.017], [79.035, 23.019], [79.028, 23.024], [79.025, 23.029], [79.01, 23.03], [79, 23.036], [78.993, 23.037], [78.981, 23.046], [78.979, 23.056], [78.97, 23.056], [78.96, 23.054], [78.951, 23.051], [78.943, 23.049], [78.934, 23.053], [78.93, 23.049], [78.914, 23.052], [78.898, 23.053], [78.889, 23.053], [78.873, 23.054], [78.865, 23.052], [78.86, 23.047], [78.855, 23.044], [78.844, 23.048], [78.832, 23.05], [78.824, 23.055], [78.818, 23.057], [78.81, 23.055], [78.799, 23.05], [78.795, 23.047], [78.787, 23.048], [78.777, 23.052], [78.769, 23.046], [78.759, 23.047], [78.755, 23.051], [78.752, 23.059], [78.748, 23.062], [78.742, 23.062], [78.736, 23.056], [78.735, 23.049], [78.733, 23.044], [78.728, 23.042], [78.72, 23.043], [78.71, 23.042], [78.693, 23.035], [78.686, 23.036], [78.679, 23.039], [78.668, 23.037], [78.662, 23.033], [78.655, 23.024], [78.651, 23.021], [78.645, 23.021], [78.641, 23.023], [78.63, 23.03], [78.626, 23.031], [78.617, 23.029], [78.61, 23.018], [78.598, 23.011], [78.585, 23.01], [78.576, 23.014], [78.566, 23.017], [78.557, 23.018], [78.55, 23.017], [78.531, 23.01], [78.515, 23.012], [78.507, 23.011], [78.495, 23.006], [78.472, 23.007], [78.46, 23.002], [78.447, 22.99], [78.44, 22.985], [78.43, 22.976], [78.422, 22.971], [78.404, 22.967], [78.397, 22.964], [78.39, 22.958], [78.386, 22.952], [78.379, 22.939], [78.37, 22.932], [78.362, 22.928], [78.349, 22.918], [78.345, 22.917], [78.333, 22.92], [78.326, 22.92], [78.32, 22.917], [78.311, 22.907], [78.3, 22.89], [78.292, 22.884], [78.289, 22.876], [78.284, 22.867], [78.279, 22.866], [78.268, 22.873], [78.263, 22.877], [78.259, 22.877], [78.252, 22.875], [78.239, 22.867], [78.235, 22.867], [78.227, 22.875], [78.223, 22.883], [78.22, 22.894], [78.216, 22.897], [78.206, 22.897], [78.201, 22.896], [78.192, 22.89], [78.186, 22.881], [78.182, 22.869], [78.177, 22.868], [78.16, 22.864], [78.157, 22.862], [78.143, 22.847], [78.126, 22.836], [78.123, 22.828], [78.126, 22.815], [78.129, 22.808], [78.129, 22.802], [78.123, 22.792], [78.116, 22.789], [78.106, 22.788], [78.098, 22.79], [78.09, 22.795], [78.07, 22.812], [78.061, 22.816], [78.054, 22.814], [78.045, 22.809], [78.031, 22.799], [78.025, 22.801], [78.012, 22.813], [78.003, 22.823], [77.996, 22.826], [77.984, 22.826], [77.972, 22.828], [77.959, 22.827], [77.949, 22.821], [77.94, 22.811], [77.929, 22.805], [77.921, 22.808], [77.915, 22.819], [77.916, 22.825], [77.924, 22.833], [77.932, 22.838], [77.932, 22.847], [77.924, 22.858], [77.919, 22.86], [77.911, 22.857], [77.886, 22.834], [77.877, 22.827], [77.869, 22.83], [77.863, 22.835], [77.862, 22.84], [77.865, 22.851], [77.872, 22.862], [77.868, 22.868], [77.855, 22.873], [77.847, 22.873], [77.843, 22.871], [77.837, 22.867], [77.828, 22.858], [77.821, 22.851], [77.808, 22.846], [77.797, 22.84], [77.787, 22.824], [77.782, 22.813], [77.778, 22.802], [77.779, 22.794], [77.751, 22.771], [77.744, 22.764], [77.737, 22.759], [77.729, 22.757], [77.723, 22.762], [77.712, 22.767], [77.703, 22.768], [77.695, 22.768], [77.69, 22.765], [77.683, 22.756], [77.677, 22.742], [77.677, 22.738], [77.669, 22.732], [77.659, 22.733], [77.641, 22.744], [77.634, 22.747], [77.628, 22.747], [77.624, 22.745], [77.614, 22.737], [77.61, 22.726], [77.591, 22.699], [77.59, 22.692], [77.585, 22.681], [77.581, 22.675], [77.574, 22.671], [77.564, 22.668], [77.556, 22.668], [77.545, 22.67], [77.535, 22.669], [77.524, 22.667], [77.52, 22.664], [77.516, 22.653], [77.509, 22.649], [77.491, 22.643], [77.48, 22.647], [77.468, 22.647], [77.459, 22.645], [77.446, 22.638], [77.435, 22.629], [77.431, 22.626], [77.422, 22.623], [77.415, 22.618], [77.409, 22.616]]]}}]}