{"type": "FeatureCollection", "_source": "Tapi river course \u2014 extracted from the GSI/Bhukosh rivers layer (rivers.geojson). Simplified.", "features": [{"type": "Feature", "properties": {"name": "Tapi"}, "geometry": {"type": "LineString", "coordinates": [[78.262, 21.783], [78.26, 21.779], [78.254, 21.776], [78.25, 21.769], [78.244, 21.766], [78.238, 21.76], [78.232, 21.76], [78.229, 21.756], [78.219, 21.748], [78.215, 21.742], [78.208, 21.736], [78.203, 21.728], [78.204, 21.723], [78.202, 21.715], [78.197, 21.703], [78.193, 21.699], [78.186, 21.697], [78.183, 21.698], [78.171, 21.699], [78.162, 21.695], [78.149, 21.696], [78.143, 21.692], [78.131, 21.694], [78.121, 21.693], [78.113, 21.687], [78.102, 21.686], [78.098, 21.688], [78.093, 21.683], [78.091, 21.676], [78.084, 21.673], [78.071, 21.677], [78.062, 21.671], [78.056, 21.674], [78.057, 21.679], [78.054, 21.685], [78.048, 21.686], [78.038, 21.682], [78.025, 21.671], [78.019, 21.67], [78.014, 21.673], [78.01, 21.673], [78.003, 21.671], [77.998, 21.674], [77.997, 21.682], [77.985, 21.686], [77.98, 21.692], [77.969, 21.691], [77.961, 21.694], [77.957, 21.701], [77.949, 21.709], [77.949, 21.721], [77.943, 21.722], [77.935, 21.717], [77.931, 21.722], [77.932, 21.727], [77.929, 21.735], [77.923, 21.737], [77.918, 21.735], [77.919, 21.723], [77.916, 21.723], [77.913, 21.726], [77.908, 21.726], [77.903, 21.723], [77.892, 21.726], [77.886, 21.726], [77.881, 21.723], [77.873, 21.726], [77.869, 21.723], [77.874, 21.718], [77.874, 21.714], [77.868, 21.714], [77.864, 21.722], [77.86, 21.725], [77.855, 21.725], [77.851, 21.72], [77.847, 21.72], [77.837, 21.723], [77.833, 21.722], [77.823, 21.716], [77.819, 21.718], [77.816, 21.725], [77.812, 21.729], [77.808, 21.726], [77.804, 21.721], [77.799, 21.72], [77.795, 21.723], [77.799, 21.727], [77.804, 21.73], [77.804, 21.742], [77.808, 21.744], [77.817, 21.742], [77.821, 21.75], [77.814, 21.757], [77.809, 21.757], [77.806, 21.753], [77.802, 21.752], [77.797, 21.756], [77.797, 21.762], [77.803, 21.765], [77.81, 21.767], [77.813, 21.772], [77.81, 21.775], [77.803, 21.775], [77.798, 21.778], [77.788, 21.781], [77.784, 21.786], [77.786, 21.794], [77.793, 21.802], [77.793, 21.806], [77.79, 21.809], [77.785, 21.811], [77.782, 21.816], [77.772, 21.815], [77.761, 21.818], [77.755, 21.815], [77.75, 21.809], [77.742, 21.809], [77.729, 21.817], [77.723, 21.816], [77.718, 21.811], [77.712, 21.81], [77.709, 21.811], [77.696, 21.805], [77.685, 21.806], [77.674, 21.81], [77.668, 21.807], [77.66, 21.808], [77.646, 21.811], [77.637, 21.808], [77.634, 21.805], [77.63, 21.798], [77.627, 21.798], [77.625, 21.804], [77.618, 21.809], [77.614, 21.807], [77.611, 21.801], [77.608, 21.8], [77.599, 21.809], [77.596, 21.81], [77.587, 21.797], [77.584, 21.795], [77.579, 21.797], [77.575, 21.802], [77.565, 21.808], [77.56, 21.807], [77.548, 21.811], [77.543, 21.806], [77.538, 21.805], [77.529, 21.808], [77.525, 21.808], [77.517, 21.817], [77.511, 21.816], [77.504, 21.812], [77.496, 21.821], [77.489, 21.815], [77.487, 21.811], [77.489, 21.802], [77.485, 21.799], [77.479, 21.802], [77.478, 21.806], [77.471, 21.807], [77.46, 21.811], [77.448, 21.813], [77.441, 21.811], [77.427, 21.8], [77.424, 21.794], [77.419, 21.79], [77.414, 21.792], [77.415, 21.798], [77.412, 21.799], [77.403, 21.806], [77.398, 21.806], [77.388, 21.802], [77.38, 21.804], [77.375, 21.804], [77.371, 21.797], [77.367, 21.798], [77.365, 21.804], [77.36, 21.809], [77.353, 21.808], [77.355, 21.797], [77.353, 21.794], [77.348, 21.794], [77.34, 21.798], [77.334, 21.806], [77.331, 21.812], [77.325, 21.813], [77.317, 21.812], [77.312, 21.817], [77.306, 21.815], [77.298, 21.818], [77.289, 21.813], [77.286, 21.809], [77.288, 21.804], [77.294, 21.797], [77.298, 21.79], [77.298, 21.782], [77.295, 21.776], [77.287, 21.775], [77.282, 21.776], [77.27, 21.776], [77.266, 21.77], [77.258, 21.767], [77.247, 21.764], [77.241, 21.761], [77.234, 21.76], [77.23, 21.761], [77.226, 21.759], [77.228, 21.748], [77.215, 21.742], [77.21, 21.734], [77.211, 21.726], [77.204, 21.721], [77.195, 21.722], [77.191, 21.721], [77.186, 21.723], [77.181, 21.723], [77.176, 21.726], [77.17, 21.723], [77.17, 21.715], [77.163, 21.711], [77.153, 21.711], [77.146, 21.713], [77.139, 21.72], [77.131, 21.722], [77.117, 21.722], [77.101, 21.717], [77.087, 21.715], [77.083, 21.716], [77.079, 21.72], [77.074, 21.72], [77.07, 21.717], [77.064, 21.711], [77.062, 21.706], [77.05, 21.704], [77.04, 21.698], [77.035, 21.693], [77.027, 21.69], [77.014, 21.682], [77.009, 21.68], [76.995, 21.671], [76.991, 21.664], [76.976, 21.657], [76.973, 21.65], [76.962, 21.645], [76.952, 21.642], [76.943, 21.633], [76.931, 21.625], [76.928, 21.625], [76.918, 21.615], [76.91, 21.609], [76.908, 21.605], [76.904, 21.599], [76.898, 21.596], [76.893, 21.599], [76.885, 21.6], [76.874, 21.605], [76.868, 21.61], [76.855, 21.614], [76.846, 21.609], [76.843, 21.607], [76.84, 21.594], [76.836, 21.59], [76.828, 21.589], [76.815, 21.592], [76.806, 21.593], [76.799, 21.596], [76.795, 21.595], [76.79, 21.582], [76.784, 21.576], [76.781, 21.569], [76.781, 21.55], [76.789, 21.541], [76.79, 21.536], [76.781, 21.529], [76.769, 21.527], [76.757, 21.515], [76.747, 21.502], [76.745, 21.499], [76.735, 21.496], [76.733, 21.493], [76.725, 21.488], [76.723, 21.484], [76.723, 21.478], [76.721, 21.472], [76.715, 21.469], [76.711, 21.462], [76.703, 21.46], [76.698, 21.46], [76.689, 21.464], [76.681, 21.472], [76.668, 21.477], [76.663, 21.476], [76.657, 21.47], [76.656, 21.463], [76.662, 21.457], [76.659, 21.453], [76.651, 21.45], [76.642, 21.449], [76.637, 21.449], [76.629, 21.441], [76.63, 21.437], [76.625, 21.432], [76.616, 21.426], [76.609, 21.417], [76.604, 21.415], [76.596, 21.416], [76.588, 21.42], [76.583, 21.427], [76.578, 21.433], [76.57, 21.438], [76.557, 21.437], [76.548, 21.438], [76.529, 21.431], [76.522, 21.43], [76.512, 21.43], [76.502, 21.434], [76.498, 21.446], [76.488, 21.449], [76.477, 21.445], [76.469, 21.444], [76.452, 21.439], [76.438, 21.434], [76.433, 21.429], [76.428, 21.428], [76.421, 21.43], [76.398, 21.431], [76.38, 21.416], [76.372, 21.411], [76.365, 21.412], [76.347, 21.405], [76.339, 21.401], [76.319, 21.386], [76.317, 21.379], [76.319, 21.375], [76.314, 21.371], [76.308, 21.359], [76.303, 21.356], [76.291, 21.353], [76.282, 21.347], [76.274, 21.336], [76.269, 21.332], [76.261, 21.327], [76.254, 21.318], [76.25, 21.315], [76.24, 21.314], [76.238, 21.301], [76.226, 21.293], [76.22, 21.28], [76.219, 21.271], [76.215, 21.264], [76.213, 21.257], [76.208, 21.255], [76.2, 21.257], [76.198, 21.261], [76.188, 21.265], [76.182, 21.259], [76.169, 21.255], [76.163, 21.25], [76.16, 21.244], [76.156, 21.242], [76.15, 21.244], [76.141, 21.242], [76.139, 21.238], [76.142, 21.227], [76.138, 21.217], [76.14, 21.208], [76.139, 21.201], [76.121, 21.2], [76.111, 21.205], [76.105, 21.202], [76.102, 21.196], [76.099, 21.174], [76.093, 21.17], [76.087, 21.172], [76.08, 21.173], [76.068, 21.171], [76.061, 21.167], [76.058, 21.163], [76.06, 21.157], [76.067, 21.149], [76.074, 21.146], [76.075, 21.141], [76.072, 21.139], [76.059, 21.139], [76.049, 21.127], [76.023, 21.112], [76.017, 21.108], [76.009, 21.097], [76, 21.097], [75.994, 21.101], [75.988, 21.102], [75.982, 21.102], [75.966, 21.094], [75.959, 21.081], [75.953, 21.075], [75.947, 21.073], [75.931, 21.071], [75.913, 21.071], [75.905, 21.069], [75.892, 21.062], [75.882, 21.06], [75.876, 21.059], [75.866, 21.062], [75.853, 21.064], [75.842, 21.059], [75.839, 21.059], [75.823, 21.065], [75.817, 21.066], [75.809, 21.065], [75.801, 21.063], [75.793, 21.064], [75.78, 21.068], [75.769, 21.07], [75.76, 21.074], [75.754, 21.079], [75.748, 21.081], [75.74, 21.079], [75.731, 21.082], [75.727, 21.084], [75.724, 21.089], [75.718, 21.091], [75.714, 21.088], [75.71, 21.095], [75.705, 21.096], [75.693, 21.096], [75.684, 21.1], [75.678, 21.111], [75.672, 21.115], [75.664, 21.116], [75.657, 21.109], [75.65, 21.108], [75.643, 21.109], [75.638, 21.111], [75.621, 21.127], [75.611, 21.127], [75.601, 21.121], [75.59, 21.119], [75.579, 21.12], [75.573, 21.122], [75.559, 21.13], [75.551, 21.141], [75.546, 21.142], [75.538, 21.142], [75.524, 21.144], [75.515, 21.144], [75.501, 21.148], [75.495, 21.151], [75.491, 21.158], [75.486, 21.16], [75.464, 21.159], [75.46, 21.16], [75.454, 21.165], [75.451, 21.174], [75.448, 21.177], [75.441, 21.179], [75.419, 21.176], [75.415, 21.177], [75.392, 21.174], [75.384, 21.172], [75.378, 21.172], [75.37, 21.174], [75.364, 21.175], [75.357, 21.17], [75.35, 21.164], [75.344, 21.162], [75.336, 21.157], [75.333, 21.151], [75.334, 21.142], [75.33, 21.138], [75.326, 21.137], [75.319, 21.143], [75.308, 21.143], [75.3, 21.145], [75.288, 21.154], [75.276, 21.155], [75.267, 21.149], [75.26, 21.147], [75.254, 21.146], [75.247, 21.148], [75.228, 21.15], [75.214, 21.155], [75.202, 21.166], [75.194, 21.172], [75.186, 21.182], [75.181, 21.184], [75.173, 21.184], [75.167, 21.18], [75.163, 21.171], [75.156, 21.167], [75.15, 21.166], [75.139, 21.173], [75.13, 21.175], [75.116, 21.174], [75.112, 21.176], [75.099, 21.181], [75.088, 21.181], [75.074, 21.175], [75.064, 21.175], [75.055, 21.181], [75.043, 21.187], [75.039, 21.187], [75.035, 21.183], [75.022, 21.187], [75.004, 21.187], [75, 21.188], [74.992, 21.193], [74.984, 21.202], [74.976, 21.219], [74.971, 21.223], [74.967, 21.224], [74.96, 21.222], [74.95, 21.221], [74.943, 21.228], [74.941, 21.234], [74.94, 21.239], [74.946, 21.244], [74.948, 21.254], [74.941, 21.258], [74.919, 21.259], [74.905, 21.263], [74.883, 21.276], [74.874, 21.281], [74.858, 21.281], [74.847, 21.28], [74.832, 21.282], [74.82, 21.286], [74.805, 21.3], [74.795, 21.308], [74.794, 21.315], [74.797, 21.32], [74.805, 21.324], [74.806, 21.332], [74.803, 21.336], [74.789, 21.335], [74.784, 21.336], [74.782, 21.34], [74.776, 21.355], [74.775, 21.362], [74.767, 21.367], [74.753, 21.367], [74.747, 21.367], [74.734, 21.376], [74.724, 21.378], [74.715, 21.375], [74.705, 21.377], [74.702, 21.387], [74.691, 21.401], [74.686, 21.404], [74.68, 21.406], [74.669, 21.407], [74.657, 21.407], [74.64, 21.402], [74.634, 21.403], [74.626, 21.407], [74.618, 21.412], [74.608, 21.414], [74.598, 21.415], [74.592, 21.414], [74.576, 21.403], [74.569, 21.403], [74.564, 21.407], [74.558, 21.414], [74.539, 21.424], [74.525, 21.429], [74.512, 21.43], [74.503, 21.427], [74.49, 21.427], [74.474, 21.435], [74.46, 21.44], [74.45, 21.446], [74.446, 21.447], [74.432, 21.447], [74.422, 21.438], [74.417, 21.437], [74.409, 21.439], [74.398, 21.45], [74.395, 21.455], [74.393, 21.464], [74.384, 21.476], [74.378, 21.481], [74.369, 21.483], [74.365, 21.487], [74.359, 21.495], [74.356, 21.505], [74.347, 21.512], [74.337, 21.511], [74.33, 21.513], [74.323, 21.521], [74.314, 21.528], [74.309, 21.531], [74.299, 21.529], [74.29, 21.521], [74.285, 21.517], [74.272, 21.512], [74.254, 21.509], [74.24, 21.513], [74.223, 21.522], [74.208, 21.526], [74.204, 21.523], [74.196, 21.514], [74.188, 21.512], [74.18, 21.514], [74.165, 21.525], [74.155, 21.525], [74.144, 21.516], [74.138, 21.512], [74.129, 21.51], [74.117, 21.507], [74.107, 21.504], [74.095, 21.498], [74.087, 21.497], [74.036, 21.495], [74.026, 21.494], [74.014, 21.492], [73.997, 21.486], [73.99, 21.482], [73.978, 21.468], [73.968, 21.459], [73.957, 21.457], [73.947, 21.459], [73.941, 21.458], [73.928, 21.452], [73.914, 21.448], [73.907, 21.448], [73.899, 21.451], [73.888, 21.45], [73.88, 21.446], [73.846, 21.431], [73.836, 21.423], [73.83, 21.417], [73.824, 21.408], [73.82, 21.399], [73.818, 21.393], [73.819, 21.374], [73.813, 21.364], [73.805, 21.358], [73.8, 21.355], [73.787, 21.354], [73.769, 21.347], [73.762, 21.342], [73.754, 21.338], [73.74, 21.334], [73.731, 21.329], [73.716, 21.321], [73.71, 21.315], [73.705, 21.306], [73.704, 21.291], [73.709, 21.28], [73.709, 21.273], [73.701, 21.259], [73.697, 21.252], [73.688, 21.243], [73.682, 21.24], [73.675, 21.238], [73.652, 21.238], [73.643, 21.241], [73.607, 21.247], [73.593, 21.247], [73.586, 21.25], [73.584, 21.258], [73.554, 21.263], [73.546, 21.265], [73.529, 21.271], [73.523, 21.273], [73.504, 21.272], [73.495, 21.27], [73.475, 21.268], [73.454, 21.264], [73.442, 21.267], [73.435, 21.272], [73.425, 21.276], [73.413, 21.278], [73.401, 21.277], [73.373, 21.27], [73.363, 21.268], [73.357, 21.269], [73.35, 21.273], [73.343, 21.272], [73.339, 21.257], [73.331, 21.245], [73.317, 21.242], [73.307, 21.242], [73.297, 21.251], [73.289, 21.255], [73.284, 21.255], [73.275, 21.253], [73.257, 21.244], [73.251, 21.239], [73.234, 21.232], [73.227, 21.228], [73.221, 21.224], [73.21, 21.219], [73.193, 21.221], [73.184, 21.223], [73.179, 21.223], [73.176, 21.225], [73.169, 21.221], [73.161, 21.224], [73.153, 21.228], [73.148, 21.237], [73.139, 21.246], [73.125, 21.256], [73.124, 21.264], [73.122, 21.264], [73.118, 21.273], [73.113, 21.278], [73.1, 21.283], [73.079, 21.282], [73.075, 21.283], [73.065, 21.29], [73.058, 21.291], [73.047, 21.288], [73.035, 21.292], [73.016, 21.302], [73, 21.305], [72.981, 21.316], [72.977, 21.317], [72.965, 21.308], [72.965, 21.301], [72.968, 21.294], [72.968, 21.287], [72.961, 21.283], [72.955, 21.283], [72.943, 21.284], [72.936, 21.284], [72.922, 21.279], [72.918, 21.275], [72.91, 21.262], [72.908, 21.251], [72.906, 21.246], [72.88, 21.227], [72.872, 21.224], [72.86, 21.225], [72.854, 21.227], [72.846, 21.232], [72.842, 21.238], [72.832, 21.247], [72.82, 21.257], [72.815, 21.257], [72.81, 21.254], [72.794, 21.242], [72.792, 21.238], [72.793, 21.231], [72.805, 21.216], [72.816, 21.208], [72.818, 21.204], [72.817, 21.198], [72.812, 21.192], [72.804, 21.186], [72.797, 21.181], [72.779, 21.178], [72.77, 21.172], [72.765, 21.162], [72.752, 21.151], [72.744, 21.146], [72.735, 21.141], [72.727, 21.141], [72.721, 21.142]]}}]}