{"type": "FeatureCollection", "_source": "Thar Desert (WWF ecoregion IM1304) \u2014 traced from a georeferenced raster via georeference.ai, referencing a Wikipedia ecoregion map. Approximate.", "features": [{"type": "Feature", "properties": {"name": "Thar Desert"}, "geometry": {"type": "Polygon", "coordinates": [[[73.6404, 29.4247], [74.1276, 29.3804], [74.2162, 29.2475], [74.8363, 29.3361], [75.4122, 28.9375], [75.5451, 28.5831], [75.0578, 28.1844], [74.6592, 28.0959], [74.1276, 27.2542], [73.9504, 27.2985], [73.9504, 27.8301], [73.4189, 27.9187], [73.2417, 27.4757], [72.0457, 26.767], [71.9129, 26.4569], [71.5585, 26.1912], [71.5142, 25.5267], [70.9384, 25.3938], [71.0712, 24.8623], [70.9827, 24.4636], [70.5397, 24.4636], [69.7867, 24.065], [68.9894, 24.1979], [69.6981, 24.9952], [69.7424, 25.4824], [69.5209, 25.9697], [69.1666, 26.014], [68.7236, 26.5012], [68.635, 26.9885], [69.078, 27.1214], [69.4323, 27.6529], [70.3182, 28.1401], [71.1598, 28.8932], [73.5961, 29.3804], [73.6404, 29.4247]]]}}]}