{"type": "FeatureCollection", "features": [{"type": "Feature", "properties": {"name": "Western Ghats"}, "geometry": {"type": "Polygon", "coordinates": [[[74.0013, 21.8101], [74.0621, 21.7797], [74.0926, 21.5667], [74.0317, 21.5059], [73.8796, 20.8366], [73.7275, 20.502], [73.6363, 20.0457], [73.5146, 19.8632], [73.5146, 19.346], [73.4537, 19.2852], [73.4537, 19.0722], [73.545, 18.8593], [73.5754, 18.2813], [73.6971, 18.0379], [73.6971, 17.8249], [73.8492, 17.5512], [73.8188, 17.1861], [73.9709, 16.7602], [74.0013, 16.4256], [74.1838, 16.1822], [74.1838, 15.9997], [74.3055, 15.6955], [74.7314, 15.1175], [75.1573, 14.6611], [75.3094, 14.2352], [75.5528, 13.9615], [75.5224, 13.5051], [75.644, 13.353], [75.6745, 12.988], [75.8266, 12.8663], [76.0395, 12.5317], [76.2221, 12.1058], [76.2525, 11.8624], [76.5263, 11.619], [76.8609, 11.6494], [77.1043, 11.5582], [77.0738, 11.4061], [76.8001, 11.1931], [76.7696, 10.7977], [77.0434, 10.4022], [77.3781, 10.2501], [77.3781, 10.1284], [77.4693, 10.0067], [77.2564, 9.1853], [77.2564, 8.7899], [77.4389, 8.5465], [77.1043, 8.5465], [76.8913, 8.7899], [76.8001, 9.1549], [76.6784, 9.3679], [76.8001, 9.52], [76.8001, 9.7025], [76.435, 10.2501], [76.3437, 10.5543], [76.3437, 10.8889], [76.2221, 11.2235], [75.7353, 11.7407], [75.5832, 12.0145], [75.4615, 12.1058], [75.4311, 12.2274], [75.2486, 12.41], [75.2182, 12.7142], [75.0965, 12.988], [75.0965, 13.1097], [75.2182, 13.1401], [75.2182, 13.3226], [75.0052, 13.5051], [74.7314, 14.0527], [74.488, 14.3265], [74.4272, 14.6307], [74.2143, 14.8437], [74.1838, 15.3], [74.0926, 15.6346], [73.91, 16.0605], [73.6971, 16.2735], [73.4233, 17.2165], [73.4233, 17.4295], [73.2712, 17.7337], [73.1191, 18.2813], [72.9974, 19.1026], [73.0582, 19.2547], [73.0887, 19.8023], [72.8453, 20.1674], [73.0887, 20.3499], [73.3625, 21.0192], [73.7884, 21.3234], [73.7884, 21.4755], [73.8796, 21.5363], [73.9709, 21.7797], [74.0013, 21.8101]]]}}], "_source": "Western Ghats Hotspot. Source image: figure in IUCN \u2014 Molur, Smith, Daniel & Darwall (2010), The Status and Distribution of Freshwater Biodiversity in the Western Ghats, India (IUCN & Zoo Outreach Organization); via https://www.researchgate.net/figure/Map-showing-the-Western-Ghats-Hotspot-and-the-wider-catchment-areas-that-delineate-the_fig3_255716543 . Manually traced/georeferenced by Akif Vohra (repo author) on georeference.ai, then colour-vectorised with scripts/trace-geotiff.py. Confirm IUCN reuse terms. Approximate."}